{
	"type": "FeatureCollection",
	"features": [
		{
			"type": "Feature",
			"properties": { "name": "Brunnen Hackescher Markt" },
			"geometry": { "type": "Point", "coordinates": [13.4025, 52.5225] }
		},
		{
			"type": "Feature",
			"properties": { "name": "Brunnen Boxhagener Platz" },
			"geometry": { "type": "Point", "coordinates": [13.4612, 52.5119] }
		},
		{
			"type": "Feature",
			"properties": { "name": "Brunnen Hermannplatz" },
			"geometry": { "type": "Point", "coordinates": [13.4244, 52.4869] }
		}
	]
}
