{"type":"FeatureCollection", "features": [
{"type":"Feature","geometry":{"type":"LineString","coordinates":[[13.5585067,52.49261857],[13.55830541,52.48989456],[13.5581882,52.48767554],[13.55812268,52.48708729],[13.55800298,52.48490918],[13.55806465,52.48464203],[13.55845542,52.482463],[13.55898962,52.47944858]]},"properties":{"id":1,"bezirk":"Marzahn-Hellersdorf","strasse":"Alberichstraße","freigabe":"2003","abschnitt":"Hadubrandweg - Alfelder Straße"},"id":"fahrradstrassen.1"},
{"type":"Feature","geometry":{"type":"LineString","coordinates":[[13.3988834,52.55463486],[13.39917564,52.55356278],[13.39949567,52.55265124],[13.39981829,52.55188247],[13.3999265,52.55161691],[13.40012378,52.55108162]]},"properties":{"id":2,"bezirk":"Pankow","strasse":"Norwegerstraße","freigabe":"2005","abschnitt":"Behmstraße - Bösebrücke Nr. 1 bis Nr. 6, Finnländische Straße - Bösebrücke"},"id":"fahrradstrassen.2"},
{"type":"Feature","geometry":{"type":"LineString","coordinates":[[13.40039847,52.54875093],[13.40054518,52.54836516],[13.40090141,52.54747552],[13.40128033,52.54660095]]},"properties":{"id":3,"bezirk":"Pankow","strasse":"Schwedter Straße","freigabe":"2005","abschnitt":"Gleimstraße - Schwedter Steg von Nr. 76 bis Nr. 83"},"id":"fahrradstrassen.3"},
{"type":"Feature","geometry":{"type":"LineString","coordinates":[[13.47237318,52.54783992],[13.47288854,52.54763657],[13.47861729,52.54753617],[13.47962111,52.54742367]]},"properties":{"id":4,"bezirk":"Lichtenberg","strasse":"Orankeweg","freigabe":"2007","abschnitt":"Hansastraße - Orankestraße"},"id":"fahrradstrassen.4"},
{"type":"Feature","geometry":{"type":"LineString","coordinates":[[13.23677845,52.49212746],[13.23799247,52.49306381],[13.23915747,52.49365806],[13.24003152,52.49388872],[13.24352257,52.49429747],[13.2452829,52.49462826],[13.24669306,52.4951355],[13.24753877,52.49557862],[13.24860771,52.49638783],[13.24914924,52.49703221],[13.24945597,52.49755298],[13.25159484,52.5025899],[13.25224586,52.50372],[13.25287423,52.50434067],[13.25374866,52.50499947]]},"properties":{"id":5,"bezirk":"Charlottenburg-Wilmersdorf","strasse":"Teufelsseechaussee","freigabe":"2007","abschnitt":"Teufelsseestraße - Grunewald (bzw. Nr. 13 und Baumnummer 1"},"id":"fahrradstrassen.5"},
{"type":"Feature","geometry":{"type":"MultiLineString","coordinates":[[[13.39738711,52.48889963],[13.39924291,52.48887718],[13.39945013,52.48885857],[13.40512713,52.48877824],[13.40541778,52.48884358]],[[13.40541778,52.48884358],[13.40554735,52.48913914]]]},"properties":{"id":6,"bezirk":"Friedrichshain-Kreuzberg","strasse":"Bergmannstraße","freigabe":"2009","abschnitt":"52 bis 72, Knoten Schleiermacherstraße - Südstern"},"id":"fahrradstrassen.6"},
{"type":"Feature","geometry":{"type":"LineString","coordinates":[[13.22071588,52.57021582],[13.22249468,52.56877746],[13.22194697,52.5685009],[13.221595,52.5680479],[13.22182224,52.56764213],[13.22214262,52.56705697],[13.22189606,52.56658938],[13.22114076,52.5661522]]},"properties":{"id":7,"bezirk":"Spandau","strasse":"Elkartweg","freigabe":"2009","abschnitt":"Werderstraße - Aalemannkanal"},"id":"fahrradstrassen.7"},
{"type":"Feature","geometry":{"type":"LineString","coordinates":[[13.51908861,52.57744716],[13.52012395,52.57747027],[13.52394445,52.57758783],[13.52469511,52.57750203],[13.52550014,52.57730867],[13.5268612,52.5770687],[13.52913719,52.57708391],[13.53040361,52.57698783],[13.53190513,52.57678179]]},"properties":{"id":8,"bezirk":"Lichtenberg","strasse":"Grüne Trift","freigabe":"2009","abschnitt":"Lindenberger Straße - Ahornweg"},"id":"fahrradstrassen.8"},
{"type":"Feature","geometry":{"type":"MultiLineString","coordinates":[[[13.39292057,52.52748852],[13.39490994,52.52801984],[13.39727752,52.5286633],[13.39761341,52.52875825],[13.39792652,52.52883623],[13.39860411,52.52886682],[13.4000733,52.52890334],[13.40188041,52.52896145],[13.40311039,52.52900025],[13.40521668,52.52874485]],[[13.38768081,52.52635868],[13.3885517,52.52634066]],[[13.38835439,52.52612692],[13.38845787,52.52627883],[13.39292057,52.52748852]],[[13.40521668,52.52874485],[13.40745339,52.52847594],[13.40907917,52.52827554],[13.40950559,52.52823061]],[[13.40950559,52.52823061],[13.41029109,52.5280966],[13.41140566,52.52774522],[13.41406347,52.5269435],[13.41474536,52.52674567]]]},"properties":{"id":9,"bezirk":"Mitte","strasse":"Linienstraße","freigabe":"2009","abschnitt":null},"id":"fahrradstrassen.9"},
{"type":"Feature","geometry":{"type":"LineString","coordinates":[[13.407924,52.52451662],[13.40891296,52.5268363],[13.40950559,52.52823061]]},"properties":{"id":10,"bezirk":"Mitte","strasse":"Max-Beer-Straße","freigabe":"2009","abschnitt":"Münzstraße - Linienstraße"},"id":"fahrradstrassen.10"},
{"type":"Feature","geometry":{"type":"LineString","coordinates":[[13.40451271,52.52195861],[13.40526137,52.52216849],[13.40681056,52.52289826],[13.40720696,52.5234222],[13.407924,52.52451662]]},"properties":{"id":11,"bezirk":"Mitte","strasse":"Rochstraße","freigabe":"2009","abschnitt":"Münzstraße - Rosenstraße"},"id":"fahrradstrassen.11"},
{"type":"Feature","geometry":{"type":"LineString","coordinates":[[13.40541778,52.48884358],[13.40583128,52.48873394],[13.40768437,52.48870186]]},"properties":{"id":12,"bezirk":"Friedrichshain-Kreuzberg","strasse":"Südstern","freigabe":"2009","abschnitt":"Lilienthalstraße - Bergmannstraße"},"id":"fahrradstrassen.12"},
{"type":"Feature","geometry":{"type":"MultiLineString","coordinates":[[[13.40583398,52.53050602],[13.40595926,52.53108577],[13.40628447,52.53226141],[13.40628637,52.53236704],[13.40714068,52.53325575],[13.40815957,52.53430257],[13.41170314,52.53781383]],[[13.41170207,52.53781426],[13.41222504,52.53795055]]]},"properties":{"id":13,"bezirk":"Mitte","strasse":"Choriner Straße","freigabe":"2012","abschnitt":"Schwedter Straße - Schönhauser Allee, Haus Nr. 19 (gegenüber 64a) und 41 (gegenüber 42) und Zehdenicker Straße - Schwedter Straße"},"id":"fahrradstrassen.13"},
{"type":"Feature","geometry":{"type":"LineString","coordinates":[[13.4931768,52.49616874],[13.49386613,52.49560347]]},"properties":{"id":14,"bezirk":"Lichtenberg","strasse":"Fischerstraße","freigabe":"2012","abschnitt":"Kolonie Sanssouci - Zobtener Straße"},"id":"fahrradstrassen.14"},
{"type":"Feature","geometry":{"type":"MultiLineString","coordinates":[[[13.40521668,52.52874485],[13.40542101,52.52950289],[13.40583398,52.53050602]],[[13.40366838,52.52606701],[13.40395236,52.52612434],[13.40444732,52.52715242],[13.40467458,52.52758126],[13.40521668,52.52874485]]]},"properties":{"id":15,"bezirk":"Mitte","strasse":"Gormannstraße","freigabe":"2012","abschnitt":"Zehdenicker Straße - Weinmeister Straße"},"id":"fahrradstrassen.15"},
{"type":"Feature","geometry":{"type":"LineString","coordinates":[[13.49936927,52.49335863],[13.50014533,52.49340177],[13.5033838,52.49262238],[13.50611317,52.49205194]]},"properties":{"id":16,"bezirk":"Lichtenberg","strasse":"Hönower Weg","freigabe":"2012","abschnitt":"Verlängerung Fahrradstraße Zobtener Straße: Zobtener Straße - Neuer Feldweg (s. a. Nr. 16)"},"id":"fahrradstrassen.16"},
{"type":"Feature","geometry":{"type":"LineString","coordinates":[[13.33276249,52.47728387],[13.3327617,52.47793741],[13.33277577,52.47868366],[13.33279615,52.47981225],[13.33304885,52.48054709],[13.33318053,52.48069454],[13.33332185,52.48151726],[13.33325054,52.48178031],[13.33323494,52.48393225],[13.33315797,52.48599711],[13.33311487,52.48762674],[13.33301162,52.4899156],[13.33306965,52.49070926],[13.33307123,52.49293817]]},"properties":{"id":17,"bezirk":"Charlottenburg-Wilmersdorf","strasse":"Prinzregentenstraße","freigabe":"2012","abschnitt":"komplett zwischen Nr. 1b bis 30, 97 bis 67, Waghäuser Straße - am Volkspark, Wexstraße - Durlaucher Straße"},"id":"fahrradstrassen.17"},
{"type":"Feature","geometry":{"type":"MultiLineString","coordinates":[[[13.49386613,52.49560347],[13.49399259,52.49552615],[13.49671153,52.49457885],[13.49778667,52.49408768],[13.4988966,52.49344778],[13.49936927,52.49335863]],[[13.48254618,52.5000889],[13.48614122,52.49858656],[13.48804009,52.49777348],[13.49150684,52.49647368],[13.492732,52.49598021],[13.49386613,52.49560347]]]},"properties":{"id":18,"bezirk":"Lichtenberg","strasse":"Zobtener Straße","freigabe":"2012","abschnitt":"Schlichtallee - Hönower Weg (s. a. Nr. 14)"},"id":"fahrradstrassen.18"},
{"type":"Feature","geometry":{"type":"LineString","coordinates":[[13.59743944,52.45601066],[13.59880913,52.4562662],[13.59971326,52.45634717]]},"properties":{"id":19,"bezirk":"Treptow-Köpenick","strasse":"Wiesenpromenade","freigabe":"2013","abschnitt":"Hirschgartenstraße - Hirschsprung"},"id":"fahrradstrassen.19"},
{"type":"Feature","geometry":{"type":"LineString","coordinates":[[13.33515056,52.46408482],[13.33648351,52.4632125],[13.33740476,52.46259571],[13.33770912,52.4622705],[13.33778143,52.4619016],[13.33786477,52.46124024],[13.33775659,52.46111382],[13.33758735,52.46064398],[13.33761198,52.46024839],[13.33763026,52.4594016],[13.33766985,52.45855385],[13.33762656,52.45774224],[13.33730366,52.45525291],[13.33676166,52.45413552],[13.33627131,52.45314612],[13.33585911,52.45230532],[13.33534131,52.45142627]]},"properties":{"id":20,"bezirk":"Steglitz-Zehlendorf","strasse":"Lauenburger Straße","freigabe":"2016","abschnitt":null},"id":"fahrradstrassen.20"},
{"type":"Feature","geometry":{"type":"LineString","coordinates":[[13.33026489,52.44529326],[13.33047254,52.44536161],[13.33104712,52.44598017],[13.33167601,52.44682294],[13.33229153,52.44781261],[13.33287728,52.44859164],[13.33350384,52.44932129],[13.33423173,52.45015228],[13.33534131,52.45142627]]},"properties":{"id":21,"bezirk":"Steglitz-Zehlendorf","strasse":"Sedanstraße","freigabe":"2016","abschnitt":null},"id":"fahrradstrassen.21"},
{"type":"Feature","geometry":{"type":"LineString","coordinates":[[13.42508037,52.48819967],[13.4279301,52.4883452],[13.42877463,52.4883381],[13.42940203,52.48819149],[13.43155553,52.48745387]]},"properties":{"id":22,"bezirk":"Neukölln","strasse":"Weserstraße","freigabe":"2017","abschnitt":"Kottbusser Damm - Fuldastraße"},"id":"fahrradstrassen.22"},
{"type":"Feature","geometry":{"type":"LineString","coordinates":[[13.43155553,52.48745387],[13.4353634,52.48611384],[13.43752116,52.48503642]]},"properties":{"id":23,"bezirk":"Neukölln","strasse":"Weserstraße2","freigabe":"2017","abschnitt":"Kottbusser Damm - Fuldastraße"},"id":"fahrradstrassen.23"},
{"type":"Feature","geometry":{"type":"LineString","coordinates":[[13.4459934,52.48285937],[13.44674378,52.48345919]]},"properties":{"id":24,"bezirk":"Neukölln","strasse":"Innstraße","freigabe":"2018","abschnitt":"Wildenbruchplatz - Weigandufer"},"id":"fahrradstrassen.24"},
{"type":"Feature","geometry":{"type":"LineString","coordinates":[[13.4338915,52.48986775],[13.4358825,52.48907447],[13.43779774,52.48810564],[13.43788915,52.48801251]]},"properties":{"id":25,"bezirk":"Neukölln","strasse":"Pflügerstraße","freigabe":"2018","abschnitt":"Pannierstraße - Weichselplatz"},"id":"fahrradstrassen.25"},
{"type":"Feature","geometry":{"type":"LineString","coordinates":[[13.43788915,52.48801251],[13.44002643,52.48691669]]},"properties":{"id":26,"bezirk":"Neukölln","strasse":"Weichselplatz","freigabe":"2018","abschnitt":null},"id":"fahrradstrassen.26"},
{"type":"Feature","geometry":{"type":"MultiLineString","coordinates":[[[13.44002643,52.48691669],[13.44211078,52.48582727],[13.44421182,52.4847772],[13.44674378,52.48345919]],[[13.44674378,52.48345919],[13.44795986,52.48283998],[13.44860364,52.48249881],[13.44923021,52.48218826],[13.45068483,52.4814318],[13.45180065,52.48088994]]]},"properties":{"id":27,"bezirk":"Neukölln","strasse":"Weigandufer","freigabe":"2018","abschnitt":"Weichselplatz - Treptower Straße"},"id":"fahrradstrassen.27"},
{"type":"Feature","geometry":{"type":"LineString","coordinates":[[13.50301388,52.48017224],[13.50766925,52.47858566],[13.5083146,52.47840721]]},"properties":{"id":28,"bezirk":"Lichtenberg","strasse":"Hegemeisterweg","freigabe":"2019","abschnitt":"Rummelsburger Landstraße - Gleyeweg"},"id":"fahrradstrassen.28"},
{"type":"Feature","geometry":{"type":"LineString","coordinates":[[13.44458654,52.50083715],[13.44479545,52.50111995]]},"properties":{"id":29,"bezirk":"Friedrichshain-Kreuzberg","strasse":"Oberbaumstraße","freigabe":"2019","abschnitt":"Falckensteinstraße - Oberbaumbrücke"},"id":"fahrradstrassen.29"},
{"type":"Feature","geometry":{"type":"LineString","coordinates":[[13.41289409,52.49188266],[13.41344718,52.49259879],[13.41392553,52.49324885],[13.41503172,52.49464961]]},"properties":{"id":30,"bezirk":"Friedrichshain-Kreuzberg","strasse":"Grimmstraße","freigabe":"2020","abschnitt":null},"id":"fahrradstrassen.30"},
{"type":"Feature","geometry":{"type":"LineString","coordinates":[[13.40559726,52.57556783],[13.40657055,52.57576099]]},"properties":{"id":31,"bezirk":"Pankow","strasse":"Majakowskiring","freigabe":"2020","abschnitt":"Majakowskiring - Ossietzkystraße"},"id":"fahrradstrassen.31"},
{"type":"Feature","geometry":{"type":"MultiLineString","coordinates":[[[13.40631207,52.57626658],[13.40657055,52.57576099]],[[13.40657055,52.57576099],[13.40714453,52.57461466],[13.40752262,52.57387873],[13.40796734,52.57297361],[13.4084203,52.57211022],[13.40898985,52.57099757]]]},"properties":{"id":32,"bezirk":"Pankow","strasse":"Ossietzkystraße","freigabe":"2020","abschnitt":null},"id":"fahrradstrassen.32"},
{"type":"Feature","geometry":{"type":"LineString","coordinates":[[13.37375093,52.52339717],[13.37376973,52.52464037],[13.37378768,52.52588056],[13.37454773,52.52672052],[13.37464232,52.52711672],[13.37431751,52.52796848]]},"properties":{"id":33,"bezirk":"Mitte","strasse":"Alexanderufer","freigabe":"2021","abschnitt":null},"id":"fahrradstrassen.33"},
{"type":"Feature","geometry":{"type":"MultiLineString","coordinates":[[[13.4186141,52.47669178],[13.42018161,52.47687211],[13.42132214,52.47700866]],[[13.42281909,52.47715955],[13.42396689,52.47729848],[13.42615248,52.47757227]]]},"properties":{"id":34,"bezirk":"Neukölln","strasse":"Herrfurthstraße","freigabe":"2021","abschnitt":null},"id":"fahrradstrassen.34"},
{"type":"Feature","geometry":{"type":"LineString","coordinates":[[13.3462069,52.55005901],[13.34774058,52.55107718],[13.34917895,52.55204341]]},"properties":{"id":35,"bezirk":"Mitte","strasse":"Kameruner Straße","freigabe":"2021","abschnitt":"Müllerstraße - Togostraße"},"id":"fahrradstrassen.35"},
{"type":"Feature","geometry":{"type":"MultiLineString","coordinates":[[[13.40775729,52.48890884],[13.40787596,52.48907994],[13.40828061,52.48962907],[13.40864181,52.48987895],[13.41073927,52.49086435],[13.41233023,52.49161132]],[[13.41233023,52.49161132],[13.41260582,52.49196709]],[[13.41233023,52.49161132],[13.41298295,52.49145117]]]},"properties":{"id":36,"bezirk":"Friedrichshain-Kreuzberg","strasse":"Körtestraße","freigabe":"2021","abschnitt":null},"id":"fahrradstrassen.36"},
{"type":"Feature","geometry":{"type":"MultiLineString","coordinates":[[[13.42541711,52.50458762],[13.42475121,52.50399516],[13.42449969,52.50360562],[13.42442501,52.5031921],[13.4239156,52.50232737]],[[13.4239156,52.50232737],[13.42489938,52.50206927]],[[13.4239156,52.50232737],[13.42384174,52.50199453],[13.42412946,52.50179734]],[[13.42412946,52.50179734],[13.42449618,52.50178914],[13.42489938,52.50206927]],[[13.42489938,52.50206927],[13.4258163,52.50339056],[13.42677149,52.50480681],[13.42710398,52.5053215],[13.42697545,52.5056457],[13.4265338,52.50578613]]]},"properties":{"id":37,"bezirk":"Friedrichshain-Kreuzberg","strasse":"Mariannenplatz","freigabe":"2021","abschnitt":null},"id":"fahrradstrassen.37"},
{"type":"Feature","geometry":{"type":"LineString","coordinates":[[13.41979652,52.49640147],[13.42012314,52.49643925],[13.42148274,52.49814003],[13.42228875,52.49910981],[13.42288542,52.49997739],[13.42306983,52.50024552],[13.42325025,52.50050908],[13.42374432,52.5012308],[13.42412946,52.50179734]]},"properties":{"id":38,"bezirk":"Friedrichshain-Kreuzberg","strasse":"Mariannenstraße","freigabe":"2021","abschnitt":null},"id":"fahrradstrassen.38"},
{"type":"Feature","geometry":{"type":"LineString","coordinates":[[13.42955165,52.52116785],[13.43100138,52.52054003],[13.43186756,52.5202818],[13.43345123,52.51982662],[13.43394871,52.51968937],[13.43709186,52.51903154],[13.44022661,52.51838778],[13.44062626,52.51855482]]},"properties":{"id":39,"bezirk":"Friedrichshain-Kreuzberg","strasse":"Palisadenstraße","freigabe":"2021","abschnitt":null},"id":"fahrradstrassen.39"},
{"type":"Feature","geometry":{"type":"LineString","coordinates":[[13.45359881,52.51845059],[13.4571053,52.51780025],[13.45905142,52.51745927],[13.4611151,52.51710096],[13.46377976,52.51661678],[13.46510639,52.51636994],[13.46810772,52.51584504],[13.47190191,52.51516854],[13.47335805,52.51489474],[13.47416595,52.51464824]]},"properties":{"id":40,"bezirk":"Friedrichshain-Kreuzberg","strasse":"Rigaer Straße","freigabe":"2021","abschnitt":null},"id":"fahrradstrassen.40"},
{"type":"Feature","geometry":{"type":"LineString","coordinates":[[13.3462069,52.55005901],[13.34794554,52.54906988],[13.34860256,52.54868339]]},"properties":{"id":41,"bezirk":"Mitte","strasse":"Togostraße","freigabe":"2021","abschnitt":"Seestraße - Kameruner Straße"},"id":"fahrradstrassen.41"},
{"type":"Feature","geometry":{"type":"LineString","coordinates":[[13.44094095,52.51818796],[13.44281605,52.51799886],[13.44759602,52.51752839],[13.44797536,52.51749768],[13.44922273,52.51773289],[13.45048554,52.51797305],[13.4512095,52.51812288],[13.45249359,52.51838992]]},"properties":{"id":42,"bezirk":"Friedrichshain-Kreuzberg","strasse":"Weidenweg","freigabe":"2021","abschnitt":null},"id":"fahrradstrassen.42"},
{"type":"Feature","geometry":{"type":"LineString","coordinates":[[13.34860256,52.54868339],[13.34892562,52.54852959],[13.35066809,52.5472788],[13.35207054,52.54624806]]},"properties":{"id":43,"bezirk":"Mitte","strasse":"Antwerpener Straße","freigabe":"2022","abschnitt":"Seestraße - Ostender Straße"},"id":"fahrradstrassen.43"},
{"type":"Feature","geometry":{"type":"LineString","coordinates":[[13.47932461,52.48451898],[13.47967709,52.4845619],[13.48150623,52.48543352],[13.48198113,52.48577379]]},"properties":{"id":44,"bezirk":"Treptow-Köpenick","strasse":"Bulgarische Straße","freigabe":"2022","abschnitt":"Alt-Treptow - Spree"},"id":"fahrradstrassen.44"},
{"type":"Feature","geometry":{"type":"LineString","coordinates":[[13.36618893,52.49527718],[13.36657352,52.49518543],[13.3672085,52.4936963],[13.36714788,52.49335013]]},"properties":{"id":45,"bezirk":"Friedrichshain-Kreuzberg","strasse":"Bülowstraße","freigabe":"2022","abschnitt":"Bülowstraße - Yorckstraße"},"id":"fahrradstrassen.45"},
{"type":"Feature","geometry":{"type":"LineString","coordinates":[[13.39072776,52.51711313],[13.39079012,52.51631998],[13.39093543,52.51575816],[13.39110398,52.51488026],[13.39123209,52.51398873],[13.39139274,52.5131131],[13.39155392,52.51222321],[13.39170339,52.51133315],[13.39182682,52.51047895]]},"properties":{"id":46,"bezirk":"Mitte","strasse":"Charlottenstraße","freigabe":"2022","abschnitt":"Unter den Linden - Leipziger Straße"},"id":"fahrradstrassen.46"},
{"type":"Feature","geometry":{"type":"LineString","coordinates":[[13.4047383,52.5403179],[13.40500695,52.54033341],[13.40971877,52.53857541],[13.41170207,52.53781426]]},"properties":{"id":47,"bezirk":"Pankow","strasse":"Oderberger Straße","freigabe":"2022","abschnitt":"Schwedter Straße - Choriner Straße"},"id":"fahrradstrassen.47"},
{"type":"Feature","geometry":{"type":"LineString","coordinates":[[13.41341245,52.54769833],[13.41359669,52.54763357],[13.41528307,52.54749412],[13.41639131,52.54716877],[13.4182356,52.54652022],[13.41987632,52.54580111],[13.42124429,52.54519491],[13.4226452,52.54459389],[13.42396913,52.54401681],[13.4264464,52.54293227]]},"properties":{"id":48,"bezirk":"Pankow","strasse":"Stargarder Straße","freigabe":"2022","abschnitt":null},"id":"fahrradstrassen.48"},
{"type":"Feature","geometry":{"type":"LineString","coordinates":[[13.44942968,52.54633666],[13.4501451,52.54696335],[13.45185658,52.54736788],[13.45327493,52.54767631],[13.4562355,52.54832276],[13.45897399,52.54890559],[13.46190173,52.54954671],[13.46258029,52.54969243],[13.46643675,52.55052275]]},"properties":{"id":49,"bezirk":"Pankow","strasse":"Bizetstraße","freigabe":"2023","abschnitt":null},"id":"fahrradstrassen.49"},
{"type":"Feature","geometry":{"type":"LineString","coordinates":[[13.29171586,52.6336936],[13.2935658,52.63377331],[13.29452291,52.63386636],[13.29498655,52.63438208],[13.29555806,52.63459216],[13.2976132,52.6351119],[13.30051931,52.63581547],[13.30188496,52.63610588],[13.30379278,52.63665906],[13.30607861,52.63702835]]},"properties":{"id":50,"bezirk":"Reinickendorf","strasse":"Edelhofdamm","freigabe":"2023","abschnitt":null},"id":"fahrradstrassen.50"},
{"type":"Feature","geometry":{"type":"LineString","coordinates":[[13.32718975,52.49484692],[13.32696503,52.49515677],[13.32692675,52.49645883],[13.32686924,52.49820749],[13.32690191,52.49881777],[13.3270449,52.50017294]]},"properties":{"id":51,"bezirk":"Charlottenburg-Wilmersdorf","strasse":"Fasanenstraße","freigabe":"2023","abschnitt":null},"id":"fahrradstrassen.51"},
{"type":"Feature","geometry":{"type":"MultiLineString","coordinates":[[[13.36699309,52.54485307],[13.36803165,52.54483647],[13.36927997,52.54492332]],[[13.36186515,52.54485149],[13.3625953,52.54490586],[13.36436599,52.54487563],[13.36610596,52.5448397]]]},"properties":{"id":52,"bezirk":"Mitte","strasse":"Gerichtstraße","freigabe":"2023","abschnitt":null},"id":"fahrradstrassen.52"},
{"type":"Feature","geometry":{"type":"LineString","coordinates":[[13.50611317,52.49205194],[13.50939502,52.49134573],[13.51008338,52.491256],[13.51079173,52.49128395],[13.51203258,52.49142871],[13.5131769,52.49162796],[13.51581351,52.49226054],[13.51610753,52.49238317],[13.51917159,52.49311381]]},"properties":{"id":53,"bezirk":"Lichtenberg","strasse":"Hönower Weg2","freigabe":"2023","abschnitt":null},"id":"fahrradstrassen.53"},
{"type":"Feature","geometry":{"type":"LineString","coordinates":[[13.40797661,52.5062771],[13.40990472,52.50482984],[13.41002484,52.50466429],[13.40959688,52.50397667]]},"properties":{"id":54,"bezirk":"Friedrichshain-Kreuzberg","strasse":"Stallschreiberstraße","freigabe":"2023","abschnitt":null},"id":"fahrradstrassen.54"},
{"type":"Feature","geometry":{"type":"MultiLineString","coordinates":[[[13.35081102,52.54261018],[13.35119869,52.54223935]],[[13.35035266,52.54201346],[13.35119869,52.54223935]],[[13.35119869,52.54223935],[13.35335075,52.5426818],[13.35621259,52.5432604],[13.35826053,52.54369324],[13.35901232,52.54393679],[13.36028875,52.54434224],[13.36186515,52.54485149]]]},"properties":{"id":55,"bezirk":"Mitte","strasse":"Triftstraße","freigabe":"2023","abschnitt":null},"id":"fahrradstrassen.55"},
{"type":"Feature","geometry":{"type":"MultiLineString","coordinates":[[[13.39292057,52.52748852],[13.39240715,52.52822827]],[[13.39288475,52.52498395],[13.39359258,52.5263048],[13.39353323,52.52641206],[13.39292057,52.52748852]]]},"properties":{"id":56,"bezirk":"Mitte","strasse":"Tucholskystraße","freigabe":"2023","abschnitt":null},"id":"fahrradstrassen.56"},
{"type":"Feature","geometry":{"type":"LineString","coordinates":[[13.34236456,52.52244376],[13.34292786,52.52255394],[13.34370348,52.52256718],[13.34501171,52.52245924],[13.34566159,52.52235192],[13.34658702,52.5220104],[13.34815386,52.52120443],[13.34882723,52.52063677]]},"properties":{"id":57,"bezirk":"Mitte","strasse":"Holsteiner Ufer","freigabe":"2023","abschnitt":null},"id":"fahrradstrassen.57"}
]}