{"type":"FeatureCollection","features":[{"type":"Feature","id":"weitere_krankenhaeuser.1","geometry":{"type":"Point","coordinates":[13.32469924,52.5095826]},"geometry_name":"geom","properties":{"gisid":1,"name":"ARGORA Klinik Berlin","fachabteilungen":"Psychotherapeutische Medizin","gc_strasse":"Hardenbergstraße","gc_haus":"9A","gc_plz":"10623","gc_ortsteil":"Charlottenburg","betten":26},"bbox":[13.32469924,52.5095826,13.32469924,52.5095826]},{"type":"Feature","id":"weitere_krankenhaeuser.2","geometry":{"type":"Point","coordinates":[13.3445877,52.50120379]},"geometry_name":"geom","properties":{"gisid":2,"name":"Augenklinik am Wittenbergplatz mit kosmetischer Laserchirurgie","fachabteilungen":"Augenheilkunde","gc_strasse":"Kleiststraße","gc_haus":"23 - 26","gc_plz":"10787","gc_ortsteil":"Schöneberg","betten":4},"bbox":[13.3445877,52.50120379,13.3445877,52.50120379]},{"type":"Feature","id":"weitere_krankenhaeuser.3","geometry":{"type":"Point","coordinates":[13.30653042,52.49863615]},"geometry_name":"geom","properties":{"gisid":3,"name":"Avicenna Klinik","fachabteilungen":"Chirurgie Neurochirurgie Orthopädie","gc_strasse":"Paulsborner Straße","gc_haus":"2","gc_plz":"10709","gc_ortsteil":"Wilmersdorf","betten":12},"bbox":[13.30653042,52.49863615,13.30653042,52.49863615]},{"type":"Feature","id":"weitere_krankenhaeuser.4","geometry":{"type":"Point","coordinates":[13.31379026,52.50163582]},"geometry_name":"geom","properties":{"gisid":4,"name":"Berlin Eye-Clinic","fachabteilungen":"Augenheilkunde","gc_strasse":"Walter-Benjamin-Platz","gc_haus":"8","gc_plz":"10629","gc_ortsteil":"Charlottenburg","betten":2},"bbox":[13.31379026,52.50163582,13.31379026,52.50163582]},{"type":"Feature","id":"weitere_krankenhaeuser.5","geometry":{"type":"Point","coordinates":[13.37809172,52.50882401]},"geometry_name":"geom","properties":{"gisid":5,"name":"Berlin Klinik Leipziger Platz","fachabteilungen":"Mund-Kiefer- Gesichtschirurgie","gc_strasse":"Leipziger Platz","gc_haus":"3","gc_plz":"10117","gc_ortsteil":"Mitte","betten":2},"bbox":[13.37809172,52.50882401,13.37809172,52.50882401]},{"type":"Feature","id":"weitere_krankenhaeuser.6","geometry":{"type":"Point","coordinates":[13.30078882,52.43978192]},"geometry_name":"geom","properties":{"gisid":6,"name":"Casa Dentalis GmbH","fachabteilungen":"Mund-Kiefer- Gesichtschirurgie","gc_strasse":"Ringstraße","gc_haus":"81","gc_plz":"12203","gc_ortsteil":"Lichterfelde","betten":2},"bbox":[13.30078882,52.43978192,13.30078882,52.43978192]},{"type":"Feature","id":"weitere_krankenhaeuser.7","geometry":{"type":"Point","coordinates":[13.28645068,52.47567648]},"geometry_name":"geom","properties":{"gisid":7,"name":"Chirurgia Ästhetica - Dr. Kümpel -Privatklinik für Schönheitsoperationen-","fachabteilungen":"Sonstige Fachbereiche ","gc_strasse":"Hundekehlestraße","gc_haus":"32","gc_plz":"14199","gc_ortsteil":"Schmargendorf","betten":3},"bbox":[13.28645068,52.47567648,13.28645068,52.47567648]},{"type":"Feature","id":"weitere_krankenhaeuser.8","geometry":{"type":"Point","coordinates":[13.31724068,52.49162379]},"geometry_name":"geom","properties":{"gisid":8,"name":"Chirurgische Privatklinik am Hohenzollerndamm - CLINICA Vita -","fachabteilungen":"Chirurgie Hals-Nasen-Ohrenheilkunde Orthopädie Plastische Chirurgie","gc_strasse":"Hohenzollerndamm","gc_haus":"28A","gc_plz":"10713","gc_ortsteil":"Wilmersdorf","betten":6},"bbox":[13.31724068,52.49162379,13.31724068,52.49162379]},{"type":"Feature","id":"weitere_krankenhaeuser.9","geometry":{"type":"Point","coordinates":[13.37288838,52.51041891]},"geometry_name":"geom","properties":{"gisid":9,"name":"EuroEyes","fachabteilungen":"Augenheilkunde","gc_strasse":"Bellevuestraße","gc_haus":"5","gc_plz":"10785","gc_ortsteil":"Tiergarten","betten":1},"bbox":[13.37288838,52.51041891,13.37288838,52.51041891]},{"type":"Feature","id":"weitere_krankenhaeuser.10","geometry":{"type":"Point","coordinates":[13.39149103,52.5111632]},"geometry_name":"geom","properties":{"gisid":10,"name":"Fliedner Klinik Berlin","fachabteilungen":"Psychiatrie und Psychotherapie ","gc_strasse":"Charlottenstraße","gc_haus":"65","gc_plz":"10117","gc_ortsteil":"Mitte","betten":44},"bbox":[13.39149103,52.5111632,13.39149103,52.5111632]},{"type":"Feature","id":"weitere_krankenhaeuser.11","geometry":{"type":"Point","coordinates":[13.50848729,52.62977871]},"geometry_name":"geom","properties":{"gisid":11,"name":"HELIOS Privatkliniken, Betriebsstätte Berlin-Buch","fachabteilungen":"Augenheilkunde, Chirurgie, Frauenheilkunde und Geburtshilfe, Geriatrie, Hals-Nasen-Ohrenheilkunde, Innere Medizin, Neurochirurgie, Neurologie, Orthopädie, Strahlentherapie, Urologie, sonstige Fachbereiche","gc_strasse":"Schwanebecker Chaussee","gc_haus":"50","gc_plz":"13125","gc_ortsteil":"Buch","betten":61},"bbox":[13.50848729,52.62977871,13.50848729,52.62977871]},{"type":"Feature","id":"weitere_krankenhaeuser.12","geometry":{"type":"Point","coordinates":[13.25312722,52.42274561]},"geometry_name":"geom","properties":{"gisid":12,"name":"HELIOS Privatkliniken, Betriebsstätte Berlin-Zehlendorf","fachabteilungen":"Chirurgie, Innere Medizin, Orthopädie, Plastische Chirurgie, Psychotherapeutische Medizn","gc_strasse":"Walterhöferstraße","gc_haus":"11","gc_plz":"14165","gc_ortsteil":"Zehlendorf","betten":4},"bbox":[13.25312722,52.42274561,13.25312722,52.42274561]},{"type":"Feature","id":"weitere_krankenhaeuser.13","geometry":{"type":"Point","coordinates":[13.389587,52.51345196]},"geometry_name":"geom","properties":{"gisid":13,"name":"Hydrox.Y Klinik","fachabteilungen":"Chirurgie, Frauenheilkunde und Geburtshilfe","gc_strasse":"Friedrichstraße","gc_haus":"71","gc_plz":"10117","gc_ortsteil":"Mitte","betten":4},"bbox":[13.389587,52.51345196,13.389587,52.51345196]},{"type":"Feature","id":"weitere_krankenhaeuser.14","geometry":{"type":"Point","coordinates":[13.32165264,52.50259489]},"geometry_name":"geom","properties":{"gisid":14,"name":"Klinik am Kurfürstendamm - Private Zahnklinik für Mund -, Kiefer und Gesichtschirurgie ","fachabteilungen":"Mund-Kiefer- Gesichtschirurgie Sonstige Fachbereiche","gc_strasse":"Knesebeckstraße","gc_haus":"35 - 37","gc_plz":"10623","gc_ortsteil":"Charlottenburg","betten":2},"bbox":[13.32165264,52.50259489,13.32165264,52.50259489]},{"type":"Feature","id":"weitere_krankenhaeuser.15","geometry":{"type":"Point","coordinates":[13.55824773,52.50531525]},"geometry_name":"geom","properties":{"gisid":15,"name":"Klinik am Schlosspark Biesdorf","fachabteilungen":"Sonstige Fachbereiche","gc_strasse":"Elsterwerdaer Platz","gc_haus":"1","gc_plz":"12683","gc_ortsteil":"Biesdorf","betten":4},"bbox":[13.55824773,52.50531525,13.55824773,52.50531525]},{"type":"Feature","id":"weitere_krankenhaeuser.16","geometry":{"type":"Point","coordinates":[13.34384481,52.50116417]},"geometry_name":"geom","properties":{"gisid":16,"name":"Klinik am Wittenbergplatz","fachabteilungen":"Chirurgie, Innere Medizin, Plastische Chirurgie, sonstige Fachbereicht","gc_strasse":"Bayreuther Straße","gc_haus":"36","gc_plz":"10789","gc_ortsteil":"Schöneberg","betten":6},"bbox":[13.34384481,52.50116417,13.34384481,52.50116417]},{"type":"Feature","id":"weitere_krankenhaeuser.17","geometry":{"type":"Point","coordinates":[13.31057542,52.50007738]},"geometry_name":"geom","properties":{"gisid":17,"name":"Klinik Dr. Mertz","fachabteilungen":"Plastische Chirurgie","gc_strasse":"Kurfürstendamm","gc_haus":"177","gc_plz":"10707","gc_ortsteil":"Wilmersdorf","betten":2},"bbox":[13.31057542,52.50007738,13.31057542,52.50007738]},{"type":"Feature","id":"weitere_krankenhaeuser.18","geometry":{"type":"Point","coordinates":[13.20246204,52.4334848]},"geometry_name":"geom","properties":{"gisid":18,"name":"Klinik Nikolassee","fachabteilungen":"Innere Medizin, Psychiatrie und Psychotherapie","gc_strasse":"Von-Luck-Straße","gc_haus":"3","gc_plz":"14129","gc_ortsteil":"Nikolassee","betten":16},"bbox":[13.20246204,52.4334848,13.20246204,52.4334848]},{"type":"Feature","id":"weitere_krankenhaeuser.19","geometry":{"type":"Point","coordinates":[13.28987425,52.46872646]},"geometry_name":"geom","properties":{"gisid":19,"name":"Klinik Pacelliallee","fachabteilungen":"Psychiatrie und Psychotherapie","gc_strasse":"Pacelliallee","gc_haus":"6","gc_plz":"14195","gc_ortsteil":"Dahlem","betten":39},"bbox":[13.28987425,52.46872646,13.28987425,52.46872646]},{"type":"Feature","id":"weitere_krankenhaeuser.20","geometry":{"type":"Point","coordinates":[13.56958706,52.44314475]},"geometry_name":"geom","properties":{"gisid":20,"name":"M1 Schlossklinik","fachabteilungen":"Plastische Chirurgie","gc_strasse":"Grünauer Straße","gc_haus":"5","gc_plz":"12557","gc_ortsteil":"Köpenick","betten":35},"bbox":[13.56958706,52.44314475,13.56958706,52.44314475]},{"type":"Feature","id":"weitere_krankenhaeuser.21","geometry":{"type":"Point","coordinates":[13.4958884,52.51270372]},"geometry_name":"geom","properties":{"gisid":21,"name":"MedizinZentrum am Sana Klinikum Lichtenberg","fachabteilungen":"Chirurgie, Innere Medizin","gc_strasse":"Frankfurter Allee","gc_haus":"231A","gc_plz":"10365","gc_ortsteil":"Lichtenberg","betten":3},"bbox":[13.4958884,52.51270372,13.4958884,52.51270372]},{"type":"Feature","id":"weitere_krankenhaeuser.22","geometry":{"type":"Point","coordinates":[13.27630986,52.51284197]},"geometry_name":"geom","properties":{"gisid":22,"name":"Mental Health Institute","fachabteilungen":"Psychiatrie und Psychotherapie","gc_strasse":"Platanenallee","gc_haus":"1","gc_plz":"14050","gc_ortsteil":"Westend","betten":27},"bbox":[13.27630986,52.51284197,13.27630986,52.51284197]},{"type":"Feature","id":"weitere_krankenhaeuser.23","geometry":{"type":"Point","coordinates":[13.389587,52.51345196]},"geometry_name":"geom","properties":{"gisid":23,"name":"MEOCLINIC - Internationale Privatklinik -","fachabteilungen":"Chirurgie, Innere Medizin, Neurologie, Orthopädie, Urologie, sonstige Fachbereiche","gc_strasse":"Friedrichstraße","gc_haus":"71","gc_plz":"10117","gc_ortsteil":"Mitte","betten":38},"bbox":[13.389587,52.51345196,13.389587,52.51345196]},{"type":"Feature","id":"weitere_krankenhaeuser.24","geometry":{"type":"Point","coordinates":[13.33244394,52.48619488]},"geometry_name":"geom","properties":{"gisid":24,"name":"Panorama Klinik Berlin","fachabteilungen":"Psychotherapeutische Medizin","gc_strasse":"Badensche Straße","gc_haus":"18","gc_plz":"10715","gc_ortsteil":"Wilmersdorf","betten":24},"bbox":[13.33244394,52.48619488,13.33244394,52.48619488]},{"type":"Feature","id":"weitere_krankenhaeuser.25","geometry":{"type":"Point","coordinates":[13.28925023,52.52236544]},"geometry_name":"geom","properties":{"gisid":25,"name":"Park-Klinik Sophie-Charlotte - Private Fachklinik für Psychiatrie und Psychosomatik am Schloss Charlottenburg","fachabteilungen":"Innere Medizin, Psychiatrie und Psychotherapie, Psychotherapeutische Medizin","gc_strasse":"Heubnerweg","gc_haus":"2A","gc_plz":"14059","gc_ortsteil":"Charlottenburg","betten":65},"bbox":[13.28925023,52.52236544,13.28925023,52.52236544]},{"type":"Feature","id":"weitere_krankenhaeuser.26","geometry":{"type":"Point","coordinates":[13.31643795,52.50044185]},"geometry_name":"geom","properties":{"gisid":26,"name":"Plasthethics GmbH","fachabteilungen":"Plastische Chirurgie","gc_strasse":"Schlüterstraße","gc_haus":"40","gc_plz":"10707","gc_ortsteil":"Charlottenburg","betten":2},"bbox":[13.31643795,52.50044185,13.31643795,52.50044185]},{"type":"Feature","id":"weitere_krankenhaeuser.27","geometry":{"type":"Point","coordinates":[13.30484388,52.51172834]},"geometry_name":"geom","properties":{"gisid":27,"name":"Privatklinik Charlottenburg","fachabteilungen":"Sonstige Fachbereiche ","gc_strasse":"Bismarckstraße","gc_haus":"45 - 47","gc_plz":"10627","gc_ortsteil":"Charlottenburg","betten":8},"bbox":[13.30484388,52.51172834,13.30484388,52.51172834]},{"type":"Feature","id":"weitere_krankenhaeuser.28","geometry":{"type":"Point","coordinates":[13.32007668,52.456853]},"geometry_name":"geom","properties":{"gisid":28,"name":"Privatklinik Schloßstraße","fachabteilungen":"Sonstige Fachbereiche","gc_strasse":"Schloßstraße","gc_haus":"38 - 40","gc_plz":"12165","gc_ortsteil":"Steglitz","betten":2},"bbox":[13.32007668,52.456853,13.32007668,52.456853]},{"type":"Feature","id":"weitere_krankenhaeuser.29","geometry":{"type":"Point","coordinates":[13.18031845,52.50281489]},"geometry_name":"geom","properties":{"gisid":29,"name":"Privatklinik Spandau PKS GmbH","fachabteilungen":"Sonstige Fachbereiche ","gc_strasse":"Gatower Straße","gc_haus":"191","gc_plz":"13595","gc_ortsteil":"Wilhelmstadt","betten":6},"bbox":[13.18031845,52.50281489,13.18031845,52.50281489]},{"type":"Feature","id":"weitere_krankenhaeuser.30","geometry":{"type":"Point","coordinates":[13.44738941,52.56038289]},"geometry_name":"geom","properties":{"gisid":30,"name":"SBW Schmerzklinik Berlin","fachabteilungen":"Sonstige Fachbereiche ","gc_strasse":"Schmohlstraße","gc_haus":"24","gc_plz":"13086","gc_ortsteil":"Weißensee","betten":30},"bbox":[13.44738941,52.56038289,13.44738941,52.56038289]},{"type":"Feature","id":"weitere_krankenhaeuser.31","geometry":{"type":"Point","coordinates":[13.28434688,52.47465768]},"geometry_name":"geom","properties":{"gisid":31,"name":"Sinis Klinik Berlin","fachabteilungen":"Plastische Chirurgie","gc_strasse":"Rheinbabenallee","gc_haus":"18","gc_plz":"14199","gc_ortsteil":"Schmargendorf","betten":2},"bbox":[13.28434688,52.47465768,13.28434688,52.47465768]},{"type":"Feature","id":"weitere_krankenhaeuser.32","geometry":{"type":"Point","coordinates":[13.3090698,52.58981647]},"geometry_name":"geom","properties":{"gisid":32,"name":"Vivantes Komfortklinik im Humboldt Klinikum","fachabteilungen":"Chirurgie, Frauenheilkunde und Geburtshilfe, Innere Medizin, Geriatrie, Neurologie, Psychiatrie und Psychotherapie, Urologie","gc_strasse":"Am Nordgraben","gc_haus":"2","gc_plz":"13509","gc_ortsteil":"Wittenau","betten":29},"bbox":[13.3090698,52.58981647,13.3090698,52.58981647]},{"type":"Feature","id":"weitere_krankenhaeuser.33","geometry":{"type":"Point","coordinates":[13.20699918,52.55012628]},"geometry_name":"geom","properties":{"gisid":33,"name":"Vivantes Komfortklinik im Klinikum Spandau","fachabteilungen":"Chirurgie, Haut- und Geschlechtskrankheiten, Innere Medizin, Neurologie, Psychiatrie und Psychotherapie","gc_strasse":"Neue Bergstraße","gc_haus":"6","gc_plz":"13585","gc_ortsteil":"Spandau","betten":14},"bbox":[13.20699918,52.55012628,13.20699918,52.55012628]},{"type":"Feature","id":"weitere_krankenhaeuser.34","geometry":{"type":"Point","coordinates":[13.45630666,52.42899475]},"geometry_name":"geom","properties":{"gisid":34,"name":"Zahnklinik Gropius-Passagen","fachabteilungen":"Mund-Kiefer- Gesichtschirurgie Insgesamt","gc_strasse":"Johannisthaler Chaussee","gc_haus":"313","gc_plz":"12351","gc_ortsteil":"Gropiusstadt","betten":2},"bbox":[13.45630666,52.42899475,13.45630666,52.42899475]},{"type":"Feature","id":"weitere_krankenhaeuser.35","geometry":{"type":"Point","coordinates":[13.30310711,52.45877313]},"geometry_name":"geom","properties":{"gisid":35,"name":"Zahnklinik MEDECO Berlin-Dahlem","fachabteilungen":"Mund-Kiefer- Gesichtschirurgie, Plastische Chirurgie","gc_strasse":"Königin-Luise-Platz","gc_haus":"1","gc_plz":"14195","gc_ortsteil":"Dahlem","betten":7},"bbox":[13.30310711,52.45877313,13.30310711,52.45877313]},{"type":"Feature","id":"weitere_krankenhaeuser.36","geometry":{"type":"Point","coordinates":[13.42849012,52.48466666]},"geometry_name":"geom","properties":{"gisid":36,"name":"Zahnklinik MEDECO Berlin-Neukölln","fachabteilungen":"Mund-Kiefer- Gesichtschirurgie","gc_strasse":"Karl-Marx-Straße","gc_haus":"27","gc_plz":"12043","gc_ortsteil":"Neukölln","betten":4},"bbox":[13.42849012,52.48466666,13.42849012,52.48466666]},{"type":"Feature","id":"weitere_krankenhaeuser.37","geometry":{"type":"Point","coordinates":[13.19520005,52.52993988]},"geometry_name":"geom","properties":{"gisid":37,"name":"Zahnklinik MEDECO Berlin-Spandau","fachabteilungen":"Mund-Kiefer- Gesichtschirurgie","gc_strasse":"Klosterstraße","gc_haus":"17 - 18","gc_plz":"13581","gc_ortsteil":"Spandau","betten":2},"bbox":[13.19520005,52.52993988,13.19520005,52.52993988]},{"type":"Feature","id":"weitere_krankenhaeuser.38","geometry":{"type":"Point","coordinates":[13.38524267,52.45121876]},"geometry_name":"geom","properties":{"gisid":38,"name":"Zahnklinik MEDECO Berlin-Tempelhof","fachabteilungen":"Mund-Kiefer- Gesichtschirurgie","gc_strasse":"Mariendorfer Damm","gc_haus":"19 - 21","gc_plz":"12109","gc_ortsteil":"Mariendorf","betten":4},"bbox":[13.38524267,52.45121876,13.38524267,52.45121876]},{"type":"Feature","id":"weitere_krankenhaeuser.39","geometry":{"type":"Point","coordinates":[13.38177316,52.55284006]},"geometry_name":"geom","properties":{"gisid":39,"name":"Zahnklinik MEDECO Berlin-Wedding","fachabteilungen":"Mund-Kiefer- Gesichtschirurgie","gc_strasse":"Prinzenallee","gc_haus":"89 - 90","gc_plz":"13357","gc_ortsteil":"Gesundbrunnen","betten":4},"bbox":[13.38177316,52.55284006,13.38177316,52.55284006]},{"type":"Feature","id":"weitere_krankenhaeuser.40","geometry":{"type":"Point","coordinates":[13.37853507,52.50718592]},"geometry_name":"geom","properties":{"gisid":40,"name":"Zahnklinik MEDECO Potsdamer Platz","fachabteilungen":"Mund-Kiefer- Gesichtschirurgie","gc_strasse":"Stresemannstraße","gc_haus":"121","gc_plz":"10963","gc_ortsteil":"Kreuzberg","betten":3},"bbox":[13.37853507,52.50718592,13.37853507,52.50718592]},{"type":"Feature","id":"weitere_krankenhaeuser.41","geometry":{"type":"Point","coordinates":[13.54845604,52.43817499]},"geometry_name":"geom","properties":{"gisid":41,"name":"Zahnklinik Ost","fachabteilungen":"Mund-Kiefer- Gesichtschirurgie","gc_strasse":"Dörpfeldstraße","gc_haus":"46","gc_plz":"12489","gc_ortsteil":"Adlershof","betten":6},"bbox":[13.54845604,52.43817499,13.54845604,52.43817499]},{"type":"Feature","id":"weitere_krankenhaeuser.42","geometry":{"type":"Point","coordinates":[13.32622692,52.53931677]},"geometry_name":"geom","properties":{"gisid":42,"name":"Justizvollzugskrankenhaus Berlin i.d. Justizvollzugsanstalt Plötzensee","fachabteilungen":"Innere Medizin, Psychiatrie und Psychotherapie","gc_strasse":"Saatwinkler Damm","gc_haus":"1A","gc_plz":"13627","gc_ortsteil":"Charlottenburg-Nord","betten":116},"bbox":[13.32622692,52.53931677,13.32622692,52.53931677]},{"type":"Feature","id":"weitere_krankenhaeuser.43","geometry":{"type":"Point","coordinates":[13.32793813,52.58417011]},"geometry_name":"geom","properties":{"gisid":43,"name":"Krankenhaus des Maßregelvollzugs Berlin - Krankenhausbetrieb des Landes Berlin","fachabteilungen":"Kinder- und Jugendpsychiatrie, Psychiatrie und Psychotherapie","gc_strasse":"Olbendorfer Weg","gc_haus":"70","gc_plz":"13403","gc_ortsteil":"Wittenau","betten":444},"bbox":[13.32793813,52.58417011,13.32793813,52.58417011]},{"type":"Feature","id":"weitere_krankenhaeuser.44","geometry":{"type":"Point","coordinates":[13.46234431,52.5147319]},"geometry_name":"geom","properties":{"gisid":44,"name":"Count Down-Entgiftungseinrichtung des Drogentherapie Zentrum Berlin ","fachabteilungen":"Psychiatrie und Psychotherapie","gc_strasse":"Frankfurter Allee","gc_haus":"40","gc_plz":"10247","gc_ortsteil":"Friedrichshain","betten":12},"bbox":[13.46234431,52.5147319,13.46234431,52.5147319]},{"type":"Feature","id":"weitere_krankenhaeuser.45","geometry":{"type":"Point","coordinates":[13.27980601,52.59330729]},"geometry_name":"geom","properties":{"gisid":45,"name":"MEDICAL PARK Berlin Humboldtmühle","fachabteilungen":"Neurologie, Orthopädie","gc_strasse":"An der Mühle","gc_haus":"2 - 9","gc_plz":"13507","gc_ortsteil":"Tegel","betten":310},"bbox":[13.27980601,52.59330729,13.27980601,52.59330729]},{"type":"Feature","id":"weitere_krankenhaeuser.46","geometry":{"type":"Point","coordinates":[13.34384481,52.50116417]},"geometry_name":"geom","properties":{"gisid":46,"name":"med-plast Klinik","fachabteilungen":null,"gc_strasse":"Bayreuther Straße","gc_haus":"36","gc_plz":"10789","gc_ortsteil":"Schöneberg","betten":8},"bbox":[13.34384481,52.50116417,13.34384481,52.50116417]},{"type":"Feature","id":"weitere_krankenhaeuser.47","geometry":{"type":"Point","coordinates":[13.50776246,52.62758108]},"geometry_name":"geom","properties":{"gisid":47,"name":"Krankenhaus des Maßregelvollzugs Berlin - Krankenhausbetrieb des Landes Berlin","fachabteilungen":"Psychiatrie und Psychotherapie","gc_strasse":"Lindenberger Weg","gc_haus":"69","gc_plz":"13125","gc_ortsteil":"Buch","betten":79},"bbox":[13.50776246,52.62758108,13.50776246,52.62758108]}],"totalFeatures":47,"numberMatched":47,"numberReturned":47,"timeStamp":"2026-05-16T06:57:16.191Z","crs":{"type":"name","properties":{"name":"urn:ogc:def:crs:EPSG::4326"}},"bbox":[13.18031845,52.42274561,13.56958706,52.62977871]}