{"type":"FeatureCollection","features":[{"type":"Feature","id":"plankrankenhaeuser.1","geometry":{"type":"Point","coordinates":[13.39839853,52.52591281]},"geometry_name":"geom","properties":{"gisid":1,"nr_standort":"1","kkh_standort":"St. Hedwig-Krankenhaus","nr_kkh":"1","kkh":"Alexianer St. Hedwig-Kliniken Berlin","gc_strasse":"Große Hamburger Straße","gc_haus":"5 - 11","gc_plz":"10115","gc_ortsteil":"Mitte","betten_insgesamt":"415"},"bbox":[13.39839853,52.52591281,13.39839853,52.52591281]},{"type":"Feature","id":"plankrankenhaeuser.2","geometry":{"type":"Point","coordinates":[13.56927767,52.4059015]},"geometry_name":"geom","properties":{"gisid":2,"nr_standort":"2","kkh_standort":"Krankenhaus Hedwigshöhe","nr_kkh":"1","kkh":"Alexianer St. Hedwig-Kliniken Berlin","gc_strasse":"Höhensteig","gc_haus":"1","gc_plz":"12526","gc_ortsteil":"Bohnsdorf","betten_insgesamt":"462"},"bbox":[13.56927767,52.4059015,13.56927767,52.4059015]},{"type":"Feature","id":"plankrankenhaeuser.3","geometry":{"type":"Point","coordinates":[13.46795462,52.55074112]},"geometry_name":"geom","properties":{"gisid":3,"nr_standort":"3","kkh_standort":"Alexianer St. Joseph-Krankenhaus Berlin-Weißensee","nr_kkh":"2","kkh":"Alexianer St. Joseph-Krankenhaus Berlin-Weißensee","gc_strasse":"Gartenstraße","gc_haus":"1","gc_plz":"13088","gc_ortsteil":"Weißensee","betten_insgesamt":"361"},"bbox":[13.46795462,52.55074112,13.46795462,52.55074112]},{"type":"Feature","id":"plankrankenhaeuser.4","geometry":{"type":"Point","coordinates":[13.56374672,52.51540074]},"geometry_name":"geom","properties":{"gisid":4,"nr_standort":"5","kkh_standort":"Arona Klinik für Altersmedizin","nr_kkh":"4","kkh":"Arona Klinik für Altersmedizin","gc_strasse":"Blumberger Damm","gc_haus":"2G","gc_plz":"12683","gc_ortsteil":"Biesdorf","betten_insgesamt":"90"},"bbox":[13.56374672,52.51540074,13.56374672,52.51540074]},{"type":"Feature","id":"plankrankenhaeuser.5","geometry":{"type":"Point","coordinates":[13.56885617,52.51392649]},"geometry_name":"geom","properties":{"gisid":5,"nr_standort":"6","kkh_standort":"Augenklinik Berlin-Marzahn","nr_kkh":"5","kkh":"Augenklinik Berlin-Marzahn GmbH","gc_strasse":"Brebacher Weg","gc_haus":"15","gc_plz":"12683","gc_ortsteil":"Biesdorf","betten_insgesamt":"51"},"bbox":[13.56885617,52.51392649,13.56885617,52.51392649]},{"type":"Feature","id":"plankrankenhaeuser.6","geometry":{"type":"Point","coordinates":[13.47413781,52.51399847]},"geometry_name":"geom","properties":{"gisid":6,"nr_standort":"7","kkh_standort":"Augenklinik im Ring-Center","nr_kkh":"6","kkh":"Augenklinik im Ring-Center ","gc_strasse":"Frankfurter Allee","gc_haus":"111","gc_plz":"10247","gc_ortsteil":"Friedrichshain","betten_insgesamt":"15"},"bbox":[13.47413781,52.51399847,13.47413781,52.51399847]},{"type":"Feature","id":"plankrankenhaeuser.7","geometry":{"type":"Point","coordinates":[13.56696594,52.51936548]},"geometry_name":"geom","properties":{"gisid":7,"nr_standort":"8","kkh_standort":"BG Klinikum Unfallkrankenhaus Berlin (UKB)","nr_kkh":"7","kkh":"BG Klinikum Unfallkrankenhaus Berlin gGmbH","gc_strasse":"Warener Straße","gc_haus":"7","gc_plz":"12683","gc_ortsteil":"Biesdorf","betten_insgesamt":"739"},"bbox":[13.56696594,52.51936548,13.56696594,52.51936548]},{"type":"Feature","id":"plankrankenhaeuser.8","geometry":{"type":"Point","coordinates":[13.36985604,52.53495152]},"geometry_name":"geom","properties":{"gisid":8,"nr_standort":"9","kkh_standort":"Bundeswehrkrankenhaus (ziviler Bereich)","nr_kkh":"8","kkh":"Bundeswehrkrankenhaus Berlin","gc_strasse":"Scharnhorststraße","gc_haus":"13","gc_plz":"10115","gc_ortsteil":"Mitte","betten_insgesamt":"302"},"bbox":[13.36985604,52.53495152,13.36985604,52.53495152]},{"type":"Feature","id":"plankrankenhaeuser.9","geometry":{"type":"Point","coordinates":[13.29566782,52.62457706]},"geometry_name":"geom","properties":{"gisid":9,"nr_standort":"10","kkh_standort":"Caritas-Klinik Dominikus Berlin-Reinickendorf","nr_kkh":"9","kkh":"Caritas-Klinik Dominikus Berlin-Reinickendorf","gc_strasse":"Kurhausstraße","gc_haus":"30","gc_plz":"13467","gc_ortsteil":"Hermsdorf","betten_insgesamt":"253"},"bbox":[13.29566782,52.62457706,13.29566782,52.62457706]},{"type":"Feature","id":"plankrankenhaeuser.10","geometry":{"type":"Point","coordinates":[13.41405493,52.57139142]},"geometry_name":"geom","properties":{"gisid":10,"nr_standort":"11","kkh_standort":"Caritas-Klinik Maria Heimsuchung Berlin-Pankow","nr_kkh":"10","kkh":"Caritas-Klinik Maria Heimsuchung Berlin-Pankow","gc_strasse":"Breite Straße","gc_haus":"46/47","gc_plz":"13187","gc_ortsteil":"Pankow","betten_insgesamt":"245"},"bbox":[13.41405493,52.57139142,13.41405493,52.57139142]},{"type":"Feature","id":"plankrankenhaeuser.11","geometry":{"type":"Point","coordinates":[13.31786722,52.44084819]},"geometry_name":"geom","properties":{"gisid":11,"nr_standort":"12","kkh_standort":"Campus Benjamin Franklin","nr_kkh":"11","kkh":"Charité","gc_strasse":"Hindenburgdamm","gc_haus":"30","gc_plz":"12203","gc_ortsteil":"Lichterfelde","betten_insgesamt":"878"},"bbox":[13.31786722,52.44084819,13.31786722,52.44084819]},{"type":"Feature","id":"plankrankenhaeuser.12","geometry":{"type":"Point","coordinates":[13.37819437,52.52363436]},"geometry_name":"geom","properties":{"gisid":12,"nr_standort":"13","kkh_standort":"Campus Charité Mitte","nr_kkh":"11","kkh":"Charité","gc_strasse":"Charitéplatz","gc_haus":"1","gc_plz":"10117","gc_ortsteil":"Mitte","betten_insgesamt":"893"},"bbox":[13.37819437,52.52363436,13.37819437,52.52363436]},{"type":"Feature","id":"plankrankenhaeuser.13","geometry":{"type":"Point","coordinates":[13.34784014,52.5423325]},"geometry_name":"geom","properties":{"gisid":13,"nr_standort":"14","kkh_standort":"Campus Virchow - Klinikum","nr_kkh":"11","kkh":"Charité","gc_strasse":"Augustenburger Platz","gc_haus":"1","gc_plz":"13353","gc_ortsteil":"Wedding","betten_insgesamt":"1294"},"bbox":[13.34784014,52.5423325,13.34784014,52.5423325]},{"type":"Feature","id":"plankrankenhaeuser.14","geometry":{"type":"Point","coordinates":[13.46234431,52.5147319]},"geometry_name":"geom","properties":{"gisid":14,"nr_standort":"15","kkh_standort":"Count Down-Entgiftungseinrichtung des Drogentherapie Zentrums Berlin","nr_kkh":"12","kkh":"Count Down-Entgiftungseinrichtung des Drogentherapie Zentrums Berlin","gc_strasse":"Frankfurter Allee","gc_haus":"40","gc_plz":"10247","gc_ortsteil":"Friedrichshain","betten_insgesamt":"12"},"bbox":[13.46234431,52.5147319,13.46234431,52.5147319]},{"type":"Feature","id":"plankrankenhaeuser.15","geometry":{"type":"Point","coordinates":[13.34784014,52.5423325]},"geometry_name":"geom","properties":{"gisid":15,"nr_standort":"16","kkh_standort":"Deutsches Herzzentrum der Charité DHZC am Campus Virchow - Klinikum","nr_kkh":"13","kkh":"Charité","gc_strasse":"Augustenburger Platz","gc_haus":"1","gc_plz":"13353","gc_ortsteil":"Wedding","betten_insgesamt":"196"},"bbox":[13.34784014,52.5423325,13.34784014,52.5423325]},{"type":"Feature","id":"plankrankenhaeuser.16","geometry":{"type":"Point","coordinates":[13.59403412,52.43974751]},"geometry_name":"geom","properties":{"gisid":16,"nr_standort":"17","kkh_standort":"DRK Kliniken Berlin | Köpenick","nr_kkh":"14","kkh":"DRK Kliniken Berlin | Köpenick","gc_strasse":"Salvador-Allende-Straße","gc_haus":"2 - 8","gc_plz":"12559","gc_ortsteil":"Köpenick","betten_insgesamt":"534"},"bbox":[13.59403412,52.43974751,13.59403412,52.43974751]},{"type":"Feature","id":"plankrankenhaeuser.17","geometry":{"type":"Point","coordinates":[13.37673344,52.55765411]},"geometry_name":"geom","properties":{"gisid":17,"nr_standort":"18","kkh_standort":"DRK Kliniken Berlin | Mitte","nr_kkh":"15","kkh":"DRK Kliniken Berlin | Mitte","gc_strasse":"Drontheimer Straße","gc_haus":"39 - 40","gc_plz":"13359","gc_ortsteil":"Gesundbrunnen","betten_insgesamt":"260"},"bbox":[13.37673344,52.55765411,13.37673344,52.55765411]},{"type":"Feature","id":"plankrankenhaeuser.18","geometry":{"type":"Point","coordinates":[13.27615411,52.51928405]},"geometry_name":"geom","properties":{"gisid":18,"nr_standort":"19","kkh_standort":"DRK Kliniken Berlin | Westend","nr_kkh":"16","kkh":"DRK Kliniken Berlin | Westend","gc_strasse":"Spandauer Damm","gc_haus":"130","gc_plz":"14050","gc_ortsteil":"Westend","betten_insgesamt":"527"},"bbox":[13.27615411,52.51928405,13.27615411,52.51928405]},{"type":"Feature","id":"plankrankenhaeuser.19","geometry":{"type":"Point","coordinates":[13.27615411,52.51928405]},"geometry_name":"geom","properties":{"gisid":19,"nr_standort":"20","kkh_standort":"DRK Kliniken Berlin | Wiegmann Klinik  - Klinik für psychogene Störungen","nr_kkh":"17","kkh":"DRK Kliniken Berlin I Wiegmann Klinik  - Klinik für psychogene Störungen","gc_strasse":"Spandauer Damm","gc_haus":"130","gc_plz":"14050","gc_ortsteil":"Westend","betten_insgesamt":"65"},"bbox":[13.27615411,52.51928405,13.27615411,52.51928405]},{"type":"Feature","id":"plankrankenhaeuser.20","geometry":{"type":"Point","coordinates":[13.36384308,52.50373056]},"geometry_name":"geom","properties":{"gisid":20,"nr_standort":"21","kkh_standort":"Evangelische Elisabeth Klinik","nr_kkh":"18","kkh":"Evangelische Elisabeth Klinik","gc_strasse":"Lützowstraße","gc_haus":"26","gc_plz":"10785","gc_ortsteil":"Tiergarten","betten_insgesamt":"169"},"bbox":[13.36384308,52.50373056,13.36384308,52.50373056]},{"type":"Feature","id":"plankrankenhaeuser.21","geometry":{"type":"Point","coordinates":[13.36572267,52.55455722]},"geometry_name":"geom","properties":{"gisid":21,"nr_standort":"22","kkh_standort":"Evangelisches Geriatriezentrum Berlin","nr_kkh":"19","kkh":"Evangelisches Geriatriezentrum Berlin","gc_strasse":"Reinickendorfer Straße","gc_haus":"61","gc_plz":"13347","gc_ortsteil":"Gesundbrunnen","betten_insgesamt":"198"},"bbox":[13.36572267,52.55455722,13.36572267,52.55455722]},{"type":"Feature","id":"plankrankenhaeuser.22","geometry":{"type":"Point","coordinates":[13.19242593,52.5676769]},"geometry_name":"geom","properties":{"gisid":22,"nr_standort":"23","kkh_standort":"Evangelisches Johannesstift Wichernkrankenhaus","nr_kkh":"20","kkh":"Evangelisches Johannesstift Wichernkrankenhaus","gc_strasse":"Schönwalder Allee","gc_haus":"26","gc_plz":"13587","gc_ortsteil":"Hakenfelde","betten_insgesamt":"119"},"bbox":[13.19242593,52.5676769,13.19242593,52.5676769]},{"type":"Feature","id":"plankrankenhaeuser.23","geometry":{"type":"Point","coordinates":[13.22123979,52.43019851]},"geometry_name":"geom","properties":{"gisid":23,"nr_standort":"24","kkh_standort":"Evangelisches Krankenhaus Hubertus","nr_kkh":"21","kkh":"Evangelisches Krankenhaus Hubertus","gc_strasse":"Spanische Allee","gc_haus":"10 - 14","gc_plz":"14129","gc_ortsteil":"Schlachtensee","betten_insgesamt":"202"},"bbox":[13.22123979,52.43019851,13.22123979,52.43019851]},{"type":"Feature","id":"plankrankenhaeuser.24","geometry":{"type":"Point","coordinates":[13.50606223,52.52639818]},"geometry_name":"geom","properties":{"gisid":24,"nr_standort":"25","kkh_standort":"Ev. Krankenhaus Königin Elisabeth Herzberge","nr_kkh":"22","kkh":"Ev. Krankenhaus Königin Elisabeth Herzberge","gc_strasse":"Herzbergstraße","gc_haus":"79","gc_plz":"10365","gc_ortsteil":"Lichtenberg","betten_insgesamt":"788"},"bbox":[13.50606223,52.52639818,13.50606223,52.52639818]},{"type":"Feature","id":"plankrankenhaeuser.25","geometry":{"type":"Point","coordinates":[13.50360936,52.63406751]},"geometry_name":"geom","properties":{"gisid":25,"nr_standort":"26","kkh_standort":"Evangelische Lungenklinik Berlin","nr_kkh":"23","kkh":"Evangelische Lungenklinik Berlin","gc_strasse":"Karower Straße","gc_haus":"11","gc_plz":"13125","gc_ortsteil":"Buch","betten_insgesamt":"152"},"bbox":[13.50360936,52.63406751,13.50360936,52.63406751]},{"type":"Feature","id":"plankrankenhaeuser.26","geometry":{"type":"Point","coordinates":[13.15694293,52.56299922]},"geometry_name":"geom","properties":{"gisid":26,"nr_standort":"27","kkh_standort":"Evangelisches Waldkrankenhaus Spandau","nr_kkh":"24","kkh":"Evangelisches Waldkrankenhaus Spandau","gc_strasse":"Stadtrandstraße","gc_haus":"555","gc_plz":"13589","gc_ortsteil":"Falkenhagener Feld","betten_insgesamt":"524"},"bbox":[13.15694293,52.56299922,13.15694293,52.56299922]},{"type":"Feature","id":"plankrankenhaeuser.27","geometry":{"type":"Point","coordinates":[13.34518536,52.50630878]},"geometry_name":"geom","properties":{"gisid":27,"nr_standort":"28","kkh_standort":"Franziskus Krankenhaus","nr_kkh":"25","kkh":"St. Joseph Krankenhaus Berlin Tempelhof","gc_strasse":"Budapester Straße","gc_haus":"15 - 19","gc_plz":"10787","gc_ortsteil":"Tiergarten","betten_insgesamt":"185"},"bbox":[13.34518536,52.50630878,13.34518536,52.50630878]},{"type":"Feature","id":"plankrankenhaeuser.28","geometry":{"type":"Point","coordinates":[13.32896064,52.4895096]},"geometry_name":"geom","properties":{"gisid":28,"nr_standort":"29","kkh_standort":"Friedrich von Bodelschwingh Klinik für Psychiatrie, Psychotherapie u. Psychosomatik","nr_kkh":"26","kkh":"Friedrich von Bodelschwingh Klinik für Psychiatrie, Psychotherapie u. Psychosomatik","gc_strasse":"Landhausstraße","gc_haus":"33 -35","gc_plz":"10717","gc_ortsteil":"Wilmersdorf","betten_insgesamt":"163"},"bbox":[13.32896064,52.4895096,13.32896064,52.4895096]},{"type":"Feature","id":"plankrankenhaeuser.29","geometry":{"type":"Point","coordinates":[13.15900397,52.46266347]},"geometry_name":"geom","properties":{"gisid":29,"nr_standort":"30","kkh_standort":"Gemeinschaftskrankenhaus Havelhöhe Klinik für Anthroposophische Medizin","nr_kkh":"27","kkh":"Gemeinschaftskrankenhaus Havelhöhe Klinik für Anthroposophische Medizin","gc_strasse":"Kladower Damm","gc_haus":"221","gc_plz":"14089","gc_ortsteil":"Kladow","betten_insgesamt":"402"},"bbox":[13.15900397,52.46266347,13.15900397,52.46266347]},{"type":"Feature","id":"plankrankenhaeuser.30","geometry":{"type":"Point","coordinates":[13.18031845,52.50281489]},"geometry_name":"geom","properties":{"gisid":30,"nr_standort":"31","kkh_standort":"Havelklinik","nr_kkh":"28","kkh":"Havelklinik","gc_strasse":"Gatower Straße","gc_haus":"191","gc_plz":"13595","gc_ortsteil":"Wilhelmstadt","betten_insgesamt":"91"},"bbox":[13.18031845,52.50281489,13.18031845,52.50281489]},{"type":"Feature","id":"plankrankenhaeuser.31","geometry":{"type":"Point","coordinates":[13.56885617,52.51392649]},"geometry_name":"geom","properties":{"gisid":31,"nr_standort":"32","kkh_standort":"Heiligenfeld Klinik Berlin","nr_kkh":"29","kkh":"Heiligenfeld Klinik Berlin","gc_strasse":"Brebacher Weg","gc_haus":"15","gc_plz":"12683","gc_ortsteil":"Biesdorf","betten_insgesamt":"60"},"bbox":[13.56885617,52.51392649,13.56885617,52.51392649]},{"type":"Feature","id":"plankrankenhaeuser.32","geometry":{"type":"Point","coordinates":[13.50848729,52.6297787]},"geometry_name":"geom","properties":{"gisid":32,"nr_standort":"33","kkh_standort":"HELIOS Klinikum Berlin-Buch","nr_kkh":"30","kkh":"HELIOS Klinikum Berlin-Buch","gc_strasse":"Schwanebecker Chaussee","gc_haus":"50","gc_plz":"13125","gc_ortsteil":"Buch","betten_insgesamt":"1149"},"bbox":[13.50848729,52.6297787,13.50848729,52.6297787]},{"type":"Feature","id":"plankrankenhaeuser.33","geometry":{"type":"Point","coordinates":[13.25312722,52.42274561]},"geometry_name":"geom","properties":{"gisid":33,"nr_standort":"34","kkh_standort":"HELIOS Klinikum Emil von Behring","nr_kkh":"31","kkh":"HELIOS Klinikum Emil von Behring","gc_strasse":"Walterhöferstraße","gc_haus":"11","gc_plz":"14165","gc_ortsteil":"Zehlendorf","betten_insgesamt":"494"},"bbox":[13.25312722,52.42274561,13.25312722,52.42274561]},{"type":"Feature","id":"plankrankenhaeuser.34","geometry":{"type":"Point","coordinates":[13.16418216,52.41958259]},"geometry_name":"geom","properties":{"gisid":34,"nr_standort":"35","kkh_standort":"Rheumaklinik Berlin-Wannsee und Zentrum für Naturheilkunde","nr_kkh":"32","kkh":"Immanuel-Krankenhaus","gc_strasse":"Königstraße","gc_haus":"63","gc_plz":"14109","gc_ortsteil":"Wannsee","betten_insgesamt":"290"},"bbox":[13.16418216,52.41958259,13.16418216,52.41958259]},{"type":"Feature","id":"plankrankenhaeuser.35","geometry":{"type":"Point","coordinates":[13.5030625,52.63260184]},"geometry_name":"geom","properties":{"gisid":35,"nr_standort":"36","kkh_standort":"Rheumaklinik Berlin-Buch","nr_kkh":"32","kkh":"Immanuel-Krankenhaus","gc_strasse":"Lindenberger Weg","gc_haus":"19","gc_plz":"13125","gc_ortsteil":"Buch","betten_insgesamt":"85"},"bbox":[13.5030625,52.63260184,13.5030625,52.63260184]},{"type":"Feature","id":"plankrankenhaeuser.36","geometry":{"type":"Point","coordinates":[13.37196561,52.55594153]},"geometry_name":"geom","properties":{"gisid":36,"nr_standort":"37","kkh_standort":"Jüdisches Krankenhaus Berlin","nr_kkh":"33","kkh":"Jüdisches Krankenhaus Berlin","gc_strasse":"Heinz-Galinski-Straße","gc_haus":"1","gc_plz":"13347","gc_ortsteil":"Gesundbrunnen","betten_insgesamt":"358"},"bbox":[13.37196561,52.55594153,13.37196561,52.55594153]},{"type":"Feature","id":"plankrankenhaeuser.37","geometry":{"type":"Point","coordinates":[13.21768304,52.43050946]},"geometry_name":"geom","properties":{"gisid":37,"nr_standort":"38","kkh_standort":"Klinik für Minimal Invasive Chirurgie am Evangelischen Krankenhaus Hubertus","nr_kkh":"34","kkh":"Klinik für Minimal Invasive Chirurgie am Evangelischen Krankenhaus Hubertus","gc_strasse":"Kurstraße","gc_haus":"11","gc_plz":"14129","gc_ortsteil":"Schlachtensee","betten_insgesamt":"64"},"bbox":[13.21768304,52.43050946,13.21768304,52.43050946]},{"type":"Feature","id":"plankrankenhaeuser.38","geometry":{"type":"Point","coordinates":[13.60354189,52.53703502]},"geometry_name":"geom","properties":{"gisid":38,"nr_standort":"39","kkh_standort":"Klinik \"Helle Mitte\"","nr_kkh":"35","kkh":"Klinik \"Helle Mitte\"","gc_strasse":"Alice-Salomon-Platz","gc_haus":"2","gc_plz":"12627","gc_ortsteil":"Hellersdorf","betten_insgesamt":"24"},"bbox":[13.60354189,52.53703502,13.60354189,52.53703502]},{"type":"Feature","id":"plankrankenhaeuser.39","geometry":{"type":"Point","coordinates":[13.34470227,52.49877696]},"geometry_name":"geom","properties":{"gisid":39,"nr_standort":"40","kkh_standort":"Klinik Schöneberg","nr_kkh":"36","kkh":"Klinik Schöneberg","gc_strasse":"Fuggerstraße","gc_haus":"23","gc_plz":"10777","gc_ortsteil":"Schöneberg","betten_insgesamt":"52"},"bbox":[13.34470227,52.49877696,13.34470227,52.49877696]},{"type":"Feature","id":"plankrankenhaeuser.40","geometry":{"type":"Point","coordinates":[13.20461225,52.42352643]},"geometry_name":"geom","properties":{"gisid":40,"nr_standort":"41","kkh_standort":"Kliniken im Theodor-Wenzel-Werk","nr_kkh":"37","kkh":"Kliniken im Theodor-Wenzel-Werk","gc_strasse":"Potsdamer Chaussee","gc_haus":"69","gc_plz":"14129","gc_ortsteil":"Nikolassee","betten_insgesamt":"370"},"bbox":[13.20461225,52.42352643,13.20461225,52.42352643]},{"type":"Feature","id":"plankrankenhaeuser.41","geometry":{"type":"Point","coordinates":[13.3268885,52.43225584]},"geometry_name":"geom","properties":{"gisid":41,"nr_standort":"42","kkh_standort":"Krankenhaus Bethel Berlin","nr_kkh":"38","kkh":"Krankenhaus Bethel Berlin","gc_strasse":"Promenadenstraße","gc_haus":"3 -5","gc_plz":"12207","gc_ortsteil":"Lichterfelde","betten_insgesamt":"276"},"bbox":[13.3268885,52.43225584,13.3268885,52.43225584]},{"type":"Feature","id":"plankrankenhaeuser.42","geometry":{"type":"Point","coordinates":[13.2405592,52.44435672]},"geometry_name":"geom","properties":{"gisid":42,"nr_standort":"43","kkh_standort":"Krankenhaus Waldfriede","nr_kkh":"39","kkh":"Krankenhaus Waldfriede","gc_strasse":"Argentinische Allee","gc_haus":"40","gc_plz":"14163","gc_ortsteil":"Zehlendorf","betten_insgesamt":"174"},"bbox":[13.2405592,52.44435672,13.2405592,52.44435672]},{"type":"Feature","id":"plankrankenhaeuser.43","geometry":{"type":"Point","coordinates":[13.25138515,52.50883179]},"geometry_name":"geom","properties":{"gisid":43,"nr_standort":"44","kkh_standort":"Malteser-Krankenhaus","nr_kkh":"40","kkh":"Malteser-Krankenhaus","gc_strasse":"Pillkaller Allee","gc_haus":"1","gc_plz":"14055","gc_ortsteil":"Westend","betten_insgesamt":"107"},"bbox":[13.25138515,52.50883179,13.25138515,52.50883179]},{"type":"Feature","id":"plankrankenhaeuser.44","geometry":{"type":"Point","coordinates":[13.29132446,52.49127462]},"geometry_name":"geom","properties":{"gisid":44,"nr_standort":"45","kkh_standort":"Martin-Luther-Krankenhaus","nr_kkh":"41","kkh":"Martin-Luther-Krankenhaus","gc_strasse":"Caspar-Theyß-Straße","gc_haus":"27 - 31","gc_plz":"14193","gc_ortsteil":"Grunewald","betten_insgesamt":"339"},"bbox":[13.29132446,52.49127462,13.29132446,52.49127462]},{"type":"Feature","id":"plankrankenhaeuser.45","geometry":{"type":"Point","coordinates":[13.16180834,52.4627477]},"geometry_name":"geom","properties":{"gisid":45,"nr_standort":"46","kkh_standort":"MEDIAN Klinik Berlin-Kladow","nr_kkh":"42","kkh":"MEDIAN Klinik Berlin-Kladow","gc_strasse":"Kladower Damm","gc_haus":"223","gc_plz":"14089","gc_ortsteil":"Kladow","betten_insgesamt":"226"},"bbox":[13.16180834,52.4627477,13.16180834,52.4627477]},{"type":"Feature","id":"plankrankenhaeuser.46","geometry":{"type":"Point","coordinates":[13.45181279,52.55492234]},"geometry_name":"geom","properties":{"gisid":46,"nr_standort":"47","kkh_standort":"Park-Klinik Weißensee","nr_kkh":"43","kkh":"Park-Klinik Weißensee","gc_strasse":"Schönstraße","gc_haus":"80","gc_plz":"13086","gc_ortsteil":"Weißensee","betten_insgesamt":"358"},"bbox":[13.45181279,52.55492234,13.45181279,52.55492234]},{"type":"Feature","id":"plankrankenhaeuser.47","geometry":{"type":"Point","coordinates":[13.23386568,52.50811715]},"geometry_name":"geom","properties":{"gisid":47,"nr_standort":"48","kkh_standort":"Paulinenkrankenhaus","nr_kkh":"44","kkh":"Paulinenkrankenhaus gGmbH","gc_strasse":"Dickensweg","gc_haus":"25 - 39","gc_plz":"14055","gc_ortsteil":"Westend","betten_insgesamt":"148"},"bbox":[13.23386568,52.50811715,13.23386568,52.50811715]},{"type":"Feature","id":"plankrankenhaeuser.48","geometry":{"type":"Point","coordinates":[13.49641805,52.51400966]},"geometry_name":"geom","properties":{"gisid":48,"nr_standort":"49","kkh_standort":"Sana Klinikum Lichtenberg","nr_kkh":"45","kkh":"Sana Klinikum Lichtenberg","gc_strasse":"Fanningerstraße","gc_haus":"32","gc_plz":"10365","gc_ortsteil":"Lichtenberg","betten_insgesamt":"672"},"bbox":[13.49641805,52.51400966,13.49641805,52.51400966]},{"type":"Feature","id":"plankrankenhaeuser.49","geometry":{"type":"Point","coordinates":[13.28949205,52.52179606]},"geometry_name":"geom","properties":{"gisid":49,"nr_standort":"50","kkh_standort":"Schlosspark-Klinik","nr_kkh":"46","kkh":"Schlosspark-Klinik","gc_strasse":"Heubnerweg","gc_haus":"2","gc_plz":"14059","gc_ortsteil":"Charlottenburg","betten_insgesamt":"362"},"bbox":[13.28949205,52.52179606,13.28949205,52.52179606]},{"type":"Feature","id":"plankrankenhaeuser.50","geometry":{"type":"Point","coordinates":[13.31733075,52.48121464]},"geometry_name":"geom","properties":{"gisid":50,"nr_standort":"51","kkh_standort":"Sankt Gertrauden-Krankenhaus","nr_kkh":"47","kkh":"Sankt Gertrauden-Krankenhaus","gc_strasse":"Paretzer Straße","gc_haus":"12","gc_plz":"10713","gc_ortsteil":"Wilmersdorf","betten_insgesamt":"384"},"bbox":[13.31733075,52.48121464,13.31733075,52.48121464]},{"type":"Feature","id":"plankrankenhaeuser.51","geometry":{"type":"Point","coordinates":[13.37279786,52.47867813]},"geometry_name":"geom","properties":{"gisid":51,"nr_standort":"52","kkh_standort":"St. Joseph Krankenhaus Berlin Tempelhof","nr_kkh":"48","kkh":"St. Joseph Krankenhaus Berlin Tempelhof","gc_strasse":"Wüsthoffstraße","gc_haus":"15","gc_plz":"12101","gc_ortsteil":"Tempelhof","betten_insgesamt":"680"},"bbox":[13.37279786,52.47867813,13.37279786,52.47867813]},{"type":"Feature","id":"plankrankenhaeuser.52","geometry":{"type":"Point","coordinates":[13.35094119,52.42348927]},"geometry_name":"geom","properties":{"gisid":52,"nr_standort":"53","kkh_standort":"St. Marien-Krankenhaus Berlin","nr_kkh":"49","kkh":"St. Marien-Krankenhaus Berlin","gc_strasse":"Gallwitzallee","gc_haus":"123 - 143","gc_plz":"12249","gc_ortsteil":"Lankwitz","betten_insgesamt":"274"},"bbox":[13.35094119,52.42348927,13.35094119,52.42348927]},{"type":"Feature","id":"plankrankenhaeuser.53","geometry":{"type":"Point","coordinates":[13.3561001,52.60483625]},"geometry_name":"geom","properties":{"gisid":53,"nr_standort":"54","kkh_standort":"Vitanas Klinik für Geriatrie","nr_kkh":"50","kkh":"Vitanas Klinik für Geriatrie","gc_strasse":"Senftenberger Ring","gc_haus":"51","gc_plz":"13435","gc_ortsteil":"Märkisches Viertel","betten_insgesamt":"105"},"bbox":[13.3561001,52.60483625,13.3561001,52.60483625]},{"type":"Feature","id":"plankrankenhaeuser.54","geometry":{"type":"Point","coordinates":[13.45725322,52.43426848]},"geometry_name":"geom","properties":{"gisid":54,"nr_standort":"55","kkh_standort":"Vivantes Ida Wolff Krankenhaus","nr_kkh":"51","kkh":"Vivantes Ida Wolff Krankenhaus GmbH","gc_strasse":"Juchaczweg","gc_haus":"21","gc_plz":"12351","gc_ortsteil":"Buckow","betten_insgesamt":"148"},"bbox":[13.45725322,52.43426848,13.45725322,52.43426848]},{"type":"Feature","id":"plankrankenhaeuser.55","geometry":{"type":"Point","coordinates":[13.43890404,52.52448727]},"geometry_name":"geom","properties":{"gisid":55,"nr_standort":"56","kkh_standort":"Vivantes - Klinikum im Friedrichshain","nr_kkh":"52","kkh":"Vivantes - Klinikum im Friedrichshain","gc_strasse":"Landsberger Allee","gc_haus":"49","gc_plz":"10249","gc_ortsteil":"Friedrichshain","betten_insgesamt":"955"},"bbox":[13.43890404,52.52448727,13.43890404,52.52448727]},{"type":"Feature","id":"plankrankenhaeuser.56","geometry":{"type":"Point","coordinates":[13.41030324,52.49426712]},"geometry_name":"geom","properties":{"gisid":56,"nr_standort":"52","kkh_standort":"Vivantes - Klinikum Am Urban","nr_kkh":"52","kkh":"Vivantes - Klinikum Am Urban","gc_strasse":"Dieffenbachstraße","gc_haus":"1","gc_plz":"10967","gc_ortsteil":"Kreuzberg","betten_insgesamt":"634"},"bbox":[13.41030324,52.49426712,13.41030324,52.49426712]},{"type":"Feature","id":"plankrankenhaeuser.57","geometry":{"type":"Point","coordinates":[13.5930739,52.50717356]},"geometry_name":"geom","properties":{"gisid":57,"nr_standort":"58","kkh_standort":"Vivantes - Klinikum Kaulsdorf","nr_kkh":"52","kkh":"Vivantes - Klinikum Kaulsdorf","gc_strasse":"Myslowitzer Straße","gc_haus":"45","gc_plz":"12621","gc_ortsteil":"Kaulsdorf","betten_insgesamt":"466"},"bbox":[13.5930739,52.50717356,13.5930739,52.50717356]},{"type":"Feature","id":"plankrankenhaeuser.58","geometry":{"type":"Point","coordinates":[13.45827469,52.43772422]},"geometry_name":"geom","properties":{"gisid":58,"nr_standort":"59","kkh_standort":"Vivantes - Klinikum Neukölln","nr_kkh":"52","kkh":"Vivantes - Klinikum Neukölln","gc_strasse":"Rudower Straße","gc_haus":"48","gc_plz":"12351","gc_ortsteil":"Buckow","betten_insgesamt":"1377"},"bbox":[13.45827469,52.43772422,13.45827469,52.43772422]},{"type":"Feature","id":"plankrankenhaeuser.59","geometry":{"type":"Point","coordinates":[13.34628938,52.46295789]},"geometry_name":"geom","properties":{"gisid":59,"nr_standort":"60","kkh_standort":"Vivantes - Auguste-Viktoria-Klinikum","nr_kkh":"52","kkh":"Vivantes - Auguste-Viktoria-Klinikum","gc_strasse":"Rubensstraße","gc_haus":"125","gc_plz":"12157","gc_ortsteil":"Schöneberg","betten_insgesamt":"667"},"bbox":[13.34628938,52.46295789,13.34628938,52.46295789]},{"type":"Feature","id":"plankrankenhaeuser.60","geometry":{"type":"Point","coordinates":[13.38838343,52.45904004]},"geometry_name":"geom","properties":{"gisid":60,"nr_standort":"61","kkh_standort":"Vivantes - Wenckebach-Klinikum","nr_kkh":"52","kkh":"Vivantes - Wenckebach-Klinikum","gc_strasse":"Wenckebachstraße","gc_haus":"23","gc_plz":"12099","gc_ortsteil":"Tempelhof","betten_insgesamt":"288"},"bbox":[13.38838343,52.45904004,13.38838343,52.45904004]},{"type":"Feature","id":"plankrankenhaeuser.61","geometry":{"type":"Point","coordinates":[13.3090698,52.58981647]},"geometry_name":"geom","properties":{"gisid":61,"nr_standort":"62","kkh_standort":"Vivantes - Humboldt-Klinikum","nr_kkh":"52","kkh":"Vivantes - Humboldt-Klinikum","gc_strasse":"Am Nordgraben","gc_haus":"2","gc_plz":"13509","gc_ortsteil":"Wittenau","betten_insgesamt":"725"},"bbox":[13.3090698,52.58981647,13.3090698,52.58981647]},{"type":"Feature","id":"plankrankenhaeuser.62","geometry":{"type":"Point","coordinates":[13.20699918,52.55012628]},"geometry_name":"geom","properties":{"gisid":62,"nr_standort":"63","kkh_standort":"Vivantes - Klinikum Spandau","nr_kkh":"52","kkh":"Vivantes - Klinikum Spandau","gc_strasse":"Neue Bergstraße","gc_haus":"6","gc_plz":"13585","gc_ortsteil":"Spandau","betten_insgesamt":"694"},"bbox":[13.20699918,52.55012628,13.20699918,52.55012628]},{"type":"Feature","id":"plankrankenhaeuser.63","geometry":{"type":"Point","coordinates":[13.26890673,52.44950498]},"geometry_name":"geom","properties":{"gisid":63,"nr_standort":"64","kkh_standort":"Westklinik Dahlem","nr_kkh":"53","kkh":"Westklinik Dahlem","gc_strasse":"Clayallee","gc_haus":"225B","gc_plz":"14195","gc_ortsteil":"Dahlem","betten_insgesamt":"30"},"bbox":[13.26890673,52.44950498,13.26890673,52.44950498]},{"type":"Feature","id":"plankrankenhaeuser.64","geometry":{"type":"Point","coordinates":[13.28553169,52.58741756]},"geometry_name":"geom","properties":{"gisid":64,"nr_standort":"65","kkh_standort":"ALPIN - Gemeindepsychiatrische Tagesklinik","nr_kkh":"54","kkh":"ALPIN - Gemeindepsychiatrische Tagesklinik gGmbH","gc_strasse":"Berliner Straße","gc_haus":"13","gc_plz":"13507","gc_ortsteil":"Tegel","betten_insgesamt":"0"},"bbox":[13.28553169,52.58741756,13.28553169,52.58741756]}],"totalFeatures":64,"numberMatched":64,"numberReturned":64,"timeStamp":"2026-05-13T06:37:20.817Z","crs":{"type":"name","properties":{"name":"urn:ogc:def:crs:EPSG::4326"}},"bbox":[13.15694293,52.4059015,13.60354189,52.63406751]}