{"type":"FeatureCollection","features":[{"type":"Feature","id":257709121,"properties":{"osmId":257709121,"osmType":"node","amenity":"arts_centre","contact:phone":"+49 30 3334021","contact:website":"http://www.kulturhaus-spandau.de/","name":"Kulturhaus Spandau","toilets:wheelchair":"yes","wheelchair":"yes","wheelchair:description":"viele Treppen jedoch Fahrstuhl vorhanden, Behindertentoiletten vorhanden,"},"geometry":{"type":"Point","coordinates":[13.2023117,52.5354787]}},{"type":"Feature","id":344642062,"properties":{"osmId":344642062,"osmType":"node","addr:city":"Berlin","addr:country":"DE","addr:housenumber":"36","addr:postcode":"10435","addr:street":"Schönhauser Allee","addr:suburb":"Prenzlauer Berg","amenity":"arts_centre","check_date":"2024-06-11","contact:website":"https://www.kulturbrauerei.de/angebote/kesselhaus","mapillary":"466447231138222","name":"Kesselhaus Kulturbrauerei","website":"https://www.kesselhaus.net","wikidata":"Q15823406","wikimedia_commons":"File:Kesselhaus - Maschinenhaus - Logo.jpg","wikipedia":"de:Kesselhaus in der Kulturbrauerei"},"geometry":{"type":"Point","coordinates":[13.4136688,52.5392251]}},{"type":"Feature","id":372353895,"properties":{"osmId":372353895,"osmType":"node","addr:city":"Berlin","addr:country":"DE","addr:housenumber":"105","addr:postcode":"14057","addr:street":"Kaiserdamm","addr:suburb":"Charlottenburg","amenity":"arts_centre","check_date":"2025-08-10","contact:website":"https://kunstforum.berlin/","name":"Kunstforum Berliner Volksbank","wheelchair":"no"},"geometry":{"type":"Point","coordinates":[13.2889708,52.5101819]}},{"type":"Feature","id":387772994,"properties":{"osmId":387772994,"osmType":"node","amenity":"arts_centre","name":"Kunstgalerie"},"geometry":{"type":"Point","coordinates":[13.3893996,52.5226914]}},{"type":"Feature","id":510609732,"properties":{"osmId":510609732,"osmType":"node","addr:city":"Neuenhagen bei Berlin","addr:country":"DE","addr:housenumber":"21","addr:postcode":"15366","addr:street":"Goethestraße","amenity":"arts_centre","name":"Fermate Studio","wheelchair":"no"},"geometry":{"type":"Point","coordinates":[13.7030811,52.5157021]}},{"type":"Feature","id":653957750,"properties":{"osmId":653957750,"osmType":"node","addr:city":"Berlin","addr:country":"DE","addr:housenumber":"108","addr:postcode":"12049","addr:street":"Kienitzer Straße","addr:suburb":"Neukölln","amenity":"arts_centre","check_date":"2023-05-01","description":"Ausstellungen montagabends alle zwei Wochen, Programm siehe Website","description:en":"exhibitions fortnightly on Monday evenings, go to website for schedule","fixme":"Website nicht erreichbar, existiert das Geschäft noch?","name":"Limbus Europae","operator":"brent sqar, etjen","phone":"+493041767355","website":"http://www.limbus-europae.de/","wheelchair":"no"},"geometry":{"type":"Point","coordinates":[13.4242092,52.4758846]}},{"type":"Feature","id":672798786,"properties":{"osmId":672798786,"osmType":"node","addr:city":"Berlin","addr:country":"DE","addr:housenumber":"146/147","addr:postcode":"13353","addr:street":"Müllerstraße","addr:suburb":"Wedding","amenity":"arts_centre","check_date":"2025-01-05","contact:email":"post@galeriewedding.de","contact:facebook":"https://www.facebook.com/galeriewedding/","contact:phone":"+49 30 901842388","contact:website":"http://galeriewedding.de/","fee":"no","level":"0","name":"Galerie Wedding","opening_hours":"Tu-Sa 12:00-19:00; Su,Mo,PH off","operator":"Bezirksamt Mitte von Berlin","wheelchair":"yes"},"geometry":{"type":"Point","coordinates":[13.3566625,52.547522]}},{"type":"Feature","id":771225710,"properties":{"osmId":771225710,"osmType":"node","addr:city":"Berlin","addr:country":"DE","addr:housenumber":"128-129","addr:postcode":"10115","addr:street":"Chausseestraße","addr:suburb":"Mitte","amenity":"arts_centre","contact:phone":"+49 30 2807020","contact:website":"https://www.nbk.org/","name":"Neuer Berliner Kunstverein","name:alt":"Neuer Berliner Kunstverein e.V.","opening_hours":"Tu, We, Fr-Su 12:00-18:00; Th 12:00-20:00","wheelchair":"yes","wikidata":"Q1980109","wikipedia":"en:Neuer Berliner Kunstverein"},"geometry":{"type":"Point","coordinates":[13.3860465,52.5279121]}},{"type":"Feature","id":866058308,"properties":{"osmId":866058308,"osmType":"node","addr:city":"Berlin","addr:country":"DE","addr:housenumber":"175","addr:postcode":"10999","addr:street":"Oranienstraße","addr:suburb":"Kreuzberg","amenity":"arts_centre","contact:website":"http://www.sox-berlin.com/","name":"SOX"},"geometry":{"type":"Point","coordinates":[13.4186726,52.5012357]}},{"type":"Feature","id":867738691,"properties":{"osmId":867738691,"osmType":"node","addr:city":"Berlin","addr:country":"DE","addr:housenumber":"164","addr:postcode":"10969","addr:street":"Oranienstraße","addr:suburb":"Kreuzberg","amenity":"arts_centre","contact:email":"info@sakamotocontemporary.com","contact:fax":"+49 721 151 30 3796","contact:phone":"+49 30 817 010 77","contact:website":"http://sakamotocontemporary.com","name":"sakamotocontemporary","wheelchair":"yes"},"geometry":{"type":"Point","coordinates":[13.4144913,52.5024545]}},{"type":"Feature","id":1022709683,"properties":{"osmId":1022709683,"osmType":"node","addr:city":"Berlin","addr:housenumber":"29","addr:postcode":"14059","addr:street":"Seelingstraße","amenity":"arts_centre","contact:facebook":"https://www.facebook.com/lancini.kunstgalerie","email":"contact@lancini.net","name":"Lancini","opening_hours":"Mo,We,Th 11:00-18:30; Fr 11:00-15:30; Sa 11:30-18:00","phone":"+49 170 9368812","shop":"art","website":"https://gallery.lancini.net/"},"geometry":{"type":"Point","coordinates":[13.2924731,52.5153343]}},{"type":"Feature","id":1181726882,"properties":{"osmId":1181726882,"osmType":"node","addr:city":"Berlin","addr:country":"DE","addr:housenumber":"2","addr:postcode":"10967","addr:street":"Fichtestraße","addr:suburb":"Kreuzberg","amenity":"arts_centre","contact:phone":"+49 157 75193878","contact:website":"https://www.grimmuseum.com/","name":"Grimmuseum"},"geometry":{"type":"Point","coordinates":[13.4128111,52.4910329]}},{"type":"Feature","id":1216694752,"properties":{"osmId":1216694752,"osmType":"node","addr:city":"Berlin","addr:country":"DE","addr:housenumber":"133","addr:postcode":"10999","addr:street":"Skalitzer Straße","addr:suburb":"Kreuzberg","amenity":"arts_centre","culture":"kleinkunst","name":"NOrthEurope/WestGermany","website":"https://westgermany.eu/","wheelchair":"no"},"geometry":{"type":"Point","coordinates":[13.4196111,52.4992773]}},{"type":"Feature","id":1216706172,"properties":{"osmId":1216706172,"osmType":"node","amenity":"arts_centre","check_date":"2024-06-04","name":"NK","wheelchair":"limited"},"geometry":{"type":"Point","coordinates":[13.448829,52.4857993]}},{"type":"Feature","id":1216725461,"properties":{"osmId":1216725461,"osmType":"node","addr:city":"Berlin","addr:country":"DE","addr:housenumber":"49","addr:postcode":"12045","addr:street":"Weichselstraße","addr:suburb":"Neukölln","amenity":"arts_centre","check_date":"2024-09-22","contact:email":"info@ohrenhoch.org","contact:website":"https://www.ohrenhoch.berlin/","name":"ohrenhoch, der Geräuschladen","opening_hours":"Su 14:00-21:00","wheelchair":"limited"},"geometry":{"type":"Point","coordinates":[13.4360547,52.4868316]}},{"type":"Feature","id":1216725466,"properties":{"osmId":1216725466,"osmType":"node","addr:city":"Berlin","addr:country":"DE","addr:housenumber":"60","addr:postcode":"10437","addr:street":"Lychener Straße","addr:suburb":"Prenzlauer Berg","amenity":"arts_centre","check_date":"2024-09-27","contact:phone":"+49 30 4477008","contact:website":"https://ausland-berlin.de/","level":"-1","name":"Ausland","wheelchair":"no","wikidata":"Q4822771","wikipedia":"de:Ausland (Berlin)"},"geometry":{"type":"Point","coordinates":[13.4194785,52.5448387]}},{"type":"Feature","id":1246402209,"properties":{"osmId":1246402209,"osmType":"node","addr:city":"Berlin","addr:country":"DE","addr:housenumber":"27B","addr:postcode":"10997","addr:street":"Schlesische Straße","addr:suburb":"Kreuzberg","alt_name":"Jugend, Kunst- und Kulturhaus Schlesische27","amenity":"arts_centre","check_date":"2025-11-14","contact:email":"info@schlesische27.de","contact:fax":"+49 30 3061880-48","contact:phone":"+49 30 617767-30","contact:website":"http://www.schlesische27.de/","name":"Schlesische 27","operator":"Verein zur Förderung der Interkulturellen Jugendarbeit e.V.","source":"Geoportal Berlin / Hauskoordinaten"},"geometry":{"type":"Point","coordinates":[13.4480786,52.4985811]}},{"type":"Feature","id":1269889052,"properties":{"osmId":1269889052,"osmType":"node","addr:city":"Berlin","addr:country":"DE","addr:housenumber":"74","addr:postcode":"13349","addr:street":"Müllerstraße","addr:suburb":"Wedding","amenity":"arts_centre","description":"Das Centre Français de Berlin (CFB) ist ein deutsch-französisches Kulturzentrum. Aufgabe und Zweck des CFB ist es, im Sinne des europäischen Gedankens zur Völkerverständigung im Jugend-, Bildungs- und Kulturbereich beizutragen.","email":"info@centre-francais.de","image":"https://tinyurl.com/CentreFrancaisBerlin","name":"Centre Français de Berlin","operator":"Centre Français de Berlin gGmbH","phone":"+49 30 12086030","website":"https://centre-francais.de","wheelchair":"yes","wikidata":"Q17482187","wikimedia_commons":"Category:Centre Francais (Berlin-Wedding)"},"geometry":{"type":"Point","coordinates":[13.3391068,52.5583852]}},{"type":"Feature","id":1333382350,"properties":{"osmId":1333382350,"osmType":"node","amenity":"arts_centre","name":"Kunsthaus"},"geometry":{"type":"Point","coordinates":[13.4306239,52.5379754]}},{"type":"Feature","id":1334978500,"properties":{"osmId":1334978500,"osmType":"node","amenity":"arts_centre","name":"Keramik offene Werkstatt"},"geometry":{"type":"Point","coordinates":[13.4307546,52.5380153]}},{"type":"Feature","id":1478259435,"properties":{"osmId":1478259435,"osmType":"node","amenity":"arts_centre","fee":"no","name":"Kunstraum Kreuzberg/Bethanien","opening_hours":"Mo-Su 10:00-20:00","toilets:wheelchair":"yes","tourism":"gallery","website":"https://kunstraumkreuzberg.de/","wheelchair":"yes","wikidata":"Q1310526","wikipedia":"de:Kunstraum Kreuzberg/Bethanien"},"geometry":{"type":"Point","coordinates":[13.4237552,52.5045518]}},{"type":"Feature","id":1573750954,"properties":{"osmId":1573750954,"osmType":"node","addr:city":"Berlin","addr:country":"DE","addr:housenumber":"2","addr:postcode":"12209","addr:street":"Oberhofer Platz","addr:suburb":"Lichterfelde","amenity":"arts_centre","name":"Kultur in der Petruskirche","name:etymology:wikidata":"Q33923","phone":"+49 30 77328452","website":"https://www.petrus-kultur.de/","wheelchair":"limited"},"geometry":{"type":"Point","coordinates":[13.3280056,52.4251253]}},{"type":"Feature","id":1882363954,"properties":{"osmId":1882363954,"osmType":"node","addr:city":"Berlin","addr:country":"DE","addr:housenumber":"23","addr:postcode":"10719","addr:street":"Fasanenstraße","addr:suburb":"Charlottenburg","amenity":"arts_centre","check_date":"2024-08-30","name":"Literaturhaus","website":"https://www.literaturhaus-berlin.de/"},"geometry":{"type":"Point","coordinates":[13.3268653,52.5021388]}},{"type":"Feature","id":1904205947,"properties":{"osmId":1904205947,"osmType":"node","addr:housename":"Haus F","amenity":"arts_centre","name":"Mind Pirates","website":"https://mindpirates.org/"},"geometry":{"type":"Point","coordinates":[13.4455523,52.5006861]}},{"type":"Feature","id":2280779378,"properties":{"osmId":2280779378,"osmType":"node","addr:city":"Berlin","addr:country":"DE","addr:housenumber":"9-11","addr:postcode":"10965","addr:street":"Columbiadamm","amenity":"arts_centre","name":"Crystal","wheelchair":"yes"},"geometry":{"type":"Point","coordinates":[13.3912374,52.4848036]}},{"type":"Feature","id":2374926524,"properties":{"osmId":2374926524,"osmType":"node","amenity":"arts_centre","name":"Theater Aufbau Kreuzberg","wheelchair":"yes"},"geometry":{"type":"Point","coordinates":[13.4088806,52.5032468]}},{"type":"Feature","id":2456821792,"properties":{"osmId":2456821792,"osmType":"node","addr:city":"Berlin","addr:country":"DE","addr:housenumber":"11","addr:postcode":"13187","addr:street":"Schönholzer Straße","addr:suburb":"Pankow","amenity":"arts_centre","check_date":"2025-08-08","name":"Stadtteilzentrum Pankow Bürgerhaus e.V.","toilets:wheelchair":"yes","wheelchair":"yes","wheelchair:description":"für Rollsuhl gibt es einen Aufzug"},"geometry":{"type":"Point","coordinates":[13.3996926,52.5699319]}},{"type":"Feature","id":2483030293,"properties":{"osmId":2483030293,"osmType":"node","addr:city":"Berlin","addr:country":"DE","addr:housenumber":"68","addr:postcode":"10965","addr:street":"Möckernstraße","amenity":"arts_centre","check_date":"2024-05-28","dance:teaching":"yes","email":"schule@tanzfabrik-berlin.de","leisure":"dance","name":"Tanzfabrik Berlin","operator":"Tanzfabrik Berlin e. V.","phone":"+49 30 7865861","website":"https://www.tanzfabrik-berlin.de/"},"geometry":{"type":"Point","coordinates":[13.379104,52.4907694]}},{"type":"Feature","id":2674916628,"properties":{"osmId":2674916628,"osmType":"node","addr:city":"Berlin","addr:housenumber":"24","addr:postcode":"10965","addr:street":"Monumentenstraße","amenity":"arts_centre","description:en":"Performing arts centre for juggling circus aerial and acrobatics","fee":"yes","level":"-1","name":"Katakomben","opening_hours":"24/7","wheelchair":"no"},"geometry":{"type":"Point","coordinates":[13.375692,52.4879104]}},{"type":"Feature","id":2796309823,"properties":{"osmId":2796309823,"osmType":"node","addr:city":"Berlin","addr:country":"DE","addr:housenumber":"14-15","addr:postcode":"12435","addr:street":"Karl-Kunger-Straße","addr:suburb":"Alt-Treptow","amenity":"arts_centre","name":"Kiez Galerie / Initiative","opening_hours":"Tu 10:00-12:00,14:00-16:00; We 16:00-18:00; Th-Su 15:00-19:00","shop":"toys","wheelchair":"limited"},"geometry":{"type":"Point","coordinates":[13.4474738,52.4909291]}},{"type":"Feature","id":2825036523,"properties":{"osmId":2825036523,"osmType":"node","addr:city":"Berlin","addr:country":"DE","addr:housenumber":"42","addr:postcode":"10245","addr:street":"Wühlischstraße","addr:suburb":"Friedrichshain","amenity":"arts_centre","check_date":"2026-03-18","description":"Vetomat - Vereinsräume für Kunst und Kultur - Siebdruckcafe","internet_access":"wlan","level":"0","name":"Vetomat","source":"Geoportal Berlin / Hauskoordinaten","toilets:wheelchair":"no","website":"https://vetomat.net","wheelchair":"no"},"geometry":{"type":"Point","coordinates":[13.4606574,52.5087036]}},{"type":"Feature","id":2830792309,"properties":{"osmId":2830792309,"osmType":"node","addr:city":"Berlin","addr:country":"DE","addr:housenumber":"2B","addr:postcode":"10997","addr:street":"Mariannenplatz","addr:suburb":"Kreuzberg","amenity":"arts_centre","check_date":"2025-11-04","name":"Theaterspielraum Bethanien","phone":"+49 30 61107402","source":"Geoportal Berlin / Hauskoordinaten","toilets:wheelchair":"yes","website":"http://www.theaterbuendnis.de/","wheelchair":"limited","wheelchair:description":"Unsere Räume sind über eine Rampe erreichbar. Da kann eventuell Unterstützung benötigt werden, da diese etwas steil ist. Bei Bedarf kann geklingelt werden!"},"geometry":{"type":"Point","coordinates":[13.4232108,52.5036751]}},{"type":"Feature","id":2849129814,"properties":{"osmId":2849129814,"osmType":"node","addr:city":"Berlin","addr:country":"DE","addr:housenumber":"12","addr:postcode":"10587","addr:street":"Alt-Lietzow","addr:suburb":"Charlottenburg","amenity":"arts_centre","contact:website":"http://www.buchhaendlerkeller-berlin.de","name":"Buchhändlerkeller","wikidata":"Q998551","wikipedia":"de:Buchhändlerkeller"},"geometry":{"type":"Point","coordinates":[13.3082666,52.51808]}},{"type":"Feature","id":2856161800,"properties":{"osmId":2856161800,"osmType":"node","addr:city":"Berlin","addr:country":"DE","addr:housenumber":"63","addr:postcode":"10117","addr:street":"Leipziger Straße","addr:suburb":"Mitte","amenity":"arts_centre","name":"Lab for Emerging Arts and Performance","short_name":"Leap","website":"https://www.leapknecht.de/"},"geometry":{"type":"Point","coordinates":[13.3941846,52.511189]}},{"type":"Feature","id":2950100933,"properties":{"osmId":2950100933,"osmType":"node","addr:city":"Berlin","addr:country":"DE","addr:housenumber":"18","addr:postcode":"12459","addr:street":"Nalepastraße","addr:suburb":"Oberschöneweide","amenity":"arts_centre","contact:website":"https://www.drinkanddrawberlin.com/","fixme":"exact location in building complex?","name":"Drink and Draw"},"geometry":{"type":"Point","coordinates":[13.5003694,52.4792723]}},{"type":"Feature","id":2965254689,"properties":{"osmId":2965254689,"osmType":"node","amenity":"arts_centre","check_date":"2024-09-03","name":"Haus für Poesie","old_name":"Literaturwerkstatt","website":"https://www.haus-fuer-poesie.org/"},"geometry":{"type":"Point","coordinates":[13.4132824,52.5400024]}},{"type":"Feature","id":3144651070,"properties":{"osmId":3144651070,"osmType":"node","addr:city":"Berlin","addr:country":"DE","addr:housenumber":"4","addr:postcode":"10999","addr:street":"Adalbertstraße","addr:suburb":"Kreuzberg","amenity":"arts_centre","contact:website":"https://kotti-shop.net","name":"Kotti Shop","toilets:wheelchair":"no","wheelchair":"yes"},"geometry":{"type":"Point","coordinates":[13.4192379,52.4997485]}},{"type":"Feature","id":3343043950,"properties":{"osmId":3343043950,"osmType":"node","addr:city":"Berlin","addr:country":"DE","addr:housenumber":"5","addr:postcode":"10117","addr:street":"Schumannstraße","addr:suburb":"Mitte","amenity":"arts_centre","check_date":"2025-07-27","contact:phone":"+49 30 283023-0","email":"info@gangway.de","fax":"+49 30 283023-19","name":"Gangway e.V. - Verein für Straßensozialarbeit","website":"https://gangway.de/","wheelchair":"no"},"geometry":{"type":"Point","coordinates":[13.3801493,52.5234806]}},{"type":"Feature","id":3449612281,"properties":{"osmId":3449612281,"osmType":"node","addr:city":"Berlin","addr:housenumber":"68","addr:postcode":"10965","addr:street":"Möckernstraße","amenity":"arts_centre","check_date":"2024-11-22","name":"Tanzfabrik Berlin Studio 4","phone":"+49 30 7865861","website":"https://www.tanzfabrik-berlin.de/","wheelchair":"no"},"geometry":{"type":"Point","coordinates":[13.3774412,52.4907089]}},{"type":"Feature","id":3449612282,"properties":{"osmId":3449612282,"osmType":"node","addr:city":"Berlin","addr:housenumber":"68","addr:postcode":"10965","addr:street":"Möckernstraße","amenity":"arts_centre","check_date":"2026-03-10","name":"Tanzfabrik Berlin Studios 1-3","phone":"+49 30 7865861","website":"https://www.tanzfabrik-berlin.de/","wheelchair":"no"},"geometry":{"type":"Point","coordinates":[13.3777744,52.4907684]}},{"type":"Feature","id":3593126489,"properties":{"osmId":3593126489,"osmType":"node","addr:city":"Berlin","addr:country":"DE","addr:housenumber":"55","addr:postcode":"10317","addr:street":"Kaskelstraße","addr:suburb":"Rummelsburg","amenity":"arts_centre","check_date":"2026-05-24","contact:facebook":"https://de-de.facebook.com/blo.ateliers.de/","contact:instagram":"https://www.instagram.com/bloateliers/","contact:linkedin":"https://www.linkedin.com/company/b-l-o-ateliers-lockkunst-e-v/","contact:phone":"+49 30 55669393","contact:twitter":"https://x.com/bloateliers","contact:website":"https://www.blo-ateliers.de/","contact:youtube":"https://www.youtube.com/@BLOateliers","description":"Künstler*innengemeinschaft aus 90 Personen","email":"info@blo-ateliers.de","fee":"no","name":"B.L.O. Ateliers","name:de":"BLO Ateliers","operator":"Lockkunst"},"geometry":{"type":"Point","coordinates":[13.4832995,52.5046039]}},{"type":"Feature","id":4002168008,"properties":{"osmId":4002168008,"osmType":"node","addr:city":"Berlin","addr:housenumber":"93","addr:postcode":"10967","addr:street":"Urbanstraße","amenity":"arts_centre","name":"Urbanraum","toilets:wheelchair":"yes","website":"https://urbanraum.com/","wheelchair":"yes","wheelchair:description":"Eingang über zwei Aufzüge erreichbar"},"geometry":{"type":"Point","coordinates":[13.4230332,52.4892273]}},{"type":"Feature","id":4549849349,"properties":{"osmId":4549849349,"osmType":"node","addr:city":"Berlin","addr:housenumber":"112","addr:postcode":"10318","addr:street":"Treskowallee","amenity":"arts_centre","check_date:opening_hours":"2023-05-09","name":"Kulturhaus Karlshorst","opening_hours":"Mo-Sa 11:00-19:00; Su 14:00-18:00","opening_hours:signed":"no","phone":"+49 30 4759406-10","website":"http://www.berlin.de/ba-lichtenberg/auf-einen-blick/freizeit/kultur/artikel.298250.php","wheelchair":"yes"},"geometry":{"type":"Point","coordinates":[13.5251196,52.4820582]}},{"type":"Feature","id":5036244600,"properties":{"osmId":5036244600,"osmType":"node","addr:city":"Potsdam","addr:country":"DE","addr:housename":"Haus 5","addr:housenumber":"2-2a","addr:postcode":"14476","addr:street":"Heinz-Sielmann-Ring","addr:suburb":"Groß Glienicke","addr:unit":"Gebäudeteil E","amenity":"arts_centre","contact:email":"info@neues-atelierhaus-panzerhalle.de","contact:website":"https://www.neues-atelierhaus-panzerhalle.de/","name":"Neues Atelierhaus Panzerhalle","opening_hours":"Mo-Su 14:00-18:00","operator":"Atelierhaus Panzerhalle e.V.","operator:type":"cooperative"},"geometry":{"type":"Point","coordinates":[13.124034,52.4862421]}},{"type":"Feature","id":5083213423,"properties":{"osmId":5083213423,"osmType":"node","amenity":"arts_centre","check_date":"2025-09-12","contact:phone":"+49 30 60989426","contact:website":"http://spreewerkstaetten.de","level":"0.5","name":"Spreewerkstätten","wheelchair":"no"},"geometry":{"type":"Point","coordinates":[13.4100789,52.5151377]}},{"type":"Feature","id":5102712064,"properties":{"osmId":5102712064,"osmType":"node","addr:city":"Berlin","addr:housenumber":"19","addr:postcode":"10999","addr:street":"Leuschnerdamm","amenity":"arts_centre","check_date":"2024-06-29","description":"Art Gallery, Projectspace, non commercial","email":"kontakt@groupglobal3000.de","name":"Group Global 3000","phone":"+49 30 6154749","website":"https://gg3.eu/de/","wheelchair":"no"},"geometry":{"type":"Point","coordinates":[13.4180986,52.5046646]}},{"type":"Feature","id":5335602741,"properties":{"osmId":5335602741,"osmType":"node","amenity":"arts_centre","check_date":"2024-11-18","description":"Smaleville film school","name":"Art on the run","wheelchair":"no"},"geometry":{"type":"Point","coordinates":[13.4081665,52.5524423]}},{"type":"Feature","id":5483290365,"properties":{"osmId":5483290365,"osmType":"node","amenity":"arts_centre","name":"Neon Kunst","wheelchair":"no"},"geometry":{"type":"Point","coordinates":[13.4206105,52.476758]}},{"type":"Feature","id":5513859122,"properties":{"osmId":5513859122,"osmType":"node","amenity":"arts_centre","contact:website":"http://artist-homes.com/überuns/derbunker.html","disused:military":"bunker","level":"-1","name":"Der Bunker","operator":"Artist Homes","wheelchair":"no"},"geometry":{"type":"Point","coordinates":[13.2877333,52.4802185]}},{"type":"Feature","id":5618342958,"properties":{"osmId":5618342958,"osmType":"node","addr:city":"Berlin","addr:country":"DE","addr:housenumber":"3","addr:postcode":"12435","addr:street":"Am Flutgraben","addr:suburb":"Alt-Treptow","amenity":"arts_centre","check_date":"2025-11-06","contact:website":"http://flutgraben.org/","name":"Flutgraben e.V.","old_name":"Kunstfabrik am Flutgraben","operator":"Flutgraben e.V."},"geometry":{"type":"Point","coordinates":[13.4513962,52.4972679]}},{"type":"Feature","id":5968330278,"properties":{"osmId":5968330278,"osmType":"node","addr:city":"Berlin","addr:country":"DE","addr:housenumber":"9","addr:postcode":"10785","addr:street":"Lützowplatz","addr:suburb":"Tiergarten","amenity":"arts_centre","check_date":"2026-04-22","name":"Haus am Lützowplatz","website":"https://www.hal-berlin.de/","wikidata":"Q1590719","wikimedia_commons":"Category:Haus am Lützowplatz","wikipedia":"de:Haus am Lützowplatz"},"geometry":{"type":"Point","coordinates":[13.3535546,52.5043546]}},{"type":"Feature","id":5970389728,"properties":{"osmId":5970389728,"osmType":"node","addr:city":"Berlin","addr:country":"DE","addr:housenumber":"41-43","addr:postcode":"10117","addr:street":"Reinhardtstraße","addr:suburb":"Mitte","amenity":"arts_centre","check_date":"2025-11-27","contact:website":"https://eriac.org","name":"European Roma Institute for Arts and Culture","opening_hours":"Mo-Fr 10:00-17:00; PH closed","operator":"European Roma Institute for Arts and Culture e.V.","short_name":"ERIAC","theme":"roma","wheelchair":"yes"},"geometry":{"type":"Point","coordinates":[13.3789179,52.5223227]}},{"type":"Feature","id":5998664736,"properties":{"osmId":5998664736,"osmType":"node","addr:city":"Berlin","addr:country":"DE","addr:housenumber":"6","addr:postcode":"10179","addr:street":"Wilhelmine-Gemberg-Weg","addr:suburb":"Mitte","amenity":"arts_centre","name":"Deutsches Architektur Zentrum","short_name":"DAZ","website":"https://www.daz.de/","wikidata":"Q15805598","wikipedia":"de:Deutsches Architektur Zentrum"},"geometry":{"type":"Point","coordinates":[13.424668,52.509809]}},{"type":"Feature","id":6109284926,"properties":{"osmId":6109284926,"osmType":"node","addr:city":"Berlin","addr:country":"DE","addr:housenumber":"91","addr:postcode":"12459","addr:street":"Wilhelminenhofstraße","addr:suburb":"Oberschöneweide","amenity":"arts_centre","check_date":"2025-05-08","contact:website":"https://katapult.berlin/","description":"contemporary performing art","name":"Katapult"},"geometry":{"type":"Point","coordinates":[13.5102894,52.4628803]}},{"type":"Feature","id":6176650528,"properties":{"osmId":6176650528,"osmType":"node","amenity":"arts_centre","check_date":"2023-09-01","name":"Studio3926","wheelchair":"no"},"geometry":{"type":"Point","coordinates":[13.386441,52.5678034]}},{"type":"Feature","id":6176650529,"properties":{"osmId":6176650529,"osmType":"node","amenity":"arts_centre","name":"Ateliers","wheelchair":"no"},"geometry":{"type":"Point","coordinates":[13.3859099,52.5679261]}},{"type":"Feature","id":6245627492,"properties":{"osmId":6245627492,"osmType":"node","addr:housenumber":"19","addr:street":"Neckarstraße","amenity":"arts_centre","name":"Artistania Atelier","website":"https://www.artistania.org/"},"geometry":{"type":"Point","coordinates":[13.4338744,52.4799892]}},{"type":"Feature","id":6284471183,"properties":{"osmId":6284471183,"osmType":"node","amenity":"arts_centre","name":"takt","website":"https://taktberlin.org/","wheelchair":"limited"},"geometry":{"type":"Point","coordinates":[13.4029014,52.5487416]}},{"type":"Feature","id":6612961272,"properties":{"osmId":6612961272,"osmType":"node","addr:city":"Berlin","addr:housenumber":"7","addr:postcode":"12053","addr:street":"Mainzer Straße","amenity":"arts_centre","check_date":"2025-12-20","contact:facebook":"https://www.facebook.com/wgbliss/","contact:website":"http://mainzer7.de/","name":"Kulturraum Mainzer 7","operator":"Wider die Mühlen, zu den Schaumkronen e.V.","wheelchair":"limited"},"geometry":{"type":"Point","coordinates":[13.4272717,52.4837992]}},{"type":"Feature","id":6630979556,"properties":{"osmId":6630979556,"osmType":"node","addr:city":"Berlin","addr:country":"DE","addr:housenumber":"2","addr:postcode":"10997","addr:street":"Mariannenplatz","addr:suburb":"Kreuzberg","amenity":"arts_centre","check_date":"2023-11-13","contact:website":"https://www.iti-germany.de/","name":"Internationales Theaterinstitut Deutschland","operator":"Zentrum Bundesrepublik Deutschland des Internationalen Theaterinstituts e.V","short_name":"ITI Deutschland","short_name:en":"ITI Germany"},"geometry":{"type":"Point","coordinates":[13.424156,52.5036639]}},{"type":"Feature","id":6892139318,"properties":{"osmId":6892139318,"osmType":"node","addr:city":"Berlin","addr:housenumber":"2","addr:postcode":"10997","addr:street":"Mariannenplatz","amenity":"arts_centre","name":"Kostümkollektiv Berlin","official_name":"Kostümkollektiv Berlin e.V.","website":"https://kostuemkollektiv.de/"},"geometry":{"type":"Point","coordinates":[13.4241227,52.5039317]}},{"type":"Feature","id":7041066639,"properties":{"osmId":7041066639,"osmType":"node","amenity":"arts_centre","name":"Polyphony e.V."},"geometry":{"type":"Point","coordinates":[13.3802405,52.5685131]}},{"type":"Feature","id":7131941724,"properties":{"osmId":7131941724,"osmType":"node","addr:city":"Berlin","addr:country":"DE","addr:housename":"Maison de France","addr:housenumber":"211","addr:postcode":"10719","addr:street":"Kurfürstendamm","addr:suburb":"Charlottenburg","amenity":"arts_centre","check_date":"2023-12-20","name":"Institut Français Berlin","website":"https://berlin.institutfrancais.de/"},"geometry":{"type":"Point","coordinates":[13.3247598,52.5020688]}},{"type":"Feature","id":7710976597,"properties":{"osmId":7710976597,"osmType":"node","amenity":"arts_centre","check_date":"2025-02-12","name":"Ber Verk","wheelchair":"no"},"geometry":{"type":"Point","coordinates":[13.3811057,52.5602762]}},{"type":"Feature","id":7710976600,"properties":{"osmId":7710976600,"osmType":"node","addr:city":"Berlin","addr:housenumber":"41","addr:postcode":"13359","addr:street":"Soldiner Straße","amenity":"arts_centre","check_date":"2025-02-12","name":"Dritte Rampe","website":"https://www.dritte-rampe-berlin.com/","wheelchair":"yes"},"geometry":{"type":"Point","coordinates":[13.3814558,52.5601827]}},{"type":"Feature","id":7821177798,"properties":{"osmId":7821177798,"osmType":"node","addr:city":"Berlin","addr:country":"DE","addr:housenumber":"131","addr:postcode":"10715","addr:street":"Wilhelmsaue","addr:suburb":"Wilmersdorf","amenity":"arts_centre","name":"Kinderkunstschule Tempera"},"geometry":{"type":"Point","coordinates":[13.3282827,52.4850024]}},{"type":"Feature","id":8000704915,"properties":{"osmId":8000704915,"osmType":"node","amenity":"arts_centre","check_date":"2023-12-14","name":"Resi Art","wheelchair":"no"},"geometry":{"type":"Point","coordinates":[13.3617898,52.5692572]}},{"type":"Feature","id":8042869045,"properties":{"osmId":8042869045,"osmType":"node","addr:city":"Berlin","addr:housenumber":"26","addr:postcode":"12157","addr:street":"Thorwaldsenstraße","amenity":"arts_centre","name":"Tonhain","note":"Bis 2022: Andachtsstätte Apostelamt Jesu Christi","operator":"Tonhain Kollektiv e.V.","website":"https://www.tonhain-kollektiv.org"},"geometry":{"type":"Point","coordinates":[13.3435727,52.4621362]}},{"type":"Feature","id":8267040592,"properties":{"osmId":8267040592,"osmType":"node","addr:city":"Berlin","addr:housenumber":"20","addr:postcode":"13347","addr:street":"Schönwalder Straße","amenity":"arts_centre","check_date":"2025-01-25","name":"L'écritoire","phone":"+49 30 28610539","website":"https://lecritoire.de/","wheelchair":"limited"},"geometry":{"type":"Point","coordinates":[13.371578,52.5418625]}},{"type":"Feature","id":8432444011,"properties":{"osmId":8432444011,"osmType":"node","amenity":"arts_centre","name":"Schaustellerbetrieb H. Nitzsche"},"geometry":{"type":"Point","coordinates":[13.3771209,52.5625129]}},{"type":"Feature","id":8755034862,"properties":{"osmId":8755034862,"osmType":"node","addr:city":"Berlin","addr:housenumber":"232","addr:postcode":"10435","addr:street":"Schwedter Straße","amenity":"arts_centre","check_date":"2026-05-06","name":"Ateliergemeinschaft Milchhof e.V.","opening_hours:covid19":"closed","website":"http://milchhof-berlin.de/"},"geometry":{"type":"Point","coordinates":[13.4042643,52.5382911]}},{"type":"Feature","id":8839649636,"properties":{"osmId":8839649636,"osmType":"node","addr:city":"Berlin","addr:country":"DE","addr:housenumber":"21","addr:postcode":"10711","addr:street":"Joachim-Friedrich-Straße","addr:suburb":"Halensee","amenity":"arts_centre","check_date":"2024-07-06","contact:phone":"+49 30 64319295","contact:website":"https://www.bunt-kurse.de/","description":"Kunstkurse","education":"courses","name":"Bunt","training":"art"},"geometry":{"type":"Point","coordinates":[13.2967202,52.4995776]}},{"type":"Feature","id":8959671672,"properties":{"osmId":8959671672,"osmType":"node","addr:city":"Berlin","addr:housenumber":"76","addr:postcode":"12459","addr:street":"Wilhelminenhofstraße","amenity":"arts_centre","check_date":"2025-11-20","contact:website":"https://www.mahalla.berlin","name":"MaHalla","wheelchair":"limited"},"geometry":{"type":"Point","coordinates":[13.5236581,52.4594502]}},{"type":"Feature","id":9633252576,"properties":{"osmId":9633252576,"osmType":"node","amenity":"arts_centre","name":"AR_29"},"geometry":{"type":"Point","coordinates":[13.3495055,52.5760277]}},{"type":"Feature","id":9713922099,"properties":{"osmId":9713922099,"osmType":"node","addr:city":"Berlin","addr:country":"DE","addr:housenumber":"28","addr:postcode":"12435","addr:street":"Am Treptower Park","addr:suburb":"Plänterwald","amenity":"arts_centre","contact:website":"http://salon-verde.de","name":"Salon Verde"},"geometry":{"type":"Point","coordinates":[13.4612641,52.4867661]}},{"type":"Feature","id":9774919599,"properties":{"osmId":9774919599,"osmType":"node","amenity":"arts_centre","name":"Monopol","website":"https://monopol-berlin.com/de"},"geometry":{"type":"Point","coordinates":[13.3793571,52.5676563]}},{"type":"Feature","id":9816601558,"properties":{"osmId":9816601558,"osmType":"node","amenity":"arts_centre","check_date":"2025-09-09","name":"mkas"},"geometry":{"type":"Point","coordinates":[13.2923055,52.5104274]}},{"type":"Feature","id":9844946879,"properties":{"osmId":9844946879,"osmType":"node","amenity":"arts_centre","check_date":"2025-07-21","name":"tropez","opening_hours":"Mo-Su 10:00-18:00","phone":"+49 176 66800232","website":"https://tropeztropez.de/"},"geometry":{"type":"Point","coordinates":[13.3812014,52.5457744]}},{"type":"Feature","id":9858791831,"properties":{"osmId":9858791831,"osmType":"node","amenity":"arts_centre","name":"Cordillera","toilets:wheelchair":"no","wheelchair":"yes"},"geometry":{"type":"Point","coordinates":[13.5282653,52.4578477]}},{"type":"Feature","id":9988935261,"properties":{"osmId":9988935261,"osmType":"node","amenity":"arts_centre","name":"West and Art"},"geometry":{"type":"Point","coordinates":[13.2809241,52.5137183]}},{"type":"Feature","id":10003860042,"properties":{"osmId":10003860042,"osmType":"node","amenity":"arts_centre","check_date":"2022-09-06","name":"Dana Dmikelson"},"geometry":{"type":"Point","coordinates":[13.2933584,52.5134827]}},{"type":"Feature","id":10003860047,"properties":{"osmId":10003860047,"osmType":"node","amenity":"arts_centre","check_date":"2025-07-21","email":"info@concreare.de","name":"Concreare","wheelchair":"no"},"geometry":{"type":"Point","coordinates":[13.2899338,52.513028]}},{"type":"Feature","id":10003860054,"properties":{"osmId":10003860054,"osmType":"node","amenity":"arts_centre","check_date":"2022-09-06"},"geometry":{"type":"Point","coordinates":[13.2926655,52.5131968]}},{"type":"Feature","id":10152841675,"properties":{"osmId":10152841675,"osmType":"node","addr:city":"Berlin","addr:housenumber":"12","addr:postcode":"12159","addr:street":"Hedwigstraße","amenity":"arts_centre","check_date":"2025-10-31","contact:facebook":"https://www.facebook.com/popcornerberlin/","contact:instagram":"https://www.instagram.com/popcornerberlin/","level":"0","name":"POPCORNER","phone":"+49 30 62932334","website":"https://popcorner-berlin.com/","wheelchair":"no"},"geometry":{"type":"Point","coordinates":[13.3388729,52.4715569]}},{"type":"Feature","id":10188753480,"properties":{"osmId":10188753480,"osmType":"node","amenity":"arts_centre","check_date":"2026-04-01","name":"feinart Berlin","opening_hours":"Tu-Sa 14:00-19:00"},"geometry":{"type":"Point","coordinates":[13.3145744,52.5042759]}},{"type":"Feature","id":10195733524,"properties":{"osmId":10195733524,"osmType":"node","amenity":"arts_centre","check_date":"2025-08-12","description":"Buch & Kultur","name":"Lit Korea"},"geometry":{"type":"Point","coordinates":[13.3268354,52.4550947]}},{"type":"Feature","id":10539925126,"properties":{"osmId":10539925126,"osmType":"node","addr:city":"Berlin","addr:housenumber":"36","addr:postcode":"10435","addr:street":"Schönhauser Allee","amenity":"arts_centre","contact:website":"https://www.kulturbrauerei.de/angebote/kesselhaus","description":"Das Maschinenhaus schließt direkt ans Kesselhaus an und kann bei Bedarf auch gemeinsam genutzt werden.","email":"info@kesselhaus-berlin.de","name":"Maschinenhaus Kulturbrauerei","phone":"+493044315100","website":"https://www.kesselhaus-berlin.de","wikidata":"Q15823406","wikimedia_commons":"File:Maschinenhaus in der Kulturbrauerei.jpg","wikipedia":"de:Kesselhaus in der Kulturbrauerei"},"geometry":{"type":"Point","coordinates":[13.4136682,52.5394242]}},{"type":"Feature","id":10658564547,"properties":{"osmId":10658564547,"osmType":"node","addr:city":"Berlin","addr:country":"DE","addr:housenumber":"8","addr:postcode":"10119","addr:street":"Schönhauser Allee","addr:suburb":"Prenzlauer Berg","amenity":"arts_centre","check_date":"2025-09-30","contact:website":"https://acht.berlin/","description":"movie theater, bar, restaurant, rooftop terrace, gallery, photo studio, meeting rooms, office","name":"Acht Berlin"},"geometry":{"type":"Point","coordinates":[13.4106652,52.5298094]}},{"type":"Feature","id":10676187980,"properties":{"osmId":10676187980,"osmType":"node","addr:city":"Berlin","addr:housenumber":"78","addr:postcode":"10963","addr:street":"Hallesches Ufer","addr:suburb":"Kreuzberg","amenity":"arts_centre","image":"https://assets.ad-magazin.de/photos/60f6ec2c602ca619192952cf/master/w_2000,h_1333,c_limit/KonferenzStudio1017jpg.jpg","loc_name":"Lapidarium Berlin;Lapidarium by Boros","mapillary":"387893816445615","name":"Lapidarium","operator":"Boros GmbH","website":"http://lapidarium.berlin","wikidata":"Q20828849","wikimedia_commons":"Category:Lapidarium (Berlin-Kreuzberg)","wikipedia":"de:Lapidarium (Berlin)"},"geometry":{"type":"Point","coordinates":[13.3776008,52.5016688]}},{"type":"Feature","id":10721193346,"properties":{"osmId":10721193346,"osmType":"node","addr:city":"Berlin","addr:housenumber":"169","addr:postcode":"10409","addr:street":"Greifswalder Straße","amenity":"arts_centre","check_date":"2023-03-08","contact:instagram":"@zentrale.space","description":"„Zentrale“ ist ein non-kommerzieller Ort in einer ehemaligen Videothek, die kurz vor dem Abriss steht.\nIn der Zwischenzeit entsteht hier ein Freiraum für Austausch, Kreativität und Kunst.","level":"0","name":"zentrale","website":"https://zentrale.space/","wheelchair":"no"},"geometry":{"type":"Point","coordinates":[13.4378949,52.5410213]}},{"type":"Feature","id":10722716210,"properties":{"osmId":10722716210,"osmType":"node","amenity":"arts_centre","name":"Petersburg Art Space","website":"https://pas-berlin.org/"},"geometry":{"type":"Point","coordinates":[13.3202048,52.5247638]}},{"type":"Feature","id":10750992827,"properties":{"osmId":10750992827,"osmType":"node","addr:city":"Berlin","addr:housenumber":"3","addr:postcode":"10965","addr:street":"Fidicinstraße","amenity":"arts_centre","name":"Thikwa Werkstatt für Theater und Kunst","phone":"+49 30 505 647 16","website":"https://thikwawerkstatt.com"},"geometry":{"type":"Point","coordinates":[13.3897009,52.4865575]}},{"type":"Feature","id":10830063247,"properties":{"osmId":10830063247,"osmType":"node","addr:city":"Berlin","addr:housenumber":"35-45","addr:postcode":"10245","addr:street":"Modersohnstraße","amenity":"arts_centre","name":"NÅPOLEON KOMPLEX","website":"https://komplex.berlin","wheelchair":"limited"},"geometry":{"type":"Point","coordinates":[13.4585291,52.5035754]}},{"type":"Feature","id":11020676406,"properties":{"osmId":11020676406,"osmType":"node","amenity":"arts_centre","name":"Kulturpalast","website":"https://www.kulturpalastwedding.com/"},"geometry":{"type":"Point","coordinates":[13.3920425,52.5583103]}},{"type":"Feature","id":11035783618,"properties":{"osmId":11035783618,"osmType":"node","amenity":"arts_centre","contact:website":"https://kulturhaus-schoeneberg.de/","name":"Kulturhaus Schöneberg","operator":"Förderverein Kulturhaus Schöneberg e.V.","start_date":"1997"},"geometry":{"type":"Point","coordinates":[13.3523204,52.494222]}},{"type":"Feature","id":11336846004,"properties":{"osmId":11336846004,"osmType":"node","addr:city":"Berlin","addr:housenumber":"11-13","addr:postcode":"10178","addr:street":"Karl-Liebknecht-Straße","amenity":"arts_centre","name":"neue Gesellschaft für bildende Kunst (nGbK)","opening_hours":"Di-So 12-18, Fr 12-20","operator":"Neue Gesellschaft für bildende Kunst","website":"https://www.ngbk.de","wheelchair":"yes"},"geometry":{"type":"Point","coordinates":[13.4076304,52.5218517]}},{"type":"Feature","id":11921928162,"properties":{"osmId":11921928162,"osmType":"node","amenity":"arts_centre","name":"90MIL","training":"art","website":"https://www.90mil.berlin/","wheelchair":"yes"},"geometry":{"type":"Point","coordinates":[13.424266,52.5127946]}},{"type":"Feature","id":11975247670,"properties":{"osmId":11975247670,"osmType":"node","addr:housenumber":"75","addr:postcode":"12435","addr:street":"Bouchéstraße","amenity":"arts_centre","name":"Kulturhaus Bouché e.V.","website":"https://padlet.com/KulturhausBouche/kulturhaus-bouch-e-v-fag0my3lenadwokz"},"geometry":{"type":"Point","coordinates":[13.447961,52.4896427]}},{"type":"Feature","id":11991996319,"properties":{"osmId":11991996319,"osmType":"node","addr:city":"Berlin","addr:housenumber":"16","addr:postcode":"10999","addr:street":"Glogauer Straße","amenity":"arts_centre","name":"GlogauAIR gGmbH","website":"https://glogauair.net/"},"geometry":{"type":"Point","coordinates":[13.4359064,52.4922165]}},{"type":"Feature","id":12044046467,"properties":{"osmId":12044046467,"osmType":"node","amenity":"arts_centre","contact:email":"info@kunstschule-potsdam.de","contact:phone":"+49331710224","contact:website":"https://kunstschule-potsdam.de/","name":"Kunstschule Potsdam"},"geometry":{"type":"Point","coordinates":[13.0910613,52.3923774]}},{"type":"Feature","id":12228031490,"properties":{"osmId":12228031490,"osmType":"node","amenity":"arts_centre","name":"CelloMusikSalon"},"geometry":{"type":"Point","coordinates":[13.3949383,52.5111403]}},{"type":"Feature","id":12288177001,"properties":{"osmId":12288177001,"osmType":"node","addr:housenumber":"21","addr:postcode":"13347","addr:street":"Maxstraße","amenity":"arts_centre","name":"Johan Lorbeer Art Space","wheelchair":"no"},"geometry":{"type":"Point","coordinates":[13.3648141,52.5491524]}},{"type":"Feature","id":12288177101,"properties":{"osmId":12288177101,"osmType":"node","addr:housenumber":"22","addr:postcode":"12053","addr:street":"Jonasstraße","amenity":"arts_centre","contact:instagram":"prachtsaal","level":"0","name":"Prachtsaal Studio","website":"https://prachtsaal.berlin"},"geometry":{"type":"Point","coordinates":[13.4337641,52.4717843]}},{"type":"Feature","id":13034304289,"properties":{"osmId":13034304289,"osmType":"node","addr:city":"Berlin","addr:housenumber":"12","addr:postcode":"10967","addr:street":"Hasenheide","amenity":"arts_centre","name":"CCB Studios","website":"https://studios.comedycafeberlin.com/"},"geometry":{"type":"Point","coordinates":[13.4215964,52.4879076]}},{"type":"Feature","id":13150051301,"properties":{"osmId":13150051301,"osmType":"node","addr:housenumber":"116a","addr:postcode":"13355","addr:street":"Ackerstraße","amenity":"arts_centre","name":"STATTLAB","website":"https://stattlab.net/"},"geometry":{"type":"Point","coordinates":[13.3849955,52.5376578]}},{"type":"Feature","id":13152347703,"properties":{"osmId":13152347703,"osmType":"node","addr:housenumber":"68A","addr:postcode":"12459","addr:street":"Wilhelminenhofstraße","amenity":"arts_centre","name":"p: photography unlimited e.V.","website":"https://pberlin.net"},"geometry":{"type":"Point","coordinates":[13.528059,52.4582579]}},{"type":"Feature","id":13484113963,"properties":{"osmId":13484113963,"osmType":"node","addr:city":"Berlin","addr:housenumber":"11","addr:postcode":"10629","addr:street":"Dahlmannstraße","amenity":"arts_centre","email":"info@artspace.berlin","name":"Art Space Berlin","opening_hours":"Mo-Su 10:00-19:00","website":"https://www.artspace.berlin/"},"geometry":{"type":"Point","coordinates":[13.3037011,52.5010875]}},{"type":"Feature","id":13556345607,"properties":{"osmId":13556345607,"osmType":"node","addr:city":"Berlin","addr:housenumber":"31","addr:postcode":"12049","addr:street":"Lucy-Lameck-Straße","amenity":"arts_centre","email":"info@junges-tanzhaus-berlin.de","name":"Junges Tanzhaus Berlin","operator":"TanzZeit e.V.","phone":"+49 30 544539370","website":"https://junges-tanzhaus-berlin.de/"},"geometry":{"type":"Point","coordinates":[13.4225848,52.4838882]}},{"type":"Feature","id":13758994601,"properties":{"osmId":13758994601,"osmType":"node","amenity":"arts_centre","check_date":"2026-04-24","name":"Emmas kreative Veranstaltungen"},"geometry":{"type":"Point","coordinates":[13.4157608,52.5539506]}},{"type":"Feature","id":5117224,"properties":{"osmId":5117224,"osmType":"way","amenity":"arts_centre","building":"public","building:levels":"2","check_date":"2025-07-27","name":"ZAK","opening_hours":"Mo-We,Fr-Su 10:00-17:00; Th 13:00-20:00","roof:levels":"1","source":"Geoportal Berlin / Hausumringe","wheelchair":"yes"},"geometry":{"type":"Point","coordinates":[13.2125136,52.5416436]}},{"type":"Feature","id":24054901,"properties":{"osmId":24054901,"osmType":"way","addr:city":"Berlin","addr:country":"DE","addr:housenumber":"10","addr:postcode":"10117","addr:street":"Auguststraße","addr:suburb":"Mitte","amenity":"arts_centre","building":"yes","building:levels":"4","check_date":"2025-10-03","heritage":"4","heritage:operator":"lda","lda:criteria":"Ensembleteil","name":"Kunsthaus KuLe","ref:lda":"09035043"},"geometry":{"type":"Point","coordinates":[13.3941636,52.5263554]}},{"type":"Feature","id":26966079,"properties":{"osmId":26966079,"osmType":"way","addr:city":"Berlin","addr:housenumber":"17","addr:postcode":"13627","addr:street":"Nonnendamm","addr:suburb":"Charlottenburg-Nord","amenity":"arts_centre","building":"yes","building:levels":"5","name":"Atelierhaus"},"geometry":{"type":"Point","coordinates":[13.2858946,52.530168]}},{"type":"Feature","id":31701249,"properties":{"osmId":31701249,"osmType":"way","addr:city":"Falkensee","addr:country":"DE","addr:housenumber":"16","addr:postcode":"14612","addr:street":"Falkenhagener Straße","amenity":"arts_centre","building":"yes","name":"Creatives Zentrum – Haus am Anger Falkensee","toilets:wheelchair":"yes","wheelchair":"limited"},"geometry":{"type":"Point","coordinates":[13.105265,52.5662317]}},{"type":"Feature","id":33949547,"properties":{"osmId":33949547,"osmType":"way","access":"private","addr:city":"Berlin","addr:country":"DE","addr:housenumber":"6","addr:postcode":"10365","addr:street":"Buchberger Straße","addr:suburb":"Lichtenberg","alt_name":"Rockhaus Berlin","amenity":"arts_centre","architect":"Bauakademie der DDR","building":"office","building:colour":"#dfa671","building:levels":"5","check_date":"2025-11-09","description":"Proberaumzentrum","name":"Berliner Rockhaus","roof:colour":"#7a7c7f","roof:levels":"0","roof:shape":"flat","short_name":"Rockhaus","start_date":"2007","wikidata":"Q131935055","wikipedia":"de:Rockhaus Berlin","year_of_construction":"1976"},"geometry":{"type":"Point","coordinates":[13.4902484,52.5096332]}},{"type":"Feature","id":34871720,"properties":{"osmId":34871720,"osmType":"way","addr:city":"Berlin","addr:country":"DE","addr:housenumber":"55","addr:postcode":"12165","addr:street":"Grunewaldstraße","addr:suburb":"Steglitz","amenity":"arts_centre","building":"yes","building:levels":"2","contact:website":"https://www.berlin.de/ba-steglitz-zehlendorf/auf-einen-blick/kultur/schwartzsche-villa/","heritage":"4","heritage:operator":"lda","lda:criteria":"Baudenkmal","name":"Schwartzsche Villa","ref:lda":"09065530","short_name":"Schwartz Villa","start_date":"1896","website":"https://www.berlin.de/museum/3109584-2926344-schwartzsche-villa.html","wikidata":"Q17591849","wikipedia":"de:Schwartzsche Villa"},"geometry":{"type":"Point","coordinates":[13.3193892,52.4569263]}},{"type":"Feature","id":42163186,"properties":{"osmId":42163186,"osmType":"way","addr:city":"Berlin","addr:country":"DE","addr:housenumber":"33","addr:postcode":"10243","addr:street":"Holzmarktstraße","addr:suburb":"Friedrichshain","amenity":"arts_centre","building":"yes","contact:facebook":"https://www.facebook.com/Radialsystem/","contact:instagram":"https://www.instagram.com/radialsystem_berlin/","name":"Radialsystem V","website":"https://radialsystem.de/","wheelchair":"yes","wheelchair:description":"Infos zur Barrierefreiheit: https://www.radialsystem.de/de/service/#cb-barrierefreiheit","wikidata":"Q2125656","wikimedia_commons":"Category:Radialsystem V (Berlin)","wikipedia":"de:Radialsystem (Kulturzentrum)"},"geometry":{"type":"Point","coordinates":[13.4286314,52.510329]}},{"type":"Feature","id":42485381,"properties":{"osmId":42485381,"osmType":"way","addr:city":"Berlin","addr:country":"DE","addr:housenumber":"1","addr:postcode":"12619","addr:street":"Carola-Neher-Straße","addr:suburb":"Hellersdorf","amenity":"arts_centre","building":"civic","building:levels":"1","check_date":"2023-08-18","name":"Kulturforum Hellersdorf","roof:shape":"flat","wheelchair":"yes"},"geometry":{"type":"Point","coordinates":[13.5925421,52.5307267]}},{"type":"Feature","id":43231186,"properties":{"osmId":43231186,"osmType":"way","alt_name":"Schinkel Pavillon","amenity":"arts_centre","building":"yes","building:levels":"3","check_date":"2024-10-27","name":"Schinkelpavillon","operator":"Schinkel Pavillon e.V.","website":"https://www.schinkelpavillon.de/","wikipedia":"de:Schinkel Pavillon (Berlin-Mitte)"},"geometry":{"type":"Point","coordinates":[13.3969359,52.516347]}},{"type":"Feature","id":45001951,"properties":{"osmId":45001951,"osmType":"way","addr:city":"Berlin","addr:country":"DE","addr:housename":"Halle 28 / Halle 29","addr:housenumber":"99","addr:postcode":"10245","addr:street":"Revaler Straße","addr:suburb":"Friedrichshain","amenity":"arts_centre","building":"commercial","building:levels":"2","check_date":"2024-07-02","contact:email":"contact@urbanspree.com","contact:facebook":"https://www.facebook.com/UrbanSpree","contact:fax":"+49 30 94047328","contact:instagram":"https://www.instagram.com/urban_spree/","contact:phone":"+49 30 74078597","contact:twitter":"https://twitter.com/urban_spree","contact:website":"http://www.urbanspree.com","name":"Urban Spree","wheelchair":"limited","wikidata":"Q48753601","wikimedia_commons":"Category:Urban Spree","wikipedia":"de:Urban Spree"},"geometry":{"type":"Point","coordinates":[13.45151,52.5076032]}},{"type":"Feature","id":49223741,"properties":{"osmId":49223741,"osmType":"way","amenity":"arts_centre","building":"yes","name":"Fontanehaus","wheelchair":"limited"},"geometry":{"type":"Point","coordinates":[13.3522915,52.5979069]}},{"type":"Feature","id":76859761,"properties":{"osmId":76859761,"osmType":"way","amenity":"arts_centre","building":"yes","name":"Kunsthaus"},"geometry":{"type":"Point","coordinates":[13.4124045,52.5708125]}},{"type":"Feature","id":76859769,"properties":{"osmId":76859769,"osmType":"way","amenity":"arts_centre","building":"yes","name":"Kunsthaus 2"},"geometry":{"type":"Point","coordinates":[13.41285,52.5704334]}},{"type":"Feature","id":76859771,"properties":{"osmId":76859771,"osmType":"way","addr:city":"Berlin","addr:country":"DE","addr:housenumber":"45","addr:postcode":"13187","addr:street":"Breite Straße","addr:suburb":"Pankow","amenity":"arts_centre","building":"yes","heritage":"4","heritage:operator":"lda","lda:criteria":"Baudenkmal","name":"Kavalierhaus","name:etymology:wikidata":"Q2284765","ref:lda":"09085225","source":"Geoportal Berlin / Hauskoordinaten","start_date":"1765","wheelchair":"yes"},"geometry":{"type":"Point","coordinates":[13.4129491,52.5715359]}},{"type":"Feature","id":78372656,"properties":{"osmId":78372656,"osmType":"way","addr:city":"Berlin","addr:housename":"Löwenpalais","addr:housenumber":"30-32","addr:postcode":"14193","addr:street":"Koenigsallee","amenity":"arts_centre","architect":"Bernhard Sehring","building":"office","building:levels":"3","heritage":"4","heritage:operator":"lda","lda:criteria":"Baudenkmal","name":"Löwenpalais","old_name":"Villa Habel","ref:lda":"09046513","start_date":"1904","wikipedia":"de:Löwenpalais"},"geometry":{"type":"Point","coordinates":[13.2714654,52.4863348]}},{"type":"Feature","id":81127025,"properties":{"osmId":81127025,"osmType":"way","addr:city":"Berlin","addr:country":"DE","addr:housenumber":"1","addr:place":"Caligariplatz","addr:postcode":"13086","addr:suburb":"Weißensee","amenity":"arts_centre","building":"commercial","building:levels":"2","contact:phone":"+49 30 4714002","contact:website":"http://www.brotfabrik-berlin.de/","name":"Brotfabrik","roof:levels":"1","wheelchair":"yes","wikidata":"Q990769","wikimedia_commons":"Category:Brotfabrik in Berlin","wikipedia":"de:Brotfabrik (Berlin)"},"geometry":{"type":"Point","coordinates":[13.4305908,52.5526081]}},{"type":"Feature","id":83676055,"properties":{"osmId":83676055,"osmType":"way","addr:city":"Berlin","addr:country":"DE","addr:housenumber":"32","addr:postcode":"12049","addr:street":"Lucy-Lameck-Straße","amenity":"arts_centre","building":"yes","building:levels":"4","building:material":"brick","contact:email":"hallo@oyoun.de","contact:phone":"+49 30 68050860","contact:website":"https://oyoun.de","name":"Oyoun","old_name":"Werkstatt der Kulturen","operator":"Kultur NeuDenken UG","roof:levels":"1","wheelchair":"limited"},"geometry":{"type":"Point","coordinates":[13.4226927,52.4838384]}},{"type":"Feature","id":86814083,"properties":{"osmId":86814083,"osmType":"way","alt_name":"Zirkus Schatzinsel","amenity":"arts_centre","contact:website":"https://www.vuesch.org/schatzinsel/","loc_name":"Schatzinsel","name":"Circus Schatzinsel","toilets:wheelchair":"yes","wheelchair":"yes"},"geometry":{"type":"Point","coordinates":[13.4416016,52.5020708]}},{"type":"Feature","id":96565779,"properties":{"osmId":96565779,"osmType":"way","addr:city":"Potsdam","addr:country":"DE","addr:housenumber":"76-78","addr:postcode":"14482","addr:street":"Stahnsdorfer Straße","addr:suburb":"Babelsberg Süd","amenity":"arts_centre","building":"civic","building:levels":"2","contact:phone":"+49 331 747970","contact:website":"https://www.lindenpark.de/","name":"Lindenpark","roof:levels":"2","roof:shape":"gabled","toilets:wheelchair":"yes","wheelchair":"yes","wheelchair:description":"barrierefreier Zugang an der Rückseite des Gebäudes","wikidata":"Q1826115"},"geometry":{"type":"Point","coordinates":[13.1169163,52.391769]}},{"type":"Feature","id":106886812,"properties":{"osmId":106886812,"osmType":"way","addr:city":"Berlin","addr:country":"DE","addr:housename":"Wasserturm Kreuzberg","addr:housenumber":"7","addr:postcode":"10965","addr:street":"Kopischstraße","addr:suburb":"Kreuzberg","amenity":"arts_centre","building":"yes","building:levels":"8","heritage":"4","heritage:operator":"lda","layer":"1","lda:criteria":"Baudenkmal","name":"Jugend-, Kultur- und Informartionzentrum Wasserturm e.V.","ref:lda":"09030464","wheelchair":"no"},"geometry":{"type":"Point","coordinates":[13.3896617,52.4871368]}},{"type":"Feature","id":145796789,"properties":{"osmId":145796789,"osmType":"way","addr:city":"Berlin","addr:country":"DE","addr:housenumber":"77","addr:postcode":"10825","addr:street":"Martin-Luther-Straße","addr:suburb":"Schöneberg","amenity":"arts_centre","building":"civic","building:colour":"white","building:levels":"1","building:material":"plaster","check_date":"2026-04-13","contact:email":"seeyou@die-weisse-rose.de","contact:facebook":"https://www.facebook.com/dieweisserose/","contact:instagram":"https://www.instagram.com/weisserose_berlin/","contact:phone":"+49 30 902776646","contact:website":"https://www.berlin.de/ba-ts/jugendfreizeiteinrichtungen/einrichtungen/weisse-rose/","internet_access":"wlan","name":"Die Weiße Rose","roof:colour":"grey","roof:levels":"0","roof:shape":"many","wheelchair":"limited"},"geometry":{"type":"Point","coordinates":[13.346353,52.4883942]}},{"type":"Feature","id":205826061,"properties":{"osmId":205826061,"osmType":"way","addr:city":"Neuenhagen bei Berlin","addr:country":"DE","addr:housenumber":"33","addr:postcode":"15366","addr:street":"Carl-Schmäcke-Straße","amenity":"arts_centre","building":"yes","name":"Arche","wheelchair":"no"},"geometry":{"type":"Point","coordinates":[13.6920613,52.5319951]}},{"type":"Feature","id":225919675,"properties":{"osmId":225919675,"osmType":"way","addr:city":"Berlin","addr:country":"DE","addr:housenumber":"27","addr:postcode":"10551","addr:street":"Siemensstraße","addr:suburb":"Moabit","amenity":"arts_centre","check_date":"2025-08-10","name":"ZK/U","operator":"KUNSTrePUBLIK","toilets:wheelchair":"no","website":"https://www.zku-berlin.org/","wheelchair":"yes","wikidata":"Q105762304","wikimedia_commons":"File:20220721 xl 051937703 ZK-U (Zentrum für Kunst und Urbanistik).jpg"},"geometry":{"type":"Point","coordinates":[13.3365293,52.5338821]}},{"type":"Feature","id":234407685,"properties":{"osmId":234407685,"osmType":"way","addr:city":"Berlin","addr:country":"DE","addr:housenumber":"101","addr:postcode":"10365","addr:street":"Bornitzstraße","addr:suburb":"Lichtenberg","amenity":"arts_centre","building":"yes","building:levels":"1","contact:website":"http://www.existere.de/veranstaltungen/dauerausstellung/","name":"Sim sala bim - die Ausstellung","operator":"existere e.V.","roof:shape":"flat"},"geometry":{"type":"Point","coordinates":[13.4959553,52.5209576]}},{"type":"Feature","id":237816189,"properties":{"osmId":237816189,"osmType":"way","addr:city":"Berlin","addr:country":"DE","addr:housenumber":"4","addr:postcode":"10117","addr:street":"Pariser Platz","addr:suburb":"Mitte","amenity":"arts_centre","building":"museum","contact:facebook":"https://www.facebook.com/akademiederkuenste","contact:instagram":"https://www.instagram.com/akademiederkuenste/","height":"22","name":"Akademie der Künste","name:en":"Academy of Arts","name:ru":"Академия художеств","phone":"+49 30 200571000","ref:vatin":"DE220436340","surveillance":"indoor","toilets:wheelchair":"yes","website":"https://www.adk.de/","wheelchair":"yes","wikidata":"Q105045058","wikipedia":"en:Academy of Arts, Berlin"},"geometry":{"type":"Point","coordinates":[13.3796061,52.5154765]}},{"type":"Feature","id":276970859,"properties":{"osmId":276970859,"osmType":"way","amenity":"arts_centre","building":"yes","name":"Kulturscheune"},"geometry":{"type":"Point","coordinates":[13.7522937,52.5197283]}},{"type":"Feature","id":421630792,"properties":{"osmId":421630792,"osmType":"way","addr:city":"Berlin","addr:country":"DE","addr:housenumber":"55","addr:postcode":"13357","addr:street":"Wiesenstraße","addr:suburb":"Gesundbrunnen","amenity":"arts_centre","name":"Wiesenburg","source":"Geoportal Berlin / Hauskoordinaten"},"geometry":{"type":"Point","coordinates":[13.3749259,52.5456065]}},{"type":"Feature","id":571190602,"properties":{"osmId":571190602,"osmType":"way","addr:city":"Berlin","addr:country":"DE","addr:housenumber":"60","addr:postcode":"12355","addr:street":"Alt-Rudow","addr:suburb":"Rudow","amenity":"arts_centre","building":"yes","check_date":"2023-08-21","heritage":"4","heritage:operator":"lda","lda:criteria":"Baudenkmal","name":"Alte Dorfschule Rudow","old_name":"Alte Schule","ref:lda":"09090318","website":"https://alte.dorfschule-rudow.de/"},"geometry":{"type":"Point","coordinates":[13.4954769,52.4175855]}},{"type":"Feature","id":645006822,"properties":{"osmId":645006822,"osmType":"way","addr:city":"Berlin","addr:country":"DE","addr:housenumber":"35","addr:postcode":"13347","addr:street":"Gerichtstraße","addr:suburb":"Wedding","amenity":"arts_centre","check_date":"2024-05-23","contact:email":"info@silent-green.net","contact:phone":"+49 30 46067324","contact:website":"https://www.silent-green.net/","image":"https://www.silent-green.net/fileadmin/_processed_/2/d/csm_Pictoplasma_Festival_2019__silent_green_Diego_Castro_1920px_web3_f606cd941e.webp;https://tinyurl.com/silent-green-inside;https://tinyurl.com/silent-green-room","internet_access":"wlan","internet_access:fee":"no","internet_access:ssid":"silent green Guest","name":"silent green Kulturquartier","source":"survey","wheelchair":"yes"},"geometry":{"type":"Point","coordinates":[13.3662757,52.5456853]}},{"type":"Feature","id":789025173,"properties":{"osmId":789025173,"osmType":"way","addr:housenumber":"13","addr:street":"John-Sieg-Straße","amenity":"arts_centre","check_date":"2026-05-24","contact:website":"https://www.kulturring.berlin/","name":"Studio Bildende Kunst","operator":"Kulturring in Berlin e.V."},"geometry":{"type":"Point","coordinates":[13.4790501,52.5114791]}},{"type":"Feature","id":1000845161,"properties":{"osmId":1000845161,"osmType":"way","addr:city":"Berlin","addr:housenumber":"86","addr:postcode":"12051","addr:street":"Hermannstraße","amenity":"arts_centre","building":"commercial","building:levels":"4","changing_table":"yes","check_date":"2025-09-19","contact:email":"info@spore-initiative.org","contact:website":"https://spore-initiative.org/de/","email":"info@spore-initiative.org","fee":"no","name":"Spore-Haus","opening_hours":"Sa-Su 10:00-20:00","operator":"Spore Initiative","phone":"+49 30 200047220","short_name":"Spore","website":"https://spore-initiative.org/","wheelchair":"yes"},"geometry":{"type":"Point","coordinates":[13.4286573,52.4716227]}},{"type":"Feature","id":1065864180,"properties":{"osmId":1065864180,"osmType":"way","addr:city":"Berlin","addr:country":"DE","addr:housenumber":"10","addr:postcode":"10557","addr:street":"John-Foster-Dulles-Allee","addr:suburb":"Tiergarten","amenity":"arts_centre","building":"civic","building:levels":"2","check_date":"2026-04-04","contact:phone":"+49 30 39787175","contact:website":"https://www.hkw.de/","fee":"no","image":"https://photos.app.goo.gl/zFQZgAm3jEL4oWPd9","internet_access":"wlan","internet_access:fee":"no","loc_name":"schwangere Auster","name":"Haus der Kulturen der Welt","name:de":"Haus der Kulturen der Welt","name:en":"House of the Cultures of the World","name:he":"בית תרבויות העולם","name:it":"La casa delle culture del mondo","name:tr":"Dünya Kültürleri Evi","nickname":"Schwangere Auster","opening_hours":"We-Mo 11:00-19:00","short_name":"HKW","toilets:wheelchair":"yes","tourism":"museum","wheelchair":"yes","wikidata":"Q704933","wikipedia":"de:Haus der Kulturen der Welt"},"geometry":{"type":"Point","coordinates":[13.3648516,52.518739]}}]}