{"type":"FeatureCollection","features":[{"type":"Feature","id":259845846,"properties":{"osmId":259845846,"osmType":"node","addr:city":"Berlin","addr:country":"DE","addr:housenumber":"18","addr:postcode":"10961","addr:street":"Gneisenaustraße","addr:suburb":"Kreuzberg","amenity":"nightclub","name":"Junction-Bar","phone":"+49306946602","website":"https://www.junction-bar.de/","wheelchair":"no"},"geometry":{"type":"Point","coordinates":[13.3931533,52.4913696]}},{"type":"Feature","id":262818281,"properties":{"osmId":262818281,"osmType":"node","addr:city":"Berlin","addr:housenumber":"7","addr:postcode":"10178","addr:street":"Alexanderstraße","amenity":"nightclub","check_date":"2025-06-30","check_date:smoking":"2025-06-30","contact:website":"https://www.aseven.de","name":"ASeven Club","opening_hours":"Fr 23:30-06:00, Sa 19:00-06:00","smoking":"no","wheelchair":"limited"},"geometry":{"type":"Point","coordinates":[13.4164254,52.5232268]}},{"type":"Feature","id":304034426,"properties":{"osmId":304034426,"osmType":"node","addr:city":"Potsdam","addr:country":"DE","addr:housenumber":"123-135","addr:postcode":"14482","addr:street":"Großbeerenstraße","addr:suburb":"Babelsberg Süd","amenity":"nightclub","check_date:opening_hours":"2025-10-20","contact:facebook":"https://www.facebook.com/parkdeck.potsdam","contact:phone":"+49 331 280 2800","contact:website":"https://www.parkdeck-potsdam.de","name":"Parkdeck by Clärchen's","old_name":"Clärchen's Tanzcafé","opening_hours":"Fr,Sa 21:30+","operator:type":"business","smoking":"no","wheelchair":"yes"},"geometry":{"type":"Point","coordinates":[13.1089325,52.3857456]}},{"type":"Feature","id":339749949,"properties":{"osmId":339749949,"osmType":"node","addr:city":"Berlin","addr:country":"DE","addr:housenumber":"18","addr:postcode":"10245","addr:street":"Warschauer Platz","addr:suburb":"Friedrichshain","amenity":"nightclub","contact:email":"hallo@matrix-berlin.de","contact:phone":"+49 30 29369990","contact:website":"https://www.matrix-berlin.de/","level":"0","name":"Matrix","opening_hours":"Mo-Su 22:00-07:00","smoking":"isolated","toilets:wheelchair":"no","wheelchair":"limited","wikidata":"Q552863","wikimedia_commons":"Category:Matrix (club)","wikipedia":"en:Matrix (club)"},"geometry":{"type":"Point","coordinates":[13.4490212,52.5046782]}},{"type":"Feature","id":360111407,"properties":{"osmId":360111407,"osmType":"node","addr:city":"Berlin","addr:country":"DE","addr:housenumber":"7","addr:postcode":"10997","addr:street":"Cuvrystraße","addr:suburb":"Kreuzberg","amenity":"nightclub","check_date:opening_hours":"2025-01-20","contact:facebook":"https://www.facebook.com/lidoberlin/","contact:instagram":"lidoberlin","contact:phone":"+49 30 69566840","contact:website":"https://www.lido-berlin.de/","drink:club-mate":"yes","live_music":"yes","name":"Lido","opening_hours:signed":"no","smoking":"isolated","toilets:wheelchair":"yes","wheelchair":"yes","wheelchair:description":"Stufe am Haupteingang, Rampe vorhanden. Für das rolligerechte WC bitte vor Ort nach dem Schlüssel fragen.","wikidata":"Q100256393","wikimedia_commons":"Category:Lido (Berlin)"},"geometry":{"type":"Point","coordinates":[13.4450748,52.4992172]}},{"type":"Feature","id":373095675,"properties":{"osmId":373095675,"osmType":"node","addr:city":"Berlin","addr:housenumber":"46","addr:postcode":"13357","addr:street":"Hochstraße","amenity":"nightclub","check_date":"2026-05-31","name":"Humboldthain Club","opening_hours":"Tu 18:00-04:00, Th 19:00-04:00, Sa-Su 23:00-09:00","website":"https://www.humboldthain.com/","wheelchair":"no"},"geometry":{"type":"Point","coordinates":[13.3787124,52.5441625]}},{"type":"Feature","id":383210462,"properties":{"osmId":383210462,"osmType":"node","amenity":"nightclub","check_date":"2024-11-26","check_date:opening_hours":"2024-11-26","name":"Narva Lounge","opening_hours:signed":"no","wheelchair":"yes"},"geometry":{"type":"Point","coordinates":[13.4489112,52.5045582]}},{"type":"Feature","id":410135945,"properties":{"osmId":410135945,"osmType":"node","addr:postcode":"10999","amenity":"nightclub","check_date":"2025-11-05","name":"Wild at Heart","opening_hours":"\"When they host a concert, doors opens at 20h. Otherwise they are closed\"","website":"http://wildatheartberlin.de","wheelchair":"no"},"geometry":{"type":"Point","coordinates":[13.4310967,52.4974686]}},{"type":"Feature","id":429735547,"properties":{"osmId":429735547,"osmType":"node","addr:city":"Berlin","addr:country":"DE","addr:housenumber":"24","addr:postcode":"10117","addr:street":"Auguststraße","addr:suburb":"Mitte","amenity":"nightclub","check_date":"2024-08-17","contact:facebook":"https://www.facebook.com/claerchens.ballhaus/","contact:instagram":"https://www.instagram.com/claerchens_ballhaus","contact:phone":"+49 30 2829295","email":"info@claerchensball.haus","name":"Clärchens Ballhaus","opening_hours":"Tu-Fr 17:00-23:00; Sa-Su 14:00-23:00","smoking":"outside","toilets:wheelchair":"no","website":"https://www.claerchensball.haus/","wheelchair":"no","wikidata":"Q1103846","wikimedia_commons":"Category:Clärchens Ballhaus","wikipedia":"de:Clärchens Ballhaus"},"geometry":{"type":"Point","coordinates":[13.39691,52.5264743]}},{"type":"Feature","id":438437327,"properties":{"osmId":438437327,"osmType":"node","addr:city":"Schulzendorf","addr:housenumber":"73","addr:postcode":"15732","addr:street":"August-Bebel-Straße","amenity":"nightclub","name":"Butze (Kultur Klub Schulzendorf)","website":"https://www.kultur-klub-online.de/","wheelchair":"yes"},"geometry":{"type":"Point","coordinates":[13.5941103,52.3670251]}},{"type":"Feature","id":485354535,"properties":{"osmId":485354535,"osmType":"node","amenity":"nightclub","name":"Glashaus"},"geometry":{"type":"Point","coordinates":[13.4530728,52.4973833]}},{"type":"Feature","id":485640732,"properties":{"osmId":485640732,"osmType":"node","addr:city":"Berlin","addr:country":"DE","addr:housenumber":"70","addr:postcode":"10245","addr:street":"Alt-Stralau","addr:suburb":"Friedrichshain","amenity":"nightclub","check_date:currency:XBT":"2024-04-19","check_date:opening_hours":"2025-10-14","contact:fax":"+49 30 25041427","contact:instagram":"https://www.instagram.com/wilderenate","contact:phone":"+49 30 25041426","contact:ra":"https://ra.co/clubs/8556","contact:website":"https://www.renate.cc","currency:XBT":"no","drink:club-mate":"served","loc_name":"Renate","name":"Zur Wilden Renate","name:en":"Wilde Renate","old_name":"Salon zur Wilden Renate","opening_hours:description":"\"At night. since 23.00h till early in the morning.\"","opening_hours:signed":"no","operator":"Zur Wilden Renate oHG","outdoor_seating":"yes","payment:credit_cards":"yes","payment:debit_cards":"yes","payment:lightning":"no","payment:lightning_contactless":"no","payment:onchain":"no","smoking":"yes","start_date":"2007-09","wheelchair":"no","wikidata":"Q21036513","wikipedia":"de:Wilde Renate"},"geometry":{"type":"Point","coordinates":[13.4653065,52.4973901]}},{"type":"Feature","id":492849637,"properties":{"osmId":492849637,"osmType":"node","addr:city":"Berlin","addr:country":"DE","addr:housenumber":"99","addr:postcode":"10245","addr:street":"Revaler Straße","addr:suburb":"Friedrichshain","amenity":"nightclub","check_date":"2026-03-23","contact:website":"http://www.raw-tempel.de/","name":"RAW 99","wheelchair":"limited"},"geometry":{"type":"Point","coordinates":[13.454537,52.5076615]}},{"type":"Feature","id":621429565,"properties":{"osmId":621429565,"osmType":"node","addr:city":"Berlin","addr:country":"DE","addr:housenumber":"32","addr:postcode":"10245","addr:street":"Simon-Dach-Straße","addr:suburb":"Friedrichshain","amenity":"nightclub","check_date:opening_hours":"2025-03-10","email":"bar@berndhain.com","name":"Berndhain","opening_hours":"Tu-Sa 18:00+, Su 14:00+","opening_hours:signed":"no","phone":"+49 170 5447356","website":"https://berndhain.com/"},"geometry":{"type":"Point","coordinates":[13.4560428,52.5091003]}},{"type":"Feature","id":652884290,"properties":{"osmId":652884290,"osmType":"node","addr:city":"Berlin","addr:country":"DE","addr:housenumber":"21","addr:postcode":"10119","addr:street":"Veteranenstraße","addr:suburb":"Mitte","amenity":"nightclub","contact:phone":"+49 30 83030144","name":"Calabash"},"geometry":{"type":"Point","coordinates":[13.4007592,52.5336193]}},{"type":"Feature","id":667842214,"properties":{"osmId":667842214,"osmType":"node","addr:city":"Berlin","addr:country":"DE","addr:housenumber":"76","addr:postcode":"10179","addr:street":"Köpenicker Straße","addr:suburb":"Mitte","amenity":"nightclub","contact:facebook":"https://www.facebook.com/RockatSageBerlin/","contact:instagram":"https://www.instagram.com/rockatsage/","name":"Sage","note":"subsidiary of KitKat","smoking":"no","toilets:wheelchair":"yes","website":"https://www.sage-club.de/","wheelchair":"yes","wikidata":"Q2211685","wikipedia":"de:Sage Club"},"geometry":{"type":"Point","coordinates":[13.4169088,52.5110197]}},{"type":"Feature","id":670069373,"properties":{"osmId":670069373,"osmType":"node","addr:city":"Berlin","addr:country":"DE","addr:housenumber":"5","addr:postcode":"10119","addr:street":"Zionskirchstraße","addr:suburb":"Mitte","amenity":"nightclub","check_date":"2023-06-04","contact:phone":"+49 179 4261189","contact:website":"http://www.neueberlinerinitiative.de","name":"NBI Club","opening_hours":"Mo-Su 20:00+","wheelchair":"no"},"geometry":{"type":"Point","coordinates":[13.401179,52.53567]}},{"type":"Feature","id":729294555,"properties":{"osmId":729294555,"osmType":"node","addr:city":"Berlin","addr:country":"DE","addr:housenumber":"76","addr:postcode":"10179","addr:street":"Köpenicker Straße","addr:suburb":"Mitte","alt_name":"KitKat Club;KitKatClub","amenity":"nightclub","contact:instagram":"kitkatclub.official","contact:phone":"+49 30 7871896","contact:website":"http://www.kitkatclub.org","kinky":"yes","live_music":"yes","name":"Kit Kat Club","smoking":"yes","toilets:wheelchair":"yes","wheelchair":"limited","wikidata":"Q322135","wikimedia_commons":"Category:KitKatClub","wikipedia":"de:KitKatClub"},"geometry":{"type":"Point","coordinates":[13.4169157,52.5112074]}},{"type":"Feature","id":736787851,"properties":{"osmId":736787851,"osmType":"node","access":"customers","addr:city":"Berlin","addr:country":"DE","addr:housenumber":"41","addr:postcode":"10178","addr:street":"Rosa-Luxemburg-Straße","addr:suburb":"Mitte","amenity":"nightclub","entrance":"yes","name":"1820","opening_hours":"Mo-Su 19:00-00:00","phone":"+493081453960","smoking":"yes","website":"https://www.belushis.com/bars/berlin","wheelchair":"no"},"geometry":{"type":"Point","coordinates":[13.4107036,52.526786]}},{"type":"Feature","id":739305494,"properties":{"osmId":739305494,"osmType":"node","addr:city":"Berlin","addr:country":"DE","addr:housenumber":"17","addr:postcode":"12099","addr:street":"Alt-Tempelhof","addr:suburb":"Tempelhof","amenity":"nightclub","brothel:swingerclub":"events","description":"Erotic Nightclub","email":"dominique@insomnia-berlin.de","fax":"+49 30 51654143","kinky":"yes","min_age":"18","mobile":"+49 177 2333878","name":"Insomnia","opening_hours":"Tu 19:00-02:00, We 20:00-02:00, Th 14:00-24:00; Fr-Sa 22:00+, Su 19:00-02:00","operator":"Insomnia GbR","phone":"+49 30 51654143","website":"https://www.insomnia-berlin.de/","wikidata":"Q1285955","wikipedia":"de:Insomnia (Club)"},"geometry":{"type":"Point","coordinates":[13.3860876,52.4655581]}},{"type":"Feature","id":821646254,"properties":{"osmId":821646254,"osmType":"node","addr:city":"Berlin","addr:country":"DE","addr:postcode":"10243","addr:street":"Karl-Marx-Allee","addr:suburb":"Friedrichshain","amenity":"nightclub","check_date:opening_hours":"2026-05-24","name":"Abgedreht Klub","opening_hours":"Su-Th 17:00-02:00, Fr,Sa 17:00-04:00"},"geometry":{"type":"Point","coordinates":[13.452579,52.5156316]}},{"type":"Feature","id":898983650,"properties":{"osmId":898983650,"osmType":"node","addr:city":"Berlin","addr:country":"DE","addr:housenumber":"133/134","addr:postcode":"10711","addr:street":"Kurfürstendamm","addr:suburb":"Halensee","amenity":"nightclub","contact:website":"http://night-lounge.net/","name":"K133 Night Lounge","wheelchair":"no"},"geometry":{"type":"Point","coordinates":[13.2932442,52.4972653]}},{"type":"Feature","id":910429971,"properties":{"osmId":910429971,"osmType":"node","addr:city":"Berlin","addr:country":"DE","addr:housenumber":"102","addr:postcode":"10115","addr:street":"Chausseestraße","addr:suburb":"Mitte","amenity":"nightclub","email":"info@ballhaus-berlin.de","facebook":"https://www.facebook.com/ballhaus.berlin","image":"https://media04.berliner-woche.de/event/2016/05/18/6/16526_XXL.png","instagram":"https://www.instagram.com/ballhausberlin/","name":"Ballhaus Berlin","opening_hours":"Mo-Sa 15:00-04:00, Su 15:00-01:00","operator":"Ballhaus Berlin GmbH","phone":"+49 30 2827575","start_date":"1905","website":"https://www.ballhaus-berlin.de/","wheelchair":"yes","wikimedia_commons":"File:Ballhaus Berlin Chausseestraße.jpg"},"geometry":{"type":"Point","coordinates":[13.380294,52.5320796]}},{"type":"Feature","id":918183904,"properties":{"osmId":918183904,"osmType":"node","addr:city":"Berlin","addr:country":"DE","addr:housenumber":"8","addr:postcode":"10117","addr:street":"Rosmarinstraße","addr:suburb":"Mitte","amenity":"nightclub","contact:phone":"+49 30 544 69663","name":"Club R8","smoking":"no","website":"http://www.clubr8.com/","wheelchair":"limited"},"geometry":{"type":"Point","coordinates":[13.3899473,52.5161783]}},{"type":"Feature","id":959625062,"properties":{"osmId":959625062,"osmType":"node","addr:city":"Berlin","addr:housenumber":"30","addr:postcode":"10827","addr:street":"Hauptstraße","alt_name":"Havanna Club","amenity":"nightclub","contact:phone":"+49 30 78899655","contact:website":"https://www.havanna-berlin.de/","name":"Havanna","opening_hours":"We 20:00+; Fr-Sa 22:00+","start_date":"1997","wheelchair":"yes"},"geometry":{"type":"Point","coordinates":[13.3534485,52.4852704]}},{"type":"Feature","id":975700421,"properties":{"osmId":975700421,"osmType":"node","addr:city":"Berlin","addr:country":"DE","addr:housenumber":"107-113","addr:postcode":"10967","addr:street":"Hasenheide","addr:suburb":"Neukölln","amenity":"nightclub","check_date":"2026-03-25","contact:phone":"+49 30 78099810","contact:website":"https://huxleysneuewelt.com/","name":"Huxleys Neue Welt","opening_hours":"\"Je nach Veranstaltung\"","toilets:wheelchair":"yes","wheelchair":"yes"},"geometry":{"type":"Point","coordinates":[13.4217418,52.4864896]}},{"type":"Feature","id":979969868,"properties":{"osmId":979969868,"osmType":"node","addr:city":"Berlin","addr:country":"DE","addr:housenumber":"26","addr:postcode":"10969","addr:street":"Ritterstraße","addr:suburb":"Kreuzberg","amenity":"nightclub","check_date":"2025-08-26","check_date:opening_hours":"2025-08-21","check_date:smoking":"2025-07-01","contact:email":"info@ritter-butzke.de","contact:facebook":"https://facebook.com/ritterbutzkeberlin/events","contact:fax":"+49 30 213007811","contact:instagram":"https://www.instagram.com/ritterbutzke.berlin","contact:ra":"https://ra.co/clubs/6950","contact:website":"https://club.ritterbutzke.com","image":"https://www.theclubmap.com/wp-content/uploads/2021/09/ritter-butzke-club-berlin-7.jpg","name":"Ritter Butzke","opening_hours":"\"siehe Website\"","operator":"Ritter Butzke Production GmbH","payment:cash":"yes","payment:credit_cards":"yes","payment:debit_cards":"yes","short_name":"Butzke","smoking":"no","start_date":"2009-10","toilets:wheelchair":"yes","wheelchair":"yes","wheelchair:description":"WC war gerade kaputt, ansonsten im EG alles ok erreichbar","wikidata":"Q21036533","wikipedia":"de:Ritter Butzke"},"geometry":{"type":"Point","coordinates":[13.4081361,52.5030121]}},{"type":"Feature","id":988192687,"properties":{"osmId":988192687,"osmType":"node","amenity":"nightclub","name":"Silverwings","opening_hours":"\"Programm auf Facebook\"","website":"https://silverwings.de/","wheelchair":"no","wheelchair:description":"Befindet sich im 1. Stock. Achtung: Ignoriert das Nichtraucherschutzgesetz."},"geometry":{"type":"Point","coordinates":[13.390553,52.4835867]}},{"type":"Feature","id":1144034120,"properties":{"osmId":1144034120,"osmType":"node","addr:city":"Berlin","addr:country":"DE","addr:housenumber":"2","addr:postcode":"10178","addr:street":"Am Zwirngraben","addr:suburb":"Mitte","amenity":"nightclub","check_date":"2025-06-30","check_date:smoking":"2025-06-30","contact:facebook":"amtopmberlin","contact:phone":"+49 30 24085301","email":"Cloudamtopm@gmail.com","internet_access":"wlan","name":"AM to PM","opening_hours":"zurzeit geschlossen","smoking":"no","toilets:wheelchair":"no","url":"https://am-to-pm.metro.bar/","wheelchair":"no"},"geometry":{"type":"Point","coordinates":[13.4034635,52.5229379]}},{"type":"Feature","id":1145853246,"properties":{"osmId":1145853246,"osmType":"node","addr:city":"Berlin","addr:country":"DE","addr:housenumber":"11","addr:postcode":"10178","addr:street":"Karl-Liebknecht-Straße","addr:suburb":"Mitte","amenity":"nightclub","contact:phone":"+49302828593","music_genre":"schlager","name":"Hafenbar","name:ja":"ハーフェンバー","opening_hours":"Fr-Sa 21:00-05:00","website":"https://www.hafenbar-berlin.de/","wheelchair":"no"},"geometry":{"type":"Point","coordinates":[13.4075481,52.5217615]}},{"type":"Feature","id":1162812586,"properties":{"osmId":1162812586,"osmType":"node","addr:city":"Berlin","addr:country":"DE","addr:housenumber":"7","addr:postcode":"10178","addr:street":"Alexanderstraße","addr:suburb":"Mitte","amenity":"nightclub","check_date":"2025-06-30","check_date:smoking":"2025-06-30","contact:phone":"+49 30 24631676","contact:website":"http://www.week-end-berlin.de/","name":"Weekend Club","name:ja":"ウィークエンド・クラブ","opening_hours":"Fr,Tu 22:00-06:00, Sa 19:00-06:00","smoking":"no","wheelchair":"limited"},"geometry":{"type":"Point","coordinates":[13.4164231,52.5229029]}},{"type":"Feature","id":1165008486,"properties":{"osmId":1165008486,"osmType":"node","addr:city":"Berlin","addr:country":"DE","addr:housenumber":"97","addr:postcode":"10435","addr:street":"Knaackstraße","addr:suburb":"Prenzlauer Berg","amenity":"nightclub","check_date":"2023-11-10","internet_access":"no","level":"1","name":"Soda Club","opening_hours":"Th,Su 19:00-26:00; Fr-Sa 22:00-30:00","payment:cash":"yes","payment:credit_cards":"yes","payment:debit_cards":"yes","payment:free":"yes","website":"https://www.soda-berlin.de/","wheelchair":"limited"},"geometry":{"type":"Point","coordinates":[13.4142448,52.5395232]}},{"type":"Feature","id":1228317932,"properties":{"osmId":1228317932,"osmType":"node","addr:city":"Berlin","addr:country":"DE","addr:housenumber":"90","addr:postcode":"10627","addr:street":"Bismarckstraße","addr:suburb":"Charlottenburg","amenity":"nightclub","check_date":"2024-03-03","contact:phone":"+49 172 3858879","contact:website":"https://www.tabuclub.de/","level":"0","name":"Tabu","wheelchair":"limited"},"geometry":{"type":"Point","coordinates":[13.3084909,52.5114893]}},{"type":"Feature","id":1310466406,"properties":{"osmId":1310466406,"osmType":"node","addr:city":"Berlin","addr:housenumber":"30","addr:postcode":"10117","addr:street":"Anton-Wilhelm-Amo-Straße","amenity":"nightclub","name":"BRICKS Club","operator":"BRICKS Gastronomie GmbH","smoking":"no","website":"https://bricks-berlin.club","wheelchair":"yes"},"geometry":{"type":"Point","coordinates":[13.3932376,52.5121321]}},{"type":"Feature","id":1361259244,"properties":{"osmId":1361259244,"osmType":"node","addr:city":"Berlin","addr:country":"DE","addr:housenumber":"18","addr:postcode":"10245","addr:street":"Warschauer Platz","addr:suburb":"Friedrichshain","amenity":"nightclub","check_date":"2023-11-03","contact:facebook":"https://www.facebook.com/diebuscheberlin","contact:instagram":"https://www.instagram.com/discothek_die_busche/","contact:website":"http://www.diebusche.de","email":"mail@diebusche.de","lgbtq":"primary","name":"Die Busche","opening_hours":"We 23:00-05:00,Fr 22:00-07:00,Sa 22:00-07:00","phone":"+49 30 2960800","toilets:wheelchair":"yes","wheelchair":"limited"},"geometry":{"type":"Point","coordinates":[13.448261,52.503615]}},{"type":"Feature","id":1370001597,"properties":{"osmId":1370001597,"osmType":"node","addr:city":"Berlin","addr:housenumber":"85f","addr:postcode":"10969","addr:street":"Prinzenstraße","amenity":"nightclub","contact:email":"info@princecharlesberlin.com","contact:website":"https://www.princecharlesberlin.com/","image":"https://groove.de/wp-content/uploads/2019/05/prince-charles-final.jpg","name":"Prince Charles","smoking":"yes","wheelchair":"yes"},"geometry":{"type":"Point","coordinates":[13.4087274,52.5032996]}},{"type":"Feature","id":1402543376,"properties":{"osmId":1402543376,"osmType":"node","addr:city":"Berlin","addr:country":"DE","addr:housename":"Europa-Center","addr:housenumber":"9-12","addr:postcode":"10789","addr:street":"Tauentzienstraße","addr:suburb":"Charlottenburg","amenity":"nightclub","contact:website":"http://www.puroberlin.de/","level":"20","name":"Puro Sky Lounge Berlin"},"geometry":{"type":"Point","coordinates":[13.3379413,52.5040556]}},{"type":"Feature","id":1450635676,"properties":{"osmId":1450635676,"osmType":"node","addr:city":"Berlin","addr:country":"DE","addr:housenumber":"1","addr:postcode":"10178","addr:street":"Rosa-Luxemburg-Platz","addr:suburb":"Mitte","amenity":"nightclub","check_date":"2024-06-10","name":"Roter Salon","opening_hours":"Mo-Sa 11:00-18:00","operator":"Volksbühne am Rosa-Luxemburg-Platz","wheelchair":"no"},"geometry":{"type":"Point","coordinates":[13.4116224,52.5271131]}},{"type":"Feature","id":1667559178,"properties":{"osmId":1667559178,"osmType":"node","amenity":"nightclub","leisure":"music_venue","name":"Bi Nuu","toilets:wheelchair":"yes","website":"http://www.bi-nuu.de/","wheelchair":"yes"},"geometry":{"type":"Point","coordinates":[13.4414613,52.5007558]}},{"type":"Feature","id":1820069776,"properties":{"osmId":1820069776,"osmType":"node","addr:city":"Berlin","addr:country":"DE","addr:housenumber":"40","addr:postcode":"10178","addr:street":"Dircksenstraße","addr:suburb":"Mitte","amenity":"nightclub","contact:email":"mail@b-flat-berlin.de","contact:phone":"+49 30 2833123","contact:website":"http://b-flat-berlin.de/","level":"-1","live_music":"yes","name":"b-flat","opening_hours":"Mo-Su 20:00-01:00","outdoor_seating":"no","payment:cash":"yes","payment:credit_cards":"no","payment:debit_cards":"no","smoking":"no","wheelchair":"no"},"geometry":{"type":"Point","coordinates":[13.4069893,52.5235538]}},{"type":"Feature","id":1882869375,"properties":{"osmId":1882869375,"osmType":"node","addr:city":"Berlin","addr:country":"DE","addr:housenumber":"33","addr:postcode":"10777","addr:street":"Fuggerstraße","addr:suburb":"Schöneberg","amenity":"nightclub","contact:email":"info@connection-berlin.de","contact:fax":"+49 30 2177686","contact:phone":"+49 30 2181432","contact:website":"http://www.connection-berlin.de","cruising":"yes","lgbtq":"primary","lgbtq:cruising":"yes","lgbtq:men":"only","name":"Connection","opening_hours":"Mo-Th 10:00-01:00, Fr-Sa 10:00-05:00, Su 14:00-01:00","operator":"Michael Sonntag, Michael Klatt","wheelchair":"limited"},"geometry":{"type":"Point","coordinates":[13.3424928,52.4990172]}},{"type":"Feature","id":1897123562,"properties":{"osmId":1897123562,"osmType":"node","addr:housenumber":"5","addr:street":"Pfuelstraße","amenity":"nightclub","contact:facebook":"fluxbau","contact:instagram":"FluxBau","email":"fluxbau@fluxfm.de","name":"FluxBau","phone":"+4917643562611","toilets:wheelchair":"no","website":"https://www.fluxfm.de/fluxbau/","wheelchair":"no"},"geometry":{"type":"Point","coordinates":[13.4411582,52.5029678]}},{"type":"Feature","id":1934211315,"properties":{"osmId":1934211315,"osmType":"node","addr:city":"Berlin","addr:country":"DE","addr:housenumber":"77","addr:postcode":"10623","addr:street":"Knesebeckstraße","addr:suburb":"Charlottenburg","amenity":"nightclub","name":"Vagabund Club","opening_hours":"00:00+","opening_hours:signed":"no","website":"https://www.vagabund-berlin.com/","wheelchair":"limited"},"geometry":{"type":"Point","coordinates":[13.3224146,52.504062]}},{"type":"Feature","id":1941952571,"properties":{"osmId":1941952571,"osmType":"node","addr:city":"Berlin","addr:country":"DE","addr:housenumber":"114","addr:postcode":"10999","addr:street":"Skalitzer Straße","addr:suburb":"Kreuzberg","amenity":"nightclub","check_date:opening_hours":"2026-03-01","contact:email":"mail@bulbulberlin.de","contact:facebook":"https://www.facebook.com/BulbulBerlin/","contact:phone":"+49 30 53091711","name":"Bulbul Berlin","opening_hours:signed":"no","website":"https://www.bulbulberlin.de/"},"geometry":{"type":"Point","coordinates":[13.4242521,52.4993312]}},{"type":"Feature","id":1954332576,"properties":{"osmId":1954332576,"osmType":"node","addr:city":"Berlin","addr:country":"DE","addr:housenumber":"35","addr:postcode":"10557","addr:street":"Lehrter Straße","addr:suburb":"Moabit","amenity":"nightclub","contact:phone":"+49 30 3975056","email":"info@slaughterhouse-berlin.de","name":"Slaughterhouse","toilets:wheelchair":"yes","website":"https://www.slaughterhouse-berlin.de/","wheelchair":"limited"},"geometry":{"type":"Point","coordinates":[13.3597082,52.5344022]}},{"type":"Feature","id":2126202628,"properties":{"osmId":2126202628,"osmType":"node","addr:city":"Berlin","addr:country":"DE","addr:housenumber":"74","addr:postcode":"13347","addr:street":"Reinickendorfer Straße","addr:suburb":"Wedding","amenity":"nightclub","check_date:opening_hours":"2023-11-17","contact:phone":"+49 157 79 13 79 14","name":"Orchidea","opening_hours:signed":"no","wheelchair":"no","wheelchair:description":"eine Rollstuhlrampe wird auf Anfrage ausgelegt"},"geometry":{"type":"Point","coordinates":[13.3672515,52.551145]}},{"type":"Feature","id":2147941967,"properties":{"osmId":2147941967,"osmType":"node","addr:city":"Berlin","addr:country":"DE","addr:housenumber":"85-86","addr:postcode":"10997","addr:street":"Skalitzer Straße","addr:suburb":"Kreuzberg","amenity":"nightclub","contact:facebook":"https://www.facebook.com/privatclub","contact:instagram":"https://www.instagram.com/privatclub_berlin/","contact:website":"http://www.privatclub-berlin.de","email":"info@privatclub-berlin.de","leisure":"music_venue","name":"Privatclub","opening_hours:office":"Mo-Fr 11:00-16:00","opening_hours:signed":"no","operator":"Milchmädchen Musikkultur GmbH","phone":"+49 30 35522598","toilets:wheelchair":"yes","wheelchair":"yes","wheelchair:description":"Es gibt zwar eine rollstuhlgerechte Toilette, aber auch Treppen am Eingang. Man kann wohl hinten rum über einen Lastenaufzug...","wikidata":"Q105762300"},"geometry":{"type":"Point","coordinates":[13.4348491,52.5000715]}},{"type":"Feature","id":2147953685,"properties":{"osmId":2147953685,"osmType":"node","amenity":"nightclub","name":"Metrom Lounge"},"geometry":{"type":"Point","coordinates":[13.4474984,52.5029659]}},{"type":"Feature","id":2188253833,"properties":{"osmId":2188253833,"osmType":"node","addr:city":"Berlin","addr:housenumber":"25","addr:postcode":"10719","addr:street":"Joachimsthaler Straße","amenity":"nightclub","name":"The Door","unused:amenity":"nightclub","website":"https://thedoor.club/","wheelchair":"limited"},"geometry":{"type":"Point","coordinates":[13.3311044,52.5008789]}},{"type":"Feature","id":2347398754,"properties":{"osmId":2347398754,"osmType":"node","addr:city":"Berlin","addr:country":"DE","addr:housenumber":"15","addr:postcode":"10719","addr:street":"Joachimsthaler Straße","addr:suburb":"Charlottenburg","amenity":"nightclub","contact:whatsapp":"+49 176 32289595","email":"kontakt@maxxim-berlin.de","name":"Maxxim Club","opening_hours":"22:30+; Tu 19:00+","phone":"+49 30 41766240","website":"https://www.maxxim-berlin.de/","wheelchair":"no"},"geometry":{"type":"Point","coordinates":[13.3308361,52.5019061]}},{"type":"Feature","id":2381034158,"properties":{"osmId":2381034158,"osmType":"node","amenity":"nightclub","check_date":"2025-05-03","name":"Reset","opening_hours":"\"abhängig von Veranstaltungen\"","toilets:wheelchair":"no","wheelchair":"no"},"geometry":{"type":"Point","coordinates":[13.4351165,52.4961326]}},{"type":"Feature","id":2435092394,"properties":{"osmId":2435092394,"osmType":"node","addr:city":"Berlin","addr:country":"DE","addr:housenumber":"146","addr:postcode":"12051","addr:street":"Hermannstraße","addr:suburb":"Neukölln","alt_name":"Hole Berlin","alt_name_1":"Hole 44","amenity":"nightclub","contact:instagram":"holeberlin","level":"0","live_music":"yes","name":"Hole⁴⁴","opening_hours":"\"zu Veranstaltungen\"","website":"https://hole-berlin.de/","wheelchair":"yes","wikidata":"Q130601665"},"geometry":{"type":"Point","coordinates":[13.4333842,52.4643506]}},{"type":"Feature","id":2665268971,"properties":{"osmId":2665268971,"osmType":"node","amenity":"nightclub","contact:facebook":"https://www.facebook.com/auster.berlin/","name":"Auster-Club","opening_hours":"Mo-Su 12:00-18:00+","smoking":"isolated","wheelchair":"no"},"geometry":{"type":"Point","coordinates":[13.4311437,52.502437]}},{"type":"Feature","id":2876098523,"properties":{"osmId":2876098523,"osmType":"node","addr:city":"Berlin","addr:country":"DE","addr:housenumber":"70","addr:postcode":"10179","addr:street":"Köpenicker Straße","addr:suburb":"Mitte","amenity":"nightclub","contact:facebook":"https://www.facebook.com/shiftberlin","contact:instagram":"https://www.instagram.com/ohmberlin/","name":"Ohm","smoking":"no","website":"https://ohmberlin.com/"},"geometry":{"type":"Point","coordinates":[13.4197888,52.5105954]}},{"type":"Feature","id":2968181705,"properties":{"osmId":2968181705,"osmType":"node","addr:city":"Berlin","addr:country":"DE","addr:housenumber":"25","addr:postcode":"10243","addr:street":"Holzmarktstraße","addr:suburb":"Friedrichshain","amenity":"nightclub","entrance":"main","name":"Nachtclub"},"geometry":{"type":"Point","coordinates":[13.4247322,52.5126865]}},{"type":"Feature","id":2969388491,"properties":{"osmId":2969388491,"osmType":"node","addr:city":"Berlin","addr:country":"DE","addr:housenumber":"23","addr:postcode":"14055","addr:street":"Messedamm","addr:suburb":"Westend","amenity":"nightclub","name":"C115","source":"Geoportal Berlin / Hauskoordinaten"},"geometry":{"type":"Point","coordinates":[13.2735015,52.4996264]}},{"type":"Feature","id":3121055734,"properties":{"osmId":3121055734,"osmType":"node","addr:city":"Berlin","addr:country":"DE","addr:housenumber":"32","addr:postcode":"10117","addr:street":"Tucholskystraße","addr:suburb":"Mitte","amenity":"nightclub","name":"Flow Bar","opening_hours":"Su,Mo,Tu off, We,Th 21:00-05:00, Fr,Sa 21:00-06:00","smoking":"no","toilets:wheelchair":"no","wheelchair":"no"},"geometry":{"type":"Point","coordinates":[13.393681,52.5261173]}},{"type":"Feature","id":3298592393,"properties":{"osmId":3298592393,"osmType":"node","amenity":"nightclub","name":"Konzulát","opening_hours:signed":"no","smoking":"no"},"geometry":{"type":"Point","coordinates":[13.3961493,52.5112236]}},{"type":"Feature","id":3469247893,"properties":{"osmId":3469247893,"osmType":"node","addr:city":"Berlin","addr:country":"DE","addr:housenumber":"97","addr:postcode":"10435","addr:street":"Knaackstraße","addr:suburb":"Prenzlauer Berg","amenity":"nightclub","contact:phone":"+49 30 44341952","mapillary":"458394502129423","name":"Alte Kantine","opening_hours":"Mo 22:00-06:00; Th 22:00-05:00; Fr 19:00-06:00; Sa 20:00-06:30","smoking":"isolated","toilets:wheelchair":"yes","website":"https://alte-kantine.eu","wheelchair":"limited"},"geometry":{"type":"Point","coordinates":[13.4136676,52.5395329]}},{"type":"Feature","id":3610779779,"properties":{"osmId":3610779779,"osmType":"node","addr:city":"Berlin","addr:country":"DE","addr:housenumber":"5","addr:postcode":"10365","addr:street":"Wiesenweg","addr:suburb":"Lichtenberg","amenity":"nightclub","contact:website":"http://www.void-club.de/","name":"Void"},"geometry":{"type":"Point","coordinates":[13.4758087,52.5075429]}},{"type":"Feature","id":3777579770,"properties":{"osmId":3777579770,"osmType":"node","amenity":"nightclub","check_date":"2023-07-23","name":"Top Disco Berlin","opening_hours":"Fr,Sa 22:00+","phone":"+49 30 720 15 430","toilets:wheelchair":"yes","website":"http://topdisco-berlin.de/home/","wheelchair":"yes"},"geometry":{"type":"Point","coordinates":[13.4833923,52.4260543]}},{"type":"Feature","id":3783242657,"properties":{"osmId":3783242657,"osmType":"node","addr:city":"Berlin","addr:country":"DE","addr:housenumber":"123-124","addr:postcode":"10178","addr:street":"Dircksenstraße","addr:suburb":"Mitte","amenity":"nightclub","name":"M-BIA","opening_hours":"We 23:00-07:00; Fr-Sa 23:00-09:00","smoking":"no"},"geometry":{"type":"Point","coordinates":[13.4092273,52.5226319]}},{"type":"Feature","id":3783290025,"properties":{"osmId":3783290025,"osmType":"node","addr:city":"Berlin","addr:country":"DE","addr:housenumber":"21","addr:postcode":"10119","addr:street":"Veteranenstraße","addr:suburb":"Mitte","amenity":"nightclub","name":"ACUD","wheelchair":"limited"},"geometry":{"type":"Point","coordinates":[13.4008094,52.5335177]}},{"type":"Feature","id":3783307323,"properties":{"osmId":3783307323,"osmType":"node","addr:city":"Berlin","addr:housenumber":"142c","addr:postcode":"13439","addr:street":"Wilhelmsruher Damm","addr:suburb":"Märkisches Viertel","amenity":"nightclub","name":"American Western Saloon","toilets:wheelchair":"yes","wheelchair":"limited"},"geometry":{"type":"Point","coordinates":[13.3526876,52.5975687]}},{"type":"Feature","id":3826455881,"properties":{"osmId":3826455881,"osmType":"node","addr:city":"Berlin","addr:country":"DE","addr:housenumber":"7","addr:postcode":"10777","addr:street":"Kalckreuthstraße","addr:suburb":"Schöneberg","amenity":"nightclub","check_date:opening_hours":"2024-02-19","min_age":"18","name":"Pussy Cat","opening_hours":"Mo-Su 18:00-06:00","phone":"+49 30 2133586","smoking":"yes","website":"http://www.pussycat-berlin.de","wheelchair":"no"},"geometry":{"type":"Point","coordinates":[13.3479726,52.4987104]}},{"type":"Feature","id":3830239588,"properties":{"osmId":3830239588,"osmType":"node","addr:city":"Berlin","addr:housenumber":"9","addr:postcode":"10785","addr:street":"Lützowplatz","amenity":"nightclub","name":"Trompete","opening_hours":"Th 19:00+; Sa 21:00+","website":"https://trompete-berlin.de/","wheelchair":"no"},"geometry":{"type":"Point","coordinates":[13.3534385,52.5044307]}},{"type":"Feature","id":4034138645,"properties":{"osmId":4034138645,"osmType":"node","addr:city":"Berlin","addr:country":"DE","addr:floor":"0","addr:housename":"SO36","addr:housenumber":"190","addr:postcode":"10999","addr:street":"Oranienstraße","addr:suburb":"Kreuzberg","air_conditioning":"yes","amenity":"nightclub","check_date":"2024-09-01","contact:email":"post@so36.de","contact:facebook":"https://www.facebook.com/pages/_/171604075171","contact:instagram":"so36_club","contact:phone":"+49 30 61401306","contact:qype":"https://www.qype.com/place/3091","contact:website":"https://www.so36.de","contact:yelp":"https://www.yelp.com/biz/so36-berlin","description":"concert collective;concert venue;events","identity":"solidarity_economy","level":"0","live_music":"yes","name":"SO36","opening_hours":"\"Je nach Programm\"","payment:cash":"yes","payment:credit_cards":"yes","payment:debit_cards":"yes","payment:mastercard":"yes","payment:visa":"yes","provides":"culture;spaces","smoking":"isolated","source":"Solikon 2015;survey","toilets:wheelchair":"yes","wheelchair":"yes","wheelchair:description":"Rampe am Eingang wird auf Nachfrage hingelegt;Drinnen: Rollstuh auf ein Podest heben zum Konzert schauen","wikidata":"Q561850","wikimedia_commons":"Category:SO36","wikipedia":"de:SO36"},"geometry":{"type":"Point","coordinates":[13.4221612,52.5003909]}},{"type":"Feature","id":4118217590,"properties":{"osmId":4118217590,"osmType":"node","addr:city":"Berlin","addr:housenumber":"14","addr:postcode":"12347","addr:street":"Jahnstraße","amenity":"nightclub","name":"Stella Berlin","opening_hours":"Mo-Fr 09:00-21:00; Sa-Su 11:00-20:00","phone":"+49 30 61740855","website":"https://stella-berlin.de/"},"geometry":{"type":"Point","coordinates":[13.4442907,52.4613006]}},{"type":"Feature","id":4217156190,"properties":{"osmId":4217156190,"osmType":"node","addr:city":"Berlin","addr:country":"DE","addr:housenumber":"31","addr:postcode":"10179","addr:street":"Schillingstraße","addr:suburb":"Mitte","amenity":"nightclub","contact:email":"info@beate-uwe.de","contact:facebook":"https://www.facebook.com/beateuweberlin/events","contact:instagram":"https://www.instagram.com/beateuwe_official","contact:ra":"https://ra.co/clubs/98993","contact:website":"https://beate-uwe.de","min_age":"18","name":"Beate Uwe","operator":"Javid und Ücel GbR","smoking":"no","start_date":"2014-12","toilets:wheelchair":"no","wheelchair":"yes"},"geometry":{"type":"Point","coordinates":[13.419024,52.5174812]}},{"type":"Feature","id":4236204189,"properties":{"osmId":4236204189,"osmType":"node","addr:housenumber":"5","addr:place":"Richard-Wagner-Platz","addr:postcode":"10585","amenity":"nightclub","email":"info@misalsa.de","name":"MiSalsa","opening_hours":"Fr-Sa 22:00-05:00","operator":"Humberto Castillo","phone":"+493034540769","website":"https://misalsa.de","wheelchair":"no"},"geometry":{"type":"Point","coordinates":[13.305791,52.5172277]}},{"type":"Feature","id":4283150545,"properties":{"osmId":4283150545,"osmType":"node","addr:city":"Berlin","addr:housenumber":"27","addr:postcode":"10999","addr:street":"Mariannenstraße","amenity":"nightclub","name":"Cake Club"},"geometry":{"type":"Point","coordinates":[13.4204665,52.4966876]}},{"type":"Feature","id":4458466133,"properties":{"osmId":4458466133,"osmType":"node","addr:city":"Berlin","addr:housenumber":"12","addr:postcode":"13051","addr:street":"Prerower Platz","amenity":"nightclub","name":"KISS Lounge"},"geometry":{"type":"Point","coordinates":[13.5048839,52.564751]}},{"type":"Feature","id":4574958092,"properties":{"osmId":4574958092,"osmType":"node","amenity":"nightclub","name":"Vitrin","wheelchair":"yes"},"geometry":{"type":"Point","coordinates":[13.327462,52.5046309]}},{"type":"Feature","id":4784529624,"properties":{"osmId":4784529624,"osmType":"node","addr:housenumber":"144","addr:postcode":"10115","addr:street":"Linienstraße","amenity":"nightclub","name":"Geheimclub (Annika von Trier)","smoking":"no","website":"https://annika-von-trier.com/geheimclub/"},"geometry":{"type":"Point","coordinates":[13.3908678,52.5267961]}},{"type":"Feature","id":4870128450,"properties":{"osmId":4870128450,"osmType":"node","addr:city":"Berlin","addr:country":"DE","addr:housenumber":"70","addr:postcode":"10179","addr:street":"Köpenicker Straße","addr:suburb":"Mitte","amenity":"nightclub","contact:facebook":"http://www.facebook.com/tresorberlin","contact:instagram":"https://www.instagram.com/tresorberlin","contact:phone":"+49 30 6953770","contact:ra":"https://ra.co/clubs/5494","contact:website":"https://tresorberlin.com","live_music":"yes","name":"Tresor Berlin","operator":"Tresor Berlin GmbH","smoking":"no","start_date":"2007","toilets:wheelchair":"yes","wheelchair":"yes","wikidata":"Q678186","wikipedia":"de:Tresor (Club)"},"geometry":{"type":"Point","coordinates":[13.419484,52.5106807]}},{"type":"Feature","id":4894544353,"properties":{"osmId":4894544353,"osmType":"node","addr:city":"Berlin","addr:country":"DE","addr:housenumber":"261","addr:postcode":"12351","addr:street":"Johannisthaler Chaussee","addr:suburb":"Buckow","amenity":"nightclub","contact:website":"http://blackwhite-danceclub.de/","facebook":"https://www.facebook.com/people/BLACK-WHITE-DANCE-CLUB/100049051157624/","fixme":"Website ist down, die Betreibergesellschaft insolvent, existiert der Club noch?","name":"BlackWhite Danceclub","opening_hours":"Fr 22:00+, Sa 21:00+","wheelchair":"no"},"geometry":{"type":"Point","coordinates":[13.4615989,52.4322129]}},{"type":"Feature","id":5155961321,"properties":{"osmId":5155961321,"osmType":"node","addr:postcode":"10245","amenity":"nightclub","check_date":"2026-03-23","contact:facebook":"DerWeisseHaseBerlin","name":"Der Weiße Hase","name:en":"The White Rabbit","name:es":"Conejo Blanco","phone":"+49 174 1976833"},"geometry":{"type":"Point","coordinates":[13.4545322,52.5075831]}},{"type":"Feature","id":5244438075,"properties":{"osmId":5244438075,"osmType":"node","addr:city":"Berlin","addr:housenumber":"11","addr:postcode":"12057","addr:street":"Ziegrastraße","amenity":"nightclub","name":"Internet Explorer"},"geometry":{"type":"Point","coordinates":[13.4598687,52.4764177]}},{"type":"Feature","id":5247942730,"properties":{"osmId":5247942730,"osmType":"node","amenity":"nightclub","entrance":"main","name":"Kater Blau"},"geometry":{"type":"Point","coordinates":[13.4260899,52.5119933]}},{"type":"Feature","id":5349358027,"properties":{"osmId":5349358027,"osmType":"node","amenity":"nightclub","check_date":"2025-11-05","description":"Kunstbar","name":"Zur Klappe","smoking":"no","wheelchair":"no"},"geometry":{"type":"Point","coordinates":[13.3871533,52.4930462]}},{"type":"Feature","id":5873234785,"properties":{"osmId":5873234785,"osmType":"node","addr:city":"Berlin","addr:country":"DE","addr:housenumber":"99","addr:postcode":"10245","addr:street":"Revaler Straße","addr:suburb":"Friedrichshain","amenity":"nightclub","delivery":"no","name":"Tabula Rasa","old_name":"Khwan","outdoor_seating":"yes","payment:cash":"only","smoking":"outside","takeaway":"no"},"geometry":{"type":"Point","coordinates":[13.4556606,52.5074123]}},{"type":"Feature","id":5906879511,"properties":{"osmId":5906879511,"osmType":"node","addr:city":"Berlin","addr:country":"DE","addr:housenumber":"24c","addr:postcode":"10245","addr:street":"Markgrafendamm","addr:suburb":"Friedrichshain","amenity":"nightclub","check_date":"2026-02-15","contact:email":"info@aboutblank.li;lost@aboutblank.li","contact:facebook":"https://www.facebook.com/about.party/events","contact:instagram":"https://www.instagram.com/about.blank.berlin","contact:phone":"+49 30 69536290","contact:ra":"https://ra.co/clubs/28354","contact:website":"https://aboutblank.li","description":"ATM inside","internet_access":"no","min_age":"18","name":"://about blank","opening_hours":"\"je nach Veranstaltung\"","operator":"about blank eG","payment:cards":"no","payment:cash":"yes","payment:credit_cards":"no","payment:debit_cards":"no","short_name":"blank","smoking":"yes","start_date":"2010","toilets:wheelchair":"yes","wheelchair":"yes","wikidata":"Q23906461","wikimedia_commons":"File:Techno-Club About Blank Markgrafendamm Berlin.jpg","wikipedia":"de:About Blank"},"geometry":{"type":"Point","coordinates":[13.466302,52.5024767]}},{"type":"Feature","id":6032392904,"properties":{"osmId":6032392904,"osmType":"node","amenity":"nightclub","karaoke":"yes","name":"KTV Bar"},"geometry":{"type":"Point","coordinates":[13.3099366,52.5063423]}},{"type":"Feature","id":6192377288,"properties":{"osmId":6192377288,"osmType":"node","addr:city":"Berlin","addr:country":"DE","addr:housenumber":"18","addr:postcode":"10245","addr:street":"Warschauer Platz","addr:suburb":"Friedrichshain","amenity":"nightclub","check_date":"2025-09-13","contact:email":"info@club-ava-berlin.de","contact:facebook":"https://www.facebook.com/ElektroAva/","contact:website":"http://www.club-ava-berlin.de/","name":"Ava Club"},"geometry":{"type":"Point","coordinates":[13.4473091,52.5029373]}},{"type":"Feature","id":6252070333,"properties":{"osmId":6252070333,"osmType":"node","addr:city":"Berlin","addr:housenumber":"83","addr:postcode":"10719","addr:street":"Pfalzburger Straße","amenity":"nightclub","check_date":"2024-07-27","name":"al2 eventlocation berlin","opening_hours":"\"nach Vereinbarung\"","operator":"Alexander Schulzendorff","phone":"+49 30 88917960","website":"https://al2-eventlocation.de"},"geometry":{"type":"Point","coordinates":[13.3230448,52.4989003]}},{"type":"Feature","id":6341225967,"properties":{"osmId":6341225967,"osmType":"node","addr:city":"Berlin","addr:country":"DE","addr:postcode":"10243","addr:street":"Am Wriezener Bahnhof","addr:suburb":"Friedrichshain","alt_name":"Berghain Panorama Bar","amenity":"nightclub","contact:facebook":"https://www.facebook.com/BerghainPanoramaBarOfficial","contact:instagram":"https://www.instagram.com/berghain_panoramabar","contact:phone":"+49 30 29351830","contact:ra":"https://ra.co/clubs/5031","contact:website":"https://www.berghain.de","live_music":"yes","name":"Berghain","nohousenumber":"yes","operator":"Berghain OstGut GmbH","smoking":"yes","toilets:wheelchair":"yes","wheelchair":"yes","wheelchair:description":"keine Stufen, alles mit Rampen und Fahrstühlen zu erreichen, lediglich die Rampen im Garten lassen sich nur mit guter Armfunktion bewältigen, WCs sind mit Haltegriffen ausgestattet, aber nicht vollständig behindertengerecht","wikidata":"Q136975","wikipedia":"de:Berghain"},"geometry":{"type":"Point","coordinates":[13.4430356,52.5111669]}},{"type":"Feature","id":6381619922,"properties":{"osmId":6381619922,"osmType":"node","addr:city":"Berlin","addr:housenumber":"23A","addr:postcode":"10405","addr:street":"Greifswalder Straße","amenity":"nightclub","check_date":"2024-06-16","contact:facebook":"https://www.facebook.com/Musikbrauerei","name":"Musikbrauerei","opening_hours":"Mo-Su 10:00-20:15"},"geometry":{"type":"Point","coordinates":[13.4286665,52.5306542]}},{"type":"Feature","id":6441603779,"properties":{"osmId":6441603779,"osmType":"node","addr:city":"Berlin","addr:country":"DE","addr:housenumber":"134","addr:postcode":"10625","addr:street":"Kantstraße","addr:suburb":"Charlottenburg","amenity":"nightclub","contact:website":"http://www.newwestclub.de/","name":"New West Club","opening_hours:signed":"no","wheelchair":"limited"},"geometry":{"type":"Point","coordinates":[13.3153141,52.5060456]}},{"type":"Feature","id":6482231157,"properties":{"osmId":6482231157,"osmType":"node","addr:city":"Berlin","addr:country":"DE","addr:housenumber":"197-198","addr:postcode":"10119","addr:street":"Brunnenstraße","addr:suburb":"Mitte","amenity":"nightclub","check_date":"2025-07-02","check_date:smoking":"2025-07-02","contact:phone":"+49 30 27590873","contact:website":"https://www.cosmic-kaspar.de/","description":"rentable","name":"Cosmic Kaspar","operator":"Mein Haus am See GmbH","smoking":"no"},"geometry":{"type":"Point","coordinates":[13.4006925,52.5299774]}},{"type":"Feature","id":6573680438,"properties":{"osmId":6573680438,"osmType":"node","addr:city":"Berlin","addr:country":"DE","addr:housenumber":"5","addr:postcode":"13597","addr:street":"Dorfstraße","addr:suburb":"Spandau","amenity":"nightclub","contact:website":"https://ballhaus-spandau.club/","name":"Ballhaus Spandau","opening_hours:signed":"no","wikidata":"Q805252","wikimedia_commons":"Category:Ballhaus Spandau","wikipedia":"de:Ballhaus Spandau"},"geometry":{"type":"Point","coordinates":[13.2107129,52.5227525]}},{"type":"Feature","id":7230925407,"properties":{"osmId":7230925407,"osmType":"node","amenity":"nightclub","name":"Mokka Mitte Bar","opening_hours":"Mo-Th 16:00-23:00; Fr 14:00-23:30; Sa 13:00-23:30; Su 12:30-22:00","phone":"+493084710709","smoking":"no","website":"https://www.mokkamitte.de/"},"geometry":{"type":"Point","coordinates":[13.398307,52.5222381]}},{"type":"Feature","id":8069721818,"properties":{"osmId":8069721818,"osmType":"node","addr:city":"Berlin","addr:country":"DE","addr:housenumber":"1-2","addr:postcode":"10245","addr:street":"Alt-Stralau","addr:suburb":"Friedrichshain","alt_name":"Club OST","amenity":"nightclub","contact:facebook":"https://www.facebook.com/club.ost/","contact:instagram":"https://www.instagram.com/club.ost/","name":"OST","phone":"+49 30 29369990","website":"https://clubost.de/"},"geometry":{"type":"Point","coordinates":[13.4650321,52.4970681]}},{"type":"Feature","id":9216819283,"properties":{"osmId":9216819283,"osmType":"node","addr:city":"Berlin","addr:country":"DE","addr:housenumber":"137","addr:postcode":"12439","addr:street":"Schnellerstraße","addr:suburb":"Niederschöneweide","amenity":"nightclub","contact:website":"https://reviersuedost.de/","name":"Revier Südost","wheelchair":"limited"},"geometry":{"type":"Point","coordinates":[13.5052662,52.4599968]}},{"type":"Feature","id":9271890630,"properties":{"osmId":9271890630,"osmType":"node","addr:city":"Berlin","addr:housenumber":"12","addr:postcode":"13507","addr:street":"Alt-Tegel","amenity":"nightclub","check_date":"2026-05-11","check_date:opening_hours":"2023-04-02","min_age":"18","name":"Entenkeller 2.0","opening_hours":"Fr-Su 20:00-06:00","opening_hours:signed":"no","phone":"+4917648285617","smoking":"outside","wheelchair":"no"},"geometry":{"type":"Point","coordinates":[13.2809654,52.5893493]}},{"type":"Feature","id":9272743117,"properties":{"osmId":9272743117,"osmType":"node","addr:housenumber":"1","addr:postcode":"10179","addr:street":"Brückenstraße","amenity":"nightclub","check_date":"2025-06-30","check_date:smoking":"2025-06-30","name":"Melancholie 2","opening_hours":"Su 16:00-04:00; Fr-Sa 23:00-10:00","smoking":"no"},"geometry":{"type":"Point","coordinates":[13.416812,52.5111747]}},{"type":"Feature","id":9662447417,"properties":{"osmId":9662447417,"osmType":"node","addr:housenumber":"53B","addr:postcode":"10365","addr:street":"Herzbergstraße","amenity":"nightclub","name":"Velvet Monkey"},"geometry":{"type":"Point","coordinates":[13.4976566,52.5248136]}},{"type":"Feature","id":9683590917,"properties":{"osmId":9683590917,"osmType":"node","addr:city":"Berlin","addr:country":"DE","addr:housenumber":"1","addr:postcode":"13353","addr:street":"Seestraße","addr:suburb":"Charlottenburg-Nord","amenity":"nightclub","name":"Heideglühen","opening_hours":"Sa 00:00-24:00; Su 00:00-06:00","wheelchair":"limited"},"geometry":{"type":"Point","coordinates":[13.3279584,52.5381993]}},{"type":"Feature","id":9806828894,"properties":{"osmId":9806828894,"osmType":"node","addr:city":"Berlin","addr:country":"DE","addr:housenumber":"78-80","addr:postcode":"10243","addr:street":"Mühlenstraße","addr:suburb":"Friedrichshain","amenity":"nightclub","contact:email":"info@piratesberlin.com","contact:phone":"+49 30 97002414","contact:website":"https://piratesberlin.com/club/","name":"Pirates Club","operator":"Spreewies'n GmbH & Co. Beach Betriebsgesellschaft KG","wheelchair":"limited"},"geometry":{"type":"Point","coordinates":[13.4453492,52.5027268]}},{"type":"Feature","id":9830787917,"properties":{"osmId":9830787917,"osmType":"node","amenity":"nightclub","check_date":"2024-11-02","name":"MONOM","smoking":"outside","website":"https://www.monomsound.com/"},"geometry":{"type":"Point","coordinates":[13.4997366,52.4792421]}},{"type":"Feature","id":9895178218,"properties":{"osmId":9895178218,"osmType":"node","addr:city":"Berlin","addr:country":"DE","addr:housenumber":"16","addr:postcode":"10997","addr:street":"Köpenicker Straße","addr:suburb":"Kreuzberg","amenity":"nightclub","contact:facebook":"https://www.facebook.com/spindlerklattberlin","contact:instagram":"https://www.instagram.com/spindlerklatt/","contact:website":"https://spindlerklatt.com/","name":"spindler & klatt","wikidata":"Q116142643"},"geometry":{"type":"Point","coordinates":[13.4346441,52.5058678]}},{"type":"Feature","id":10621062970,"properties":{"osmId":10621062970,"osmType":"node","addr:city":"Berlin","addr:housenumber":"15—18","addr:postcode":"10179","addr:street":"Holzmarktstraße","amenity":"nightclub","contact:facebook":"Fitzroy.Berlin","contact:instagram":"fitzroyclub","description":"2nd address: S-Bahn Bogen 46","email":"club@fitzroy-berlin.de","image":"https://i.imgur.com/zRbEgb0.jpeg","mapillary":"371476558518986","name":"Fitzroy","website":"https://fitzroy-berlin.de"},"geometry":{"type":"Point","coordinates":[13.4228651,52.5130757]}},{"type":"Feature","id":10672763641,"properties":{"osmId":10672763641,"osmType":"node","amenity":"nightclub","name":"The Hub"},"geometry":{"type":"Point","coordinates":[13.2965109,52.4752767]}},{"type":"Feature","id":11066768896,"properties":{"osmId":11066768896,"osmType":"node","addr:city":"Berlin","addr:country":"DE","addr:housenumber":"1","addr:postcode":"12057","addr:street":"Ziegrastraße","amenity":"nightclub","contact:email":"info@s27.de","contact:website":"https://falscherfisch.net/","disused:amenity":"restaurant","disused:name":"Marin","name":"Falscher Fisch"},"geometry":{"type":"Point","coordinates":[13.4594974,52.4775471]}},{"type":"Feature","id":11435535669,"properties":{"osmId":11435535669,"osmType":"node","amenity":"nightclub","name:en":"Menagerie"},"geometry":{"type":"Point","coordinates":[13.3540571,52.5509569]}},{"type":"Feature","id":11472992147,"properties":{"osmId":11472992147,"osmType":"node","amenity":"nightclub","name":"Nachspiel - Afterhour @KitKat Club Berlin","smoking":"no"},"geometry":{"type":"Point","coordinates":[13.4173531,52.5115871]}},{"type":"Feature","id":12137704154,"properties":{"osmId":12137704154,"osmType":"node","addr:city":"Berlin","addr:housenumber":"30-35","addr:postcode":"10969","addr:street":"Lobeckstraße","amenity":"nightclub","name":"Kreuzwerk","smoking":"no","website":"https://kreuzwerk.berlin/"},"geometry":{"type":"Point","coordinates":[13.407825,52.5030057]}},{"type":"Feature","id":12290743501,"properties":{"osmId":12290743501,"osmType":"node","amenity":"nightclub","name":"Sin City Tabledance"},"geometry":{"type":"Point","coordinates":[13.3045469,52.5057271]}},{"type":"Feature","id":12301286133,"properties":{"osmId":12301286133,"osmType":"node","addr:housenumber":"87","addr:street":"Leibnizstraße","amenity":"nightclub","charge:conditional":"no @ (female; couple)","contact:email":"info@moechtegern.com","fee":"yes","name":"Frivole Bar moechtegern","nudism":"yes","opening_hours":"Mo-Su 20:00-04:00","operator":"Ingo Kaatz","phone":"+49 1525 8521471","website":"https://moechtegern.com/"},"geometry":{"type":"Point","coordinates":[13.3142158,52.5099265]}},{"type":"Feature","id":12372968542,"properties":{"osmId":12372968542,"osmType":"node","amenity":"nightclub","check_date":"2025-11-28","name":"808","website":"https://808.berlin/"},"geometry":{"type":"Point","coordinates":[13.3380226,52.5055769]}},{"type":"Feature","id":12942103605,"properties":{"osmId":12942103605,"osmType":"node","amenity":"nightclub","check_date":"2025-06-21","name":"Arena Club"},"geometry":{"type":"Point","coordinates":[13.4529279,52.4971313]}},{"type":"Feature","id":13235448541,"properties":{"osmId":13235448541,"osmType":"node","amenity":"nightclub","contact:website":"https://brickhouse-berlin.com/","live_music":"yes","name":"Brickhouse Berlin"},"geometry":{"type":"Point","coordinates":[13.443135,52.5502159]}},{"type":"Feature","id":13634936301,"properties":{"osmId":13634936301,"osmType":"node","amenity":"nightclub","name":"Prisma"},"geometry":{"type":"Point","coordinates":[13.4167079,52.5111653]}},{"type":"Feature","id":13764256101,"properties":{"osmId":13764256101,"osmType":"node","addr:housenumber":"133","addr:postcode":"10999","addr:street":"Skalitzer Straße","amenity":"nightclub","check_date":"2026-04-26","level":"2","name":"West Germany"},"geometry":{"type":"Point","coordinates":[13.4197674,52.4994522]}},{"type":"Feature","id":13809680201,"properties":{"osmId":13809680201,"osmType":"node","addr:housenumber":"3","addr:street":"Sangerhauser Weg","amenity":"nightclub","check_date":"2026-05-08","name":"Blue Velvet"},"geometry":{"type":"Point","coordinates":[13.4121199,52.4311705]}},{"type":"Feature","id":23278633,"properties":{"osmId":23278633,"osmType":"way","amenity":"nightclub","building":"yes","name":"Roadrunners Rock & Motor Club","phone":"+49 30 78082991","website":"http://www.roadrunners-paradise.de","wheelchair":"limited"},"geometry":{"type":"Point","coordinates":[13.4123176,52.5296992]}},{"type":"Feature","id":24248500,"properties":{"osmId":24248500,"osmType":"way","amenity":"nightclub","building":"residential","building:levels":"1","email":"info@werk9.de","name":"Werk9","opening_hours:signed":"no","phone":"+49 30 20165823","roof:shape":"flat","smoking":"no","toilets:wheelchair":"yes","website":"https://www.werk9.de/","wheelchair":"limited","wheelchair:description":"Haben für den Eingang eine Rampe, die muss bei Bedarf hingelegt werden. Eine behindertengerechte Toilette ist vorhanden."},"geometry":{"type":"Point","coordinates":[13.394355,52.5091224]}},{"type":"Feature","id":24283864,"properties":{"osmId":24283864,"osmType":"way","addr:city":"Berlin","addr:country":"DE","addr:housenumber":"26","addr:postcode":"10247","addr:street":"Colbestraße","addr:suburb":"Friedrichshain","amenity":"nightclub","building":"commercial","building:levels":"1","name":"Pride Warehouse","wheelchair":"limited"},"geometry":{"type":"Point","coordinates":[13.4632854,52.5123096]}},{"type":"Feature","id":36908987,"properties":{"osmId":36908987,"osmType":"way","addr:city":"Berlin","addr:country":"DE","addr:housenumber":"19-21","addr:postcode":"10963","addr:street":"Obentrautstraße","amenity":"nightclub","building":"industrial","building:levels":"1","contact:facebook":"https://www.facebook.com/gretchen.club/","contact:instagram":"https://www.instagram.com/clubgretchen/","contact:phone":"+49 30 25922702","contact:twitter":"https://twitter.com/clubGRETCHEN/","contact:website":"https://www.gretchen-club.de/","email":"gretchen@gretchen-club.de","name":"Gretchen","opening_hours":"\"Je nach Veranstaltung\"","roof:colour":"#74817e","roof:levels":"0","roof:shape":"gabled","smoking":"isolated","toilets:wheelchair":"yes","wheelchair":"yes"},"geometry":{"type":"Point","coordinates":[13.3875425,52.4960412]}},{"type":"Feature","id":41474936,"properties":{"osmId":41474936,"osmType":"way","addr:city":"Berlin","addr:country":"DE","addr:housenumber":"64","addr:postcode":"10439","addr:street":"Dunckerstraße","addr:suburb":"Prenzlauer Berg","alt_name":"Dunckerclub","amenity":"nightclub","building":"school","building:colour":"#b47876","building:levels":"1","building:material":"brick","check_date":"2025-01-26","check_date:opening_hours":"2025-01-26","contact:facebook":"https://www.facebook.com/dunckerclub","contact:instagram":"https://www.instagram.com/dunckerclub/","contact:phone":"+49 30 4459509","contact:website":"https://www.dunckerclub.de/","image":"https://www.dunckerclub.de/bilder/duncker_aussen.jpg","name":"Duncker","opening_hours":"Mo 22:00-04:00; Fr-Sa 22:00-05:00; Su 12:00-19:00","opening_hours:signed":"no","roof:colour":"#3b3d46","roof:levels":"1","roof:shape":"hipped","start_date":"1989","toilets:wheelchair":"no","wheelchair":"yes","year_of_construction":"1913..1914"},"geometry":{"type":"Point","coordinates":[13.4237143,52.546199]}},{"type":"Feature","id":42163697,"properties":{"osmId":42163697,"osmType":"way","addr:city":"Berlin","addr:country":"DE","addr:housenumber":"3","addr:postcode":"10243","addr:street":"An der Schillingbrücke","addr:suburb":"Friedrichshain","amenity":"nightclub","building":"yes","contact:facebook":"https://www.facebook.com/YAAM.Berlin","contact:instagram":"https://www.instagram.com/yaam_berlin/","contact:mobile":"+49 176 10051189","contact:website":"https://www.yaam.de/","name":"yaam","opening_hours":"Mo-Su 11:00-24:00","operator":"KULT. Verein für Jugendkultur e.V.","wheelchair":"limited"},"geometry":{"type":"Point","coordinates":[13.4306684,52.5091814]}},{"type":"Feature","id":45001954,"properties":{"osmId":45001954,"osmType":"way","addr:housenumber":"99","addr:postcode":"10245","addr:street":"Revaler Straße","amenity":"nightclub","building":"commercial","building:levels":"1","contact:instagram":"lokschuppenberlin","email":"contact@lokschuppen-berlin.com","name":"Lokschuppen","previously":"Suicide Circus","smoking":"yes","website":"https://www.lokschuppen-berlin.com/","wheelchair":"limited"},"geometry":{"type":"Point","coordinates":[13.451077,52.5071753]}},{"type":"Feature","id":45001955,"properties":{"osmId":45001955,"osmType":"way","addr:city":"Berlin","addr:country":"DE","addr:housenumber":"99","addr:postcode":"10245","addr:street":"Revaler Straße","addr:suburb":"Friedrichshain","amenity":"nightclub","building":"commercial","building:levels":"1","contact:email":"info@astra-berlin.de","contact:facebook":"http://www.facebook.com/astraberlin","contact:fax":"+49 30 69566842","contact:instagram":"astraberlin","contact:phone":"+49 30 20056767","contact:website":"https://www.astra-berlin.de/","drink:club-mate":"yes","leisure":"music_venue","live_music":"yes","name":"Astra Kulturhaus","opening_hours":"\"irregular events\"","operator":"Kreuzberg Musik Produktion GmbH","operator:type":"business","owner":"Kreuzberg Musik Produktion GmbH","smoking":"isolated","toilets:wheelchair":"yes","wheelchair":"yes","wheelchair:description":"Tribüne rollstuhlgerecht bei Konzerten","wikidata":"Q105762275","wikimedia_commons":"Category:Astra Kulturhaus"},"geometry":{"type":"Point","coordinates":[13.4518161,52.5073283]}},{"type":"Feature","id":72984386,"properties":{"osmId":72984386,"osmType":"way","amenity":"nightclub","building":"viaduct","check_date:opening_hours":"2025-10-08","layer":"2","min_age":"18","name":"Golden Gate","opening_hours:signed":"no","roof:colour":"#414141","roof:shape":"flat","short_name":"Gate","smoking":"yes","toilets:wheelchair":"no","website":"https://www.goldengate-berlin.de/","wheelchair":"limited","wikidata":"Q21036515"},"geometry":{"type":"Point","coordinates":[13.4169278,52.5159809]}},{"type":"Feature","id":108243893,"properties":{"osmId":108243893,"osmType":"way","addr:city":"Berlin","addr:country":"DE","addr:housenumber":"23","addr:postcode":"13086","addr:street":"Langhansstraße","addr:suburb":"Weißensee","amenity":"nightclub","building":"commercial","name":"OC23","opening_hours":"Mo-Th 13:00-20:00; Su 12:00-18:00","phone":"+49 30 92092120","source":"Geoportal Berlin / Hauskoordinaten","website":"https://kinderring-berlin.de/oc23/"},"geometry":{"type":"Point","coordinates":[13.4450572,52.5506635]}},{"type":"Feature","id":118327391,"properties":{"osmId":118327391,"osmType":"way","amenity":"nightclub","building":"boat","building:levels":"2","layer":"1","name":"MS Hoppetosse","seamark:hulk:category":"casino_boat","seamark:type":"hulk","wheelchair":"no"},"geometry":{"type":"Point","coordinates":[13.4547311,52.4975264]}},{"type":"Feature","id":119172796,"properties":{"osmId":119172796,"osmType":"way","addr:city":"Berlin","addr:country":"DE","addr:housenumber":"23","addr:postcode":"13347","addr:street":"Gerichtstraße","addr:suburb":"Gesundbrunnen","amenity":"nightclub","name":"Panke","toilets:wheelchair":"no","website":"https://www.pankeculture.com/"},"geometry":{"type":"Point","coordinates":[13.37422,52.545002]}},{"type":"Feature","id":123019464,"properties":{"osmId":123019464,"osmType":"way","addr:city":"Berlin","addr:country":"DE","addr:housenumber":"99","addr:postcode":"10245","addr:street":"Revaler Straße","addr:suburb":"Friedrichshain","amenity":"nightclub","building":"yes","contact:email":"info@badehaus-berlin.com","contact:facebook":"https://www.facebook.com/Badehaus.Berlin","contact:instagram":"https://www.instagram.com/badehaus_berlin/","contact:phone":"+49 30 25933042","contact:website":"http://www.badehaus-berlin.com/","name":"Badehaus","operator":"Badehaus Musik GmbH","toilets:wheelchair":"yes","wheelchair":"limited","wheelchair:description":"enge Toilette"},"geometry":{"type":"Point","coordinates":[13.4551503,52.507579]}},{"type":"Feature","id":123750257,"properties":{"osmId":123750257,"osmType":"way","amenity":"nightclub","building":"residential","building:levels":"3","name":"Prägewerk","smoking":"yes"},"geometry":{"type":"Point","coordinates":[13.4086773,52.515303]}},{"type":"Feature","id":136852555,"properties":{"osmId":136852555,"osmType":"way","addr:city":"Berlin","addr:country":"DE","addr:housename":"Bogen 47","addr:housenumber":"15—18","addr:place":"Stadtbahnbogen","addr:postcode":"10179","addr:street":"Holzmarktstraße","addr:suburb":"Mitte","amenity":"nightclub","building:levels":"1","building:part":"yes","contact:facebook":"lark.berlin","contact:instagram":"lark.berlin","email":"club@larkberlin.com","layer":"1","name":"LARK","toilets:wheelchair":"no","website":"https://larkberlin.com/","wheelchair":"yes"},"geometry":{"type":"Point","coordinates":[13.4227766,52.5130237]}},{"type":"Feature","id":136852556,"properties":{"osmId":136852556,"osmType":"way","addr:city":"Berlin","addr:country":"DE","addr:housename":"Bogen 49","addr:housenumber":"49","addr:place":"Stadtbahnbogen","addr:postcode":"10179","addr:suburb":"Mitte","amenity":"nightclub","building:levels":"1","building:part":"yes","layer":"1","name":"Hangar 49","website":"https://hangar49.de/","wheelchair":"yes"},"geometry":{"type":"Point","coordinates":[13.422358,52.5131937]}},{"type":"Feature","id":148829988,"properties":{"osmId":148829988,"osmType":"way","addr:city":"Berlin","addr:country":"DE","addr:housenumber":"15","addr:postcode":"10317","addr:street":"Hauptstraße","addr:suburb":"Rummelsburg","amenity":"nightclub","contact:facebook":"https://www.facebook.com/sisyface","contact:instagram":"https://www.instagram.com/sisyphosberlin","contact:ra":"https://ra.co/clubs/17118","contact:website":"http://www.sisyphos-berlin.net","culture":"open_air","min_age":"18","name":"Sisyphos","name:etymology:wikidata":"Q102561","name:etymology:wikipedia":"de:Sisyphos","open_air":"yes","opening_hours":"Mar-Dec: Sa,Su,PH 00:00-24:00","operator":"Sisyphos Event GmbH","short_name":"Sisy","smoking":"separated","start_date":"2009","toilets:wheelchair":"yes","wheelchair":"yes","wikidata":"Q21036516","wikimedia_commons":"File:Sisyphos Nightclub Berlin.jpg","wikipedia":"de:Sisyphos (Berlin)"},"geometry":{"type":"Point","coordinates":[13.4918731,52.4933409]}},{"type":"Feature","id":167777311,"properties":{"osmId":167777311,"osmType":"way","amenity":"nightclub","building":"yes","leisure":"cultural_institution","name":"Jugendschiff \"ReMiLi\"","opening_hours":"Mo-Fr 14:00-20:00","website":"https://remili.de/","wheelchair":"no","wikidata":"Q112861701","wikimedia_commons":"Category:Remili (ship, 1906)"},"geometry":{"type":"Point","coordinates":[13.5175062,52.4580084]}},{"type":"Feature","id":232536532,"properties":{"osmId":232536532,"osmType":"way","addr:city":"Berlin","addr:country":"DE","addr:housenumber":"10","addr:postcode":"12435","addr:street":"An den Treptowers","addr:suburb":"Alt-Treptow","amenity":"nightclub","check_date":"2023-05-23","contact:website":"http://else.tv/","name":"Else","opening_hours":"Tu-Sa 16:00+","wheelchair":"no"},"geometry":{"type":"Point","coordinates":[13.4627988,52.4952235]}},{"type":"Feature","id":277805717,"properties":{"osmId":277805717,"osmType":"way","addr:city":"Berlin","addr:floor":"0","addr:housenumber":"2","addr:postcode":"12435","addr:street":"Am Flutgraben","amenity":"nightclub","bar":"yes","check_date":"2024-08-28","contact:facebook":"https://www.facebook.com/FestsaalKreuzberg/","contact:instagram":"https://www.instagram.com/festsaalkreuzberg/","level":"0","name":"Festsaal Kreuzberg","operator":"Neue Flutgraben Betriebsgesellschaft mbH & Co KG","payment:cash":"yes","payment:credit_cards":"yes","payment:debit_cards":"yes","payment:mastercard":"yes","payment:visa":"yes","phone":"+49 30 403655630","ref:vatin":"DE310804941","smoking":"outside","source":"survey","toilets":"yes","website":"https://www.festsaal-kreuzberg.de/","wheelchair":"yes","wheelchair:description":"Durchs Tor kann man ebenerdig, kein Rolli-WC","wikidata":"Q115794233","wikimedia_commons":"File:20230916 xl 1534-Festsaal Kreuzberg 2.jpg"},"geometry":{"type":"Point","coordinates":[13.4515579,52.4968252]}},{"type":"Feature","id":286165789,"properties":{"osmId":286165789,"osmType":"way","addr:city":"Berlin","addr:country":"DE","addr:postcode":"10243","addr:street":"Am Wriezener Bahnhof","addr:suburb":"Friedrichshain","amenity":"nightclub","building":"yes","check_date":"2023-11-03","contact:facebook":"https://www.facebook.com/KantineamBerghain/","email":"support@berghain.de","name":"Berghain Kantine","nohousenumber":"yes","operator":"Berghain OstGut GmbH","website":"https://www.berghain.berlin/de/program/kantine-am-berghain/","wheelchair":"limited"},"geometry":{"type":"Point","coordinates":[13.4424598,52.5115255]}},{"type":"Feature","id":291111616,"properties":{"osmId":291111616,"osmType":"way","addr:housenumber":"3","addr:postcode":"10997","addr:street":"Schleusenufer","amenity":"nightclub","check_date:opening_hours":"2026-02-28","name":"ÆDEN","opening_hours":"Tu 22:00-08:00; Th 22:00-08:00; Fr 22:00-10:00; Sa 18:00-10:00","opening_hours:signed":"no","website":"http://aedenberlin.com","wheelchair":"no"},"geometry":{"type":"Point","coordinates":[13.449516,52.4973058]}},{"type":"Feature","id":293386107,"properties":{"osmId":293386107,"osmType":"way","addr:city":"Berlin","addr:country":"DE","addr:housenumber":"25","addr:postcode":"10243","addr:street":"Holzmarktstraße","addr:suburb":"Friedrichshain","amenity":"nightclub","building":"yes","contact:email":"info@katerblau.de;hello@katerblau.de","contact:facebook":"https://www.facebook.com/katerblau/events","contact:instagram":"https://www.instagram.com/katerblaugram","contact:phone":"+49 30 47361686","contact:ra":"https://ra.co/clubs/99161","contact:website":"http://www.katerblau.de","name":"Kater Blau","operator":"Katerclub GmbH","smoking":"separated","start_date":"2014","toilets:wheelchair":"yes","wheelchair":"yes","wikidata":"Q2658747","wikipedia":"de:Kater Blau"},"geometry":{"type":"Point","coordinates":[13.425333,52.5119241]}},{"type":"Feature","id":342600129,"properties":{"osmId":342600129,"osmType":"way","addr:city":"Berlin","addr:country":"DE","addr:housenumber":"99","addr:postcode":"10245","addr:street":"Revaler Straße","addr:suburb":"Friedrichshain","amenity":"nightclub","club":"culture","contact:email":"info@maaya.de","contact:instagram":"https://www.instagram.com/maaya_berlin/","contact:phone":"+49 30 297766770","leisure":"music_venue","name":"Maaya","opening_hours":"Tu-Th,Su 12:00-22:00; Fr,Sa 12:00-23:00; ","operator":"Maaya Event GmbH","website":"https://maaya.de/"},"geometry":{"type":"Point","coordinates":[13.4527013,52.5072185]}},{"type":"Feature","id":355476495,"properties":{"osmId":355476495,"osmType":"way","addr:city":"Berlin","addr:country":"DE","addr:housenumber":"1-4","addr:postcode":"10365","addr:street":"Wiesenweg","addr:suburb":"Lichtenberg","amenity":"nightclub","contact:website":"https://oxi-garten.de/","name":"OXI Garten","wheelchair":"limited"},"geometry":{"type":"Point","coordinates":[13.474934,52.507592]}},{"type":"Feature","id":379305718,"properties":{"osmId":379305718,"osmType":"way","addr:city":"Berlin","addr:housenumber":"5","addr:postcode":"10777","addr:street":"Nollendorfplatz","amenity":"nightclub","brewery":"Krombacher;Starnberger","building":"yes","building:levels":"5","email":"info@metropol-berlin.de","name":"Metropol","official_name":"Metropol Berlin","opening_hours":"\"zu Veranstaltungen\"","phone":"+49 30 403678560","smoking":"separated","source_ref:url":"https://metropol-berlin.de/contact","toilets:wheelchair":"yes","website":"https://metropol-berlin.de","wheelchair":"yes","wikidata":"Q1724204","wikipedia":"de:Metropol (Berlin)"},"geometry":{"type":"Point","coordinates":[13.3527039,52.4989536]}},{"type":"Feature","id":684464913,"properties":{"osmId":684464913,"osmType":"way","addr:city":"Berlin","addr:country":"DE","addr:housenumber":"99","addr:postcode":"10245","addr:street":"Revaler Straße","addr:suburb":"Friedrichshain","amenity":"nightclub","building":"commercial","building:levels":"1","contact:instagram":"cassiopeia_berlin","contact:website":"https://cassiopeia-berlin.de/","live_music":"yes","name":"Cassiopeia","toilets:wheelchair":"yes","wheelchair":"limited","wikidata":"Q47163174","wikimedia_commons":"Category:Cassiopeia (Berlin)"},"geometry":{"type":"Point","coordinates":[13.4547913,52.5072513]}},{"type":"Feature","id":1081145396,"properties":{"osmId":1081145396,"osmType":"way","addr:city":"Berlin","addr:country":"DE","addr:housenumber":"121","addr:postcode":"10407","addr:street":"Storkower Straße","addr:suburb":"Prenzlauer Berg","amenity":"nightclub","contact:instagram":"https://www.instagram.com/abstrakt.berlin","contact:phone":"+49 30 65832595","contact:ra":"https://de.ra.co/clubs/233027","name":"Abstrakt","old_contact:facebook":"https://www.facebook.com/menschmeierberlin/events","old_contact:ra":"https://ra.co/clubs/103373;https://ra.co/clubs/227831","old_name:2015--2024-01-22":"Mensch Meier","old_operator":"Mensch Meier GmbH","old_wikidata":"Q105762292","smoking":"no","toilets:wheelchair":"yes","wheelchair":"yes","wifi":"no"},"geometry":{"type":"Point","coordinates":[13.4523584,52.5352093]}}]}