{"type":"FeatureCollection","features":[{"type":"Feature","id":21302157,"properties":{"osmId":21302157,"osmType":"node","contact:website":"http://www.s-bahn-berlin.de/fahrplanundnetz/bahnhof/tiergarten/151","light_rail":"yes","name":"Tiergarten","network":"Verkehrsverbund Berlin-Brandenburg","network:short":"VBB","network:wikidata":"Q315451","official_name":"Berlin-Tiergarten","operator":"DB InfraGO AG","public_transport":"station","railway":"station","railway:ref":"BTGN","railway:station_category":"4","station":"light_rail","train":"yes","uic_ref":"8089091","wheelchair":"yes","wikidata":"Q572112","wikipedia":"de:Bahnhof Berlin-Tiergarten"},"geometry":{"type":"Point","coordinates":[13.3364504,52.5143746]}},{"type":"Feature","id":26124376,"properties":{"osmId":26124376,"osmType":"node","contact:phone":"+49 30 297 43333","contact:website":"http://www.s-bahn-berlin.de/fahrplanundnetz/bahnhof/westend/157","departures_board":"realtime","departures_board:speech_output":"no","description":"S Westend Gleis 1","light_rail":"yes","name":"Westend","network":"Verkehrsverbund Berlin-Brandenburg","network:short":"VBB","network:wikidata":"Q315451","official_name":"Berlin-Westend","operator":"DB InfraGO AG","public_transport":"station","railway":"station","railway:ref":"BWES","railway:station_category":"4","ref":"1","station":"light_rail","train":"yes","uic_ref":"8089111","wheelchair":"yes","wikidata":"Q323214","wikipedia":"de:Bahnhof Berlin-Westend"},"geometry":{"type":"Point","coordinates":[13.2844201,52.5180135]}},{"type":"Feature","id":26603219,"properties":{"osmId":26603219,"osmType":"node","addr:city":"Berlin","addr:housenumber":"250","addr:postcode":"14109","addr:street":"Kronprinzessinnenweg","contact:phone":"+49 30 297 43333","light_rail":"yes","name":"Wannsee","network":"Verkehrsverbund Berlin-Brandenburg","network:short":"VBB","network:wikidata":"Q315451","official_name":"Berlin-Wannsee S-Bahn","operator":"DB InfraGO AG","public_transport":"station","railway":"station","railway:ref":"BWSS","railway:station_category":"2","ref:ibnr":"8089190","ref:station":"566","station":"light_rail","train":"yes","uic_name":"Berlin Wannsee","uic_ref":"8085793","website":"https://sbahn.berlin/fahren/bahnhofsuebersicht/wannsee/","wheelchair":"yes","wikidata":"Q567336","wikipedia":"de:Bahnhof Berlin-Wannsee"},"geometry":{"type":"Point","coordinates":[13.1798077,52.4214071]}},{"type":"Feature","id":26943869,"properties":{"osmId":26943869,"osmType":"node","contact:website":"http://www.s-bahn-berlin.de/fahrplanundnetz/bahnhof/pichelsberg/121","light_rail":"yes","name":"Pichelsberg","network":"Verkehrsverbund Berlin-Brandenburg","network:short":"VBB","official_name":"Berlin Pichelsberg","operator":"DB InfraGO AG","public_transport":"station","railway":"station","railway:ref":"BPIC","railway:station_category":"5","ref":"2","station":"light_rail","uic_name":"Berlin-Pichelsberg","uic_ref":"8089331","wheelchair":"yes","wikidata":"Q800488","wikipedia":"de:Bahnhof Berlin Pichelsberg"},"geometry":{"type":"Point","coordinates":[13.2276304,52.5101503]}},{"type":"Feature","id":27215654,"properties":{"osmId":27215654,"osmType":"node","contact:phone":"+49 30 297 43333","contact:website":"http://www.s-bahn-berlin.de/fahrplanundnetz/bahnhof/grunewald/67","light_rail":"yes","name":"Grunewald","network":"Verkehrsverbund Berlin-Brandenburg","network:short":"VBB","official_name":"Berlin-Grunewald S-Bahn","operator":"DB InfraGO AG","public_transport":"station","railway":"station","railway:ref":"BGWD","railway:station_category":"4","station":"light_rail","uic_name":"Berlin-Grunewald","uic_ref":"8089062","wheelchair":"yes","wikidata":"Q457266","wikipedia":"de:Bahnhof Berlin-Grunewald"},"geometry":{"type":"Point","coordinates":[13.2610104,52.4882479]}},{"type":"Feature","id":27318370,"properties":{"osmId":27318370,"osmType":"node","contact:phone":"+49 30 297 43333","departures_board":"timetable","light_rail":"yes","name":"Griebnitzsee","network":"Verkehrsverbund Berlin-Brandenburg","network:short":"VBB","network:wikidata":"Q315451","official_name":"Potsdam Griebnitzsee S-Bahn","operator":"DB InfraGO AG","public_transport":"station","railway":"station","railway:ref":"BGRI","railway:station_category":"4","ref:ibnr":"8080530","station":"light_rail","train":"yes","uic_name":"Potsdam Griebnitzsee","website":"https://sbahn.berlin/fahren/bahnhofsuebersicht/griebnitzsee/","wheelchair":"yes","wikidata":"Q315133","wikipedia":"de:Bahnhof Potsdam Griebnitzsee"},"geometry":{"type":"Point","coordinates":[13.1272716,52.3944579]}},{"type":"Feature","id":28830281,"properties":{"osmId":28830281,"osmType":"node","contact:phone":"+49 30 297 43333","image":"https://upload.wikimedia.org/wikipedia/commons/7/70/-Bahnhof_Karow_Bahnsteig.jpg","light_rail":"yes","name":"Karow","network":"Verkehrsverbund Berlin-Brandenburg","network:short":"VBB","network:wikidata":"Q315451","official_name":"Berlin-Karow S-Bahn","operator":"DB InfraGO AG","public_transport":"station","railway":"station","railway:ref":"BKRW","railway:station_category":"4","ref:ibnr":"8011046","source":"https://de.wikipedia.org/wiki/Bahnhof_Berlin-Karow;https://www.stadtschnellbahn-berlin.de/bahnhof/bahnhof.php?bhf=275","start_date":"1882-11-15","station":"light_rail","train":"yes","uic_name":"Berlin-Karow","website":"https://www.bahnhof.de/bernau-b-berlin","wheelchair":"limited","wikidata":"Q800480","wikipedia":"de:Bahnhof Berlin-Karow"},"geometry":{"type":"Point","coordinates":[13.4694647,52.6152148]}},{"type":"Feature","id":29070457,"properties":{"osmId":29070457,"osmType":"node","check_date:wheelchair":"2022-07-11","contact:phone":"+49 30 297 43333","contact:website":"http://www.s-bahn-berlin.de/fahrplanundnetz/bahnhof/beusselstrasse/38","light_rail":"yes","name":"Beusselstraße","network":"Verkehrsverbund Berlin-Brandenburg","network:short":"VBB","official_name":"Berlin Beusselstraße","operator":"DB InfraGO AG","public_transport":"station","railway":"station","railway:ref":"BBEU","railway:station_category":"4","station":"light_rail","uic_ref":"8089118","wheelchair":"yes","wikidata":"Q323219","wikipedia":"de:Bahnhof Berlin Beusselstraße"},"geometry":{"type":"Point","coordinates":[13.3293873,52.5344077]}},{"type":"Feature","id":29803428,"properties":{"osmId":29803428,"osmType":"node","contact:website":"http://www.s-bahn-berlin.de/fahrplanundnetz/bahnhof/rummelsburg/130","light_rail":"yes","name":"Rummelsburg","network":"Verkehrsverbund Berlin-Brandenburg","network:short":"VBB","network:wikidata":"Q315451","official_name":"Berlin-Rummelsburg (S-Bahn)","operator":"DB InfraGO AG","public_transport":"station","railway":"station","railway:ref":"BRH","railway:ref:parent":"BOK","railway:station_category":"4","station":"light_rail","train":"yes","uic_name":"Berlin-Rummelsburg","uic_ref":"8089084","wheelchair":"yes","wikidata":"Q15107132","wikipedia":"de:Bahnhof Berlin-Rummelsburg (S-Bahn)"},"geometry":{"type":"Point","coordinates":[13.478367,52.501288]}},{"type":"Feature","id":29858596,"properties":{"osmId":29858596,"osmType":"node","contact:phone":"+49 30 297 43333","contact:website":"http://www.s-bahn-berlin.de/fahrplanundnetz/bahnhof/marzahn/103","light_rail":"yes","name":"Marzahn","network":"Verkehrsverbund Berlin-Brandenburg","network:short":"VBB","network:wikidata":"Q315451","official_name":"Berlin-Marzahn S-Bahn","operator":"DB InfraGO AG","public_transport":"station","railway":"station","railway:ref":"BMAZ","railway:station_category":"4","station":"light_rail","train":"yes","uic_ref":"8089075","wheelchair":"yes","wikidata":"Q800486","wikipedia":"de:Bahnhof Berlin-Marzahn"},"geometry":{"type":"Point","coordinates":[13.5413545,52.5436548]}},{"type":"Feature","id":29881358,"properties":{"osmId":29881358,"osmType":"node","departures_board":"timetable","internet_access":"wlan","internet_access:fee":"no","light_rail":"yes","name":"Wuhletal","network":"Verkehrsverbund Berlin-Brandenburg","network:short":"VBB","note":"steht nicht in der Bahnhofskategorieliste von 2017","official_name":"Berlin Wuhletal","operator":"DB InfraGO AG","phone":"+49 30 29743333","public_transport":"station","railway":"station","railway:ref":"BWT","railway:ref:parent":"BKAD","station":"light_rail","subway":"yes","surveillance":"indoor","uic_ref":"8089049","website":"http://www.s-bahn-berlin.de/fahrplanundnetz/bahnhof/wuhletal/166","wheelchair":"yes","wikidata":"Q552867","wikimedia_commons":"File:U-Bahnhof Wuhletal.jpg","wikipedia":"de:Bahnhof Berlin Wuhletal"},"geometry":{"type":"Point","coordinates":[13.5752134,52.5126122]}},{"type":"Feature","id":29918297,"properties":{"osmId":29918297,"osmType":"node","contact:phone":"+49 30 29743333","departures_board":"timetable","light_rail":"yes","name":"Mahlsdorf","network":"Verkehrsverbund Berlin-Brandenburg","network:short":"VBB","network:wikidata":"Q315451","official_name":"Berlin-Mahlsdorf","operator":"DB InfraGO AG","public_transport":"station","railway":"station","railway:ref":"BMDF","railway:station_category":"4","ref:ibnr":"8089072","station":"light_rail","surveillance":"indoor","surveillance:type":"camera","train":"yes","website":"https://sbahn.berlin/fahren/bahnhofsuebersicht/mahlsdorf/","wheelchair":"yes","wikidata":"Q800484","wikipedia":"de:Bahnhof Berlin-Mahlsdorf"},"geometry":{"type":"Point","coordinates":[13.6104126,52.5120903]}},{"type":"Feature","id":30688290,"properties":{"osmId":30688290,"osmType":"node","departures_board":"realtime","departures_board:speech_output":"no","light_rail":"yes","name":"Hohenschönhausen","name:VBB":"S Hohenschönhausen Bhf (Berlin)","network":"Verkehrsverbund Berlin-Brandenburg","network:short":"VBB","network:wikidata":"Q315451","official_name":"Berlin-Hohenschönhausen S-Bahn","operator":"DB InfraGO AG","public_transport":"station","railway":"station","railway:ref":"BHH","railway:station_category":"3","ref:ibnr":"8089117","station":"light_rail","train":"yes","uic_ref":"8085771","website":"https://sbahn.berlin/fahren/bahnhofsuebersicht/hohenschoenhausen/","wheelchair":"yes","wheelchair:description":"Rampe kein WC","wikidata":"Q111307677","wikipedia":"de:Bahnhof Berlin-Hohenschönhausen"},"geometry":{"type":"Point","coordinates":[13.5124988,52.5662755]}},{"type":"Feature","id":30688292,"properties":{"osmId":30688292,"osmType":"node","contact:phone":"+49 30 297 43333","contact:website":"http://www.s-bahn-berlin.de/fahrplanundnetz/bahnhof/wartenberg/156","departures_board":"realtime","departures_board:speech_output":"no","light_rail":"yes","name":"Wartenberg","name:VBB":"S Wartenberg (Berlin)","network":"Verkehrsverbund Berlin-Brandenburg","network:short":"VBB","network:wikidata":"Q315451","official_name":"Berlin-Wartenberg","operator":"DB InfraGO AG","public_transport":"station","railway":"station","railway:ref":"BWAB","railway:ref:parent":"BHH","railway:station_category":"5","station":"light_rail","train":"yes","uic_ref":"8089093","wheelchair":"yes","wheelchair:description":"Rampen City WC: Ausgang Egon-Erwin-Kisch Str.","wikidata":"Q2784530","wikipedia":"en:Wartenberg station"},"geometry":{"type":"Point","coordinates":[13.5038322,52.572982]}},{"type":"Feature","id":30739613,"properties":{"osmId":30739613,"osmType":"node","contact:phone":"+49 30 297 43333","contact:website":"http://www.s-bahn-berlin.de/fahrplanundnetz/bahnhof/marienfelde/102","light_rail":"yes","name":"Marienfelde","network":"Verkehrsverbund Berlin-Brandenburg","network:short":"VBB","network:wikidata":"Q315451","official_name":"Berlin-Marienfelde","operator":"DB InfraGO AG","public_transport":"station","railway":"station","railway:ref":"BMF","railway:station_category":"5","station":"light_rail","train":"yes","uic_ref":"8089074","wheelchair":"no","wikidata":"Q800485","wikipedia":"de:Bahnhof Berlin-Marienfelde"},"geometry":{"type":"Point","coordinates":[13.3746844,52.4242122]}},{"type":"Feature","id":59282120,"properties":{"osmId":59282120,"osmType":"node","contact:phone":"+49 30 297 43333","contact:website":"http://www.s-bahn-berlin.de/fahrplanundnetz/bahnhof/hohen-neuendorf-b-bln/78","description":"S Hohen Neuendorf","light_rail":"yes","name":"Hohen Neuendorf (b Berlin)","network":"Verkehrsverbund Berlin-Brandenburg","network:short":"VBB","network:wikidata":"Q315451","official_name":"Hohen Neuendorf (b Berlin)","operator":"DB InfraGO AG","public_transport":"station","railway":"station","railway:ref":"BHN","railway:station_category":"5","station":"light_rail","train":"yes","uic_name":"Hohen Neuendorf(b Berlin)","uic_ref":"8080720","wheelchair":"yes","wikidata":"Q4500489","wikipedia":"de:Bahnhof Hohen Neuendorf (b Berlin)"},"geometry":{"type":"Point","coordinates":[13.2870408,52.66865]}},{"type":"Feature","id":59719386,"properties":{"osmId":59719386,"osmType":"node","contact:phone":"+49 30 297 43333","contact:website":"http://www.s-bahn-berlin.de/fahrplanundnetz/bahnhof/fredersdorf-b-bln/56","departures_board":"realtime","light_rail":"yes","name":"Fredersdorf (b Berlin)","network":"Verkehrsverbund Berlin-Brandenburg","network:short":"VBB","note":"Vor Ort ist \"Fredersdorf (b Berlin)\" ausgeschildert. S-Bahn-Station ist ein eigenständiger Bahnhof.","official_name":"Fredersdorf (b Berlin) S-Bahn","operator":"DB InfraGO AG","public_transport":"station","railway":"station","railway:ref":"BFD","railway:station_category":"5","ref:station":"1889","short_name":"Fredersdorf (b Berlin)","station":"light_rail","uic_name":"Fredersdorf(b Berlin)","uic_ref":"8080440","wheelchair":"yes","wikidata":"Q15197387","wikipedia":"de:Bahnhof Fredersdorf (b Berlin)"},"geometry":{"type":"Point","coordinates":[13.7604458,52.5262465]}},{"type":"Feature","id":197619499,"properties":{"osmId":197619499,"osmType":"node","contact:phone":"+49 30 297 43333","contact:website":"https://sbahn.berlin/fahren/bahnhofsuebersicht/muehlenbeck-moenchmuehle/","light_rail":"yes","name":"Mühlenbeck-Mönchmühle","network":"Verkehrsverbund Berlin-Brandenburg","network:short":"VBB","network:wikidata":"Q315451","official_name":"Mühlenbeck-Mönchmühle","operator":"DB InfraGO AG","public_transport":"station","railway":"station","railway:ref":"BMM","railway:station_category":"6","ref:ibnr":"8080980","ref:station":"4204","station":"light_rail","train":"yes","uic_ref":"8003565","wheelchair":"yes","wikidata":"Q6950467","wikipedia":"en:Mühlenbeck-Mönchmühle station"},"geometry":{"type":"Point","coordinates":[13.3862202,52.654749]}},{"type":"Feature","id":261941954,"properties":{"osmId":261941954,"osmType":"node","contact:website":"http://www.s-bahn-berlin.de/fahrplanundnetz/bahnhof/treptower-park/152","departures_board":"realtime","departures_board:speech_output":"no","light_rail":"yes","name":"Treptower Park","network":"Verkehrsverbund Berlin-Brandenburg","network:short":"VBB","network:wikidata":"Q315451","official_name":"Berlin Treptower Park","operator":"DB InfraGO AG","public_transport":"station","railway":"station","railway:ref":"BTP","railway:ref:parent":"BOK","railway:station_category":"4","ref:ibnr":"8089043","ref:station":"6251","station":"light_rail","surveillance":"indoor","train":"yes","wheelchair":"yes","wikidata":"Q559274","wikipedia":"de:Bahnhof Berlin Treptower Park"},"geometry":{"type":"Point","coordinates":[13.4618296,52.4938491]}},{"type":"Feature","id":266962352,"properties":{"osmId":266962352,"osmType":"node","contact:website":"http://www.s-bahn-berlin.de/fahrplanundnetz/bahnhof/olympiastadion/111","light_rail":"yes","name":"Olympiastadion","network":"Verkehrsverbund Berlin-Brandenburg","network:short":"VBB","official_name":"Berlin Olympiastadion","operator":"DB InfraGO AG","public_transport":"station","railway":"station","railway:ref":"BOLS","railway:station_category":"3","station":"light_rail","uic_ref":"8089330","wheelchair":"yes","wikidata":"Q800506","wikipedia":"de:Bahnhof Berlin Olympiastadion"},"geometry":{"type":"Point","coordinates":[13.242828,52.5112644]}},{"type":"Feature","id":279018516,"properties":{"osmId":279018516,"osmType":"node","contact:phone":"+49 30 297 43333","contact:website":"http://www.s-bahn-berlin.de/fahrplanundnetz/bahnhof/mahlow/100","light_rail":"yes","name":"Mahlow","network":"Verkehrsverbund Berlin-Brandenburg","network:short":"VBB","network:wikidata":"Q315451","official_name":"Mahlow","operator":"DB InfraGO AG","public_transport":"station","railway":"station","railway:ref":"BMAH","railway:station_category":"5","station":"light_rail","train":"yes","uic_ref":"8080970","wheelchair":"yes","wikidata":"Q2641431","wikipedia":"de:Bahnhof Mahlow"},"geometry":{"type":"Point","coordinates":[13.4078294,52.3606346]}},{"type":"Feature","id":316785013,"properties":{"osmId":316785013,"osmType":"node","contact:website":"http://www.s-bahn-berlin.de/fahrplanundnetz/bahnhof/schoenhauser-allee/135","light_rail":"yes","name":"Schönhauser Allee","network":"Verkehrsverbund Berlin-Brandenburg","network:short":"VBB","not:network:wikidata":"Q315451","official_name":"Berlin Schönhauser Allee","operator":"DB InfraGO AG","public_transport":"station","railway":"station","railway:ref":"BSAL","railway:station_category":"4","ref:station":"5665","station":"light_rail","uic_ref":"8089039","wheelchair":"yes","wikidata":"Q571403","wikipedia":"de:Bahnhof Berlin Schönhauser Allee"},"geometry":{"type":"Point","coordinates":[13.4155955,52.549243]}},{"type":"Feature","id":348348641,"properties":{"osmId":348348641,"osmType":"node","contact:website":"http://www.s-bahn-berlin.de/fahrplanundnetz/bahnhof/friedrichshagen/58","departures_board":"realtime","internet_access":"no","light_rail":"yes","name":"Friedrichshagen","network":"Verkehrsverbund Berlin-Brandenburg","network:short":"VBB","network:wikidata":"Q315451","official_name":"Berlin-Friedrichshagen","operator":"DB InfraGO AG","public_transport":"station","railway":"station","railway:ref":"BFRH","railway:station_category":"4","station":"light_rail","surveillance":"indoor","surveillance:type":"camera","train":"yes","uic_ref":"8089060","wheelchair":"yes","wikidata":"Q800474","wikipedia":"de:Bahnhof Berlin-Friedrichshagen"},"geometry":{"type":"Point","coordinates":[13.6232934,52.4573763]}},{"type":"Feature","id":353664768,"properties":{"osmId":353664768,"osmType":"node","contact:phone":"+49 30 297 43333","contact:website":"http://www.s-bahn-berlin.de/fahrplanundnetz/bahnhof/wuhlheide/170","light_rail":"yes","name":"Wuhlheide","network":"Verkehrsverbund Berlin-Brandenburg","network:short":"VBB","network:wikidata":"Q315451","official_name":"Berlin Wuhlheide (S-Bahn)","operator":"DB InfraGO AG","public_transport":"station","railway":"station","railway:ref":"BWHH","railway:ref:parent":"BKPK","railway:station_category":"5","ref:ibnr":"8089097","ref:station":"6899","station":"light_rail","train":"yes","uic_name":"Berlin-Wuhlheide","uic_ref":"8089097","wheelchair":"yes","wikidata":"Q800514","wikipedia":"de:Bahnhof Berlin Wuhlheide"},"geometry":{"type":"Point","coordinates":[13.5543359,52.4685507]}},{"type":"Feature","id":523045806,"properties":{"osmId":523045806,"osmType":"node","contact:phone":"+49 30 297 43333","contact:website":"http://www.s-bahn-berlin.de/fahrplanundnetz/bahnhof/karlshorst/87","light_rail":"yes","name":"Karlshorst","network":"Verkehrsverbund Berlin-Brandenburg","network:short":"VBB","network:wikidata":"Q315451","official_name":"Berlin-Karlshorst S-Bahn","operator":"DB InfraGO AG","public_transport":"station","railway":"station","railway:ref":"BKLH","railway:station_category":"3","station":"light_rail","train":"yes","uic_name":"Berlin-Karlshorst","uic_ref":"8010035","wheelchair":"yes","wikidata":"Q464170","wikipedia":"de:Bahnhof Berlin-Karlshorst"},"geometry":{"type":"Point","coordinates":[13.527279,52.4804671]}},{"type":"Feature","id":523045813,"properties":{"osmId":523045813,"osmType":"node","contact:phone":"+49 30 297 43333","contact:website":"http://www.s-bahn-berlin.de/fahrplanundnetz/bahnhof/koepenick/92","internet_access":"no","light_rail":"yes","name":"Köpenick","network":"Verkehrsverbund Berlin-Brandenburg","network:short":"VBB","network:wikidata":"Q315451","official_name":"Berlin-Köpenick S-Bahn","operator":"DB InfraGO AG","public_transport":"station","railway":"station","railway:ref":"BKPK","railway:station_category":"4","station":"light_rail","surveillance":"indoor","surveillance:type":"camera","toilets:wheelchair":"yes","train":"yes","uic_ref":"8089069","wheelchair":"yes","wikidata":"Q800479","wikipedia":"de:Bahnhof Berlin-Köpenick"},"geometry":{"type":"Point","coordinates":[13.5815192,52.458577]}},{"type":"Feature","id":614445865,"properties":{"osmId":614445865,"osmType":"node","contact:phone":"+49 30 297 43333","contact:website":"http://www.s-bahn-berlin.de/fahrplanundnetz/bahnhof/wedding/175","departures_board":"no","level":"1","light_rail":"yes","name":"Wedding","network":"Verkehrsverbund Berlin-Brandenburg","network:short":"VBB","network:wikidata":"Q315451","official_name":"Berlin-Wedding (S-Bahn)","operator":"DB Station&Service AG","public_transport":"station","railway":"station","railway:ref":"BWED","railway:station_category":"4","station":"light_rail","train":"yes","uic_name":"Berlin-Wedding","uic_ref":"8089131","wheelchair":"yes","wikidata":"Q638604"},"geometry":{"type":"Point","coordinates":[13.3669996,52.5427866]}},{"type":"Feature","id":625291757,"properties":{"osmId":625291757,"osmType":"node","addr:city":"Panketal","addr:housenumber":"2","addr:postcode":"16341","addr:street":"Am Amtshaus","addr:suburb":"Zepernick","contact:phone":"+49 30 297 43333","contact:website":"http://www.s-bahn-berlin.de/fahrplanundnetz/bahnhof/zepernick-b-bernau/167","light_rail":"yes","name":"Zepernick (b Bernau)","network":"Verkehrsverbund Berlin-Brandenburg","network:short":"VBB","official_name":"Zepernick (b Bernau)","operator":"DB InfraGO AG","public_transport":"station","railway":"station","railway:ref":"BZEP","railway:station_category":"5","station":"light_rail","uic_name":"Zepernick(Bernau)","uic_ref":"8081560","wheelchair":"yes","wheelchair:description":"Der S Bahnhof verfügt über ein Aufzug","wikidata":"Q801657","wikipedia":"de:Bahnhof Zepernick (b Bernau)"},"geometry":{"type":"Point","coordinates":[13.5338475,52.6596833]}},{"type":"Feature","id":670704950,"properties":{"osmId":670704950,"osmType":"node","contact:phone":"+49 30 297 43333","contact:website":"http://www.s-bahn-berlin.de/fahrplanundnetz/bahnhof/halensee/69","light_rail":"yes","name":"Halensee","network":"Verkehrsverbund Berlin-Brandenburg","network:short":"VBB","network:wikidata":"Q315451","official_name":"Berlin-Halensee S-Bahn","operator":"DB InfraGO AG","public_transport":"station","railway":"station","railway:ref":"BHAL","railway:station_category":"4","station":"light_rail","train":"yes","uic_name":"Berlin-Halensee","uic_ref":"8089109","wheelchair":"yes","wikidata":"Q800476","wikipedia":"de:Bahnhof Berlin-Halensee"},"geometry":{"type":"Point","coordinates":[13.2905555,52.4960247]}},{"type":"Feature","id":670750126,"properties":{"osmId":670750126,"osmType":"node","addr:city":"Erkner","addr:postcode":"15537","addr:street":"Bahnhofstraße","contact:phone":"+49 30 297 43333","light_rail":"yes","name":"Erkner","network":"Verkehrsverbund Berlin-Brandenburg","network:short":"VBB","network:wikidata":"Q315451","official_name":"Erkner S-Bahn","operator":"DB InfraGO AG","public_transport":"station","railway":"station","railway:ref":"BE","railway:station_category":"3","ref:ibnr":"8089181","station":"light_rail","train":"yes","uic_name":"Erkner","website":"https://sbahn.berlin/fahren/bahnhofsuebersicht/erkner/","wheelchair":"yes","wikidata":"Q14434071","wikipedia":"de:Bahnhof Erkner"},"geometry":{"type":"Point","coordinates":[13.7510608,52.4294226]}},{"type":"Feature","id":670801913,"properties":{"osmId":670801913,"osmType":"node","departures_board":"realtime","departures_board:speech_output":"no","light_rail":"yes","name":"Ostkreuz","network":"Verkehrsverbund Berlin-Brandenburg","network:short":"VBB","network:wikidata":"Q315451","note":"Bitte die 5 Nodes mit uic_ref in Bezug auf das Eisenbahn-Tagging so lassen und auch die Position nicht verändern. Die beiden Stadtbahn-Nodes BOKS und BOKR werden gerendert.","official_name":"Berlin Ostkreuz (S-Bahn)","operator":"DB InfraGO AG","public_transport":"station","railway":"station","railway:ref":"BOKS","railway:ref:parent":"BOSB","railway:station_category":"3","ref:station":"4809","site":"Bf","station":"light_rail","surveillance":"indoor","surveillance:type":"camera","toilets:wheelchair":"yes","train":"yes","uic_name":"Berlin Ostkreuz (S)","uic_ref":"8089028","website":"https://www.bahnhof.de/berlin-ostkreuz","wheelchair":"yes","wikidata":"Q660045","wikipedia":"de:Bahnhof Berlin Ostkreuz"},"geometry":{"type":"Point","coordinates":[13.4695776,52.5031523]}},{"type":"Feature","id":1095078202,"properties":{"osmId":1095078202,"osmType":"node","contact:phone":"+49 30 297 43333","deaf":"limited","deaf:description":"Die visuellen Anzeiger haben sich gebessert. Leider sind keine Gebärden zu den Stationen auf dem Anzeiger zu erkennen.","departures_board":"realtime","departures_board:speech_output":"no","light_rail":"yes","name":"Südkreuz (Ringbahn)","network":"Verkehrsverbund Berlin-Brandenburg","network:short":"VBB","network:wikidata":"Q315451","note":"Für den Personenverkehr benutzt die Bahn in der Regel das Kürzel BPAF und nicht BSKR oder BSKV.","official_name":"Berlin Südkreuz (Ringbahn)","operator":"DB InfraGO AG","public_transport":"station","railway":"station","railway:ref":"BSKR","railway:station_category":"1","ref:ibnr":"8089073","ref:station":"4859","station":"light_rail","toilets:wheelchair":"yes","train":"yes","uic_name":"Berlin Südkreuz (S)","uic_ref":"8003068","website":"https://sbahn.berlin/fahren/bahnhofsuebersicht/suedkreuz/","wheelchair":"yes","wheelchair:description":"WC für Rollifahrer befindet sich links vom Eingang und ist gut ausgeschildert","wikidata":"Q111323139","wikipedia":"de:Bahnhof Berlin Südkreuz"},"geometry":{"type":"Point","coordinates":[13.3650726,52.4759806]}},{"type":"Feature","id":1127966981,"properties":{"osmId":1127966981,"osmType":"node","contact:phone":"+49 30 297 43333","departures_board":"realtime","departures_board:speech_output":"no","internet_access":"wlan","layer":"-1","level":"-1","light_rail":"yes","name":"Gesundbrunnen","network":"Verkehrsverbund Berlin-Brandenburg","network:short":"VBB","note":"Der S-Bahn-Teil des Bahnhofs ist ein betrieblich eigenständiger Bahnhof und hat daher einen eigenen Node mit railway=station!","official_name":"Berlin-Gesundbrunnen S-Bahn","old_name":"S Nordkreuz","operator":"DB InfraGO AG","public_transport":"station","railway":"station","railway:ref":"BGB","railway:station_category":"1","station":"light_rail","subway":"no","train":"yes","uic_name":"Berlin Gesundbrunnen(S)","uic_ref":"8089015","website":"https://sbahn.berlin/fahren/bahnhofsuebersicht/gesundbrunnen/","wheelchair":"yes","wikidata":"Q678286","wikipedia":"de:Bahnhof Berlin Gesundbrunnen"},"geometry":{"type":"Point","coordinates":[13.3900758,52.5491748]}},{"type":"Feature","id":1351158702,"properties":{"osmId":1351158702,"osmType":"node","contact:phone":"+49 30 297 43333","light_rail":"yes","loc_name":"Bahnhof Zoo","name":"Zoologischer Garten","network":"Verkehrsverbund Berlin-Brandenburg","network:short":"VBB","network:wikidata":"Q315451","note":"S-Bahn-Bahnhof ist eigenständiger Bahnhof, daher zwei Bahnhöfe hier!","official_name":"Berlin Zoologischer Garten S-Bahn","operator":"DB InfraGO AG","public_transport":"station","railway":"station","railway:ref":"BZOS","railway:station_category":"2","station":"light_rail","train":"yes","uic_name":"Berlin Zoologischer Garten","uic_ref":"8010406","website":"https://sbahn.berlin/fahren/bahnhofsuebersicht/zoologischer-garten/","wheelchair":"yes","wikidata":"Q681785","wikipedia":"de:Bahnhof Berlin Zoologischer Garten"},"geometry":{"type":"Point","coordinates":[13.331868,52.5071378]}},{"type":"Feature","id":1390287336,"properties":{"osmId":1390287336,"osmType":"node","contact:phone":"+49 30 297 43333","contact:website":"http://www.s-bahn-berlin.de/fahrplanundnetz/bahnhof/feuerbachstrasse/11","layer":"-1","light_rail":"yes","name":"Feuerbachstraße","network":"Verkehrsverbund Berlin-Brandenburg","network:short":"VBB","note":"mangels Weichen nur ein Haltepunkt","official_name":"Berlin Feuerbachstraße","operator":"DB InfraGO AG","public_transport":"station","railway":"station","railway:ref":"BFB","railway:station_category":"5","station":"light_rail","uic_name":"Berlin Feuerbachstr.","uic_ref":"8089012","wheelchair":"yes","wikidata":"Q800501","wikipedia":"de:Bahnhof Berlin Feuerbachstraße"},"geometry":{"type":"Point","coordinates":[13.3326994,52.463673]}},{"type":"Feature","id":1450481793,"properties":{"osmId":1450481793,"osmType":"node","addr:city":"Schönefeld","addr:postcode":"12529","addr:street":"Melli-Beese-Ring","level":"-1","level:ref":"U2","light_rail":"yes","name":"Flughafen BER","name:en":"BER Airport station","official_name":"Berlin Flughafen BER (S-Bahn)","old_name":"Flughafen BER - Terminal 1-2","operator":"DB InfraGO AG","operator:wikidata":"Q122870674","public_transport":"station","railway":"station","railway:ref":"BFBB","railway:station_category":"2","ref:ibnr":"8089201","ref:station":"8192","short_name":"Flughafen BER (S-Bahn)","station":"light_rail","train":"yes","website":"https://www.bahnhof.de/en/flughafen-ber","wheelchair":"yes","wikidata":"Q800759","wikipedia":"de:Bahnhof Flughafen BER"},"geometry":{"type":"Point","coordinates":[13.5081573,52.3642841]}},{"type":"Feature","id":1731759740,"properties":{"osmId":1731759740,"osmType":"node","contact:phone":"+49 30 297 43333","contact:website":"http://www.s-bahn-berlin.de/fahrplanundnetz/bahnhof/schlachtensee/4","departures_board":"realtime","departures_board:speech_output":"no","light_rail":"yes","name":"Schlachtensee","network":"Verkehrsverbund Berlin-Brandenburg","network:short":"VBB","network:wikidata":"Q315451","official_name":"Berlin-Schlachtensee","operator":"DB InfraGO AG","public_transport":"station","railway":"station","railway:ref":"BSLS","railway:station_category":"4","station":"light_rail","train":"yes","uic_ref":"8089085","wheelchair":"yes","wikidata":"Q800509","wikipedia":"de:Bahnhof Berlin-Schlachtensee"},"geometry":{"type":"Point","coordinates":[13.2154373,52.440088]}},{"type":"Feature","id":1871042745,"properties":{"osmId":1871042745,"osmType":"node","contact:website":"http://www.s-bahn-berlin.de/fahrplanundnetz/bahnhof/tempelhof/150","departures_board":"realtime","departures_board:speech_output":"no","light_rail":"yes","name":"Tempelhof","network":"Verkehrsverbund Berlin-Brandenburg","network:short":"VBB","official_name":"Berlin-Tempelhof S-Bahn","operator":"DB InfraGO AG","public_transport":"station","railway":"station","railway:ref":"BTHF","railway:station_category":"4","ref:station":"565","station":"light_rail","uic_name":"Berlin-Tempelhof","uic_ref":"8089090","wheelchair":"yes","wikidata":"Q571405","wikipedia":"de:Bahnhof Berlin-Tempelhof"},"geometry":{"type":"Point","coordinates":[13.3844457,52.4709704]}},{"type":"Feature","id":1947340096,"properties":{"osmId":1947340096,"osmType":"node","contact:phone":"+49 30 297 43333","contact:website":"http://www.s-bahn-berlin.de/fahrplanundnetz/bahnhof/nordbahnhof/109","departures_board":"realtime","departures_board:speech_output":"no","light_rail":"yes","name":"Nordbahnhof","network":"Verkehrsverbund Berlin-Brandenburg","network:short":"VBB","network:wikidata":"Q315451","official_name":"Berlin Nordbahnhof","operator":"DB Netz AG;DB Station&Service AG","public_transport":"station","railway":"station","railway:ref":"BNB","railway:station_category":"4","ref:station":"532","station":"light_rail","train":"yes","uic_ref":"8089024","wheelchair":"no","wikidata":"Q673721","wikipedia":"de:Berlin Nordbahnhof"},"geometry":{"type":"Point","coordinates":[13.3878392,52.5322749]}},{"type":"Feature","id":2134525648,"properties":{"osmId":2134525648,"osmType":"node","contact:website":"http://www.s-bahn-berlin.de/fahrplanundnetz/bahnhof/oranienburger-strasse/113","light_rail":"yes","name":"Oranienburger Straße","network":"Verkehrsverbund Berlin-Brandenburg","network:short":"VBB","network:wikidata":"Q315451","official_name":"Berlin Oranienburger Straße","operator":"DB InfraGO AG","public_transport":"station","railway":"station","railway:ref":"BORS","railway:ref:parent":"BNB","railway:station_category":"4","station":"light_rail","train":"yes","uic_ref":"8089027","wheelchair":"yes","wikidata":"Q480249","wikipedia":"de:Bahnhof Berlin Oranienburger Straße"},"geometry":{"type":"Point","coordinates":[13.3930145,52.5252246]}},{"type":"Feature","id":2340684843,"properties":{"osmId":2340684843,"osmType":"node","contact:phone":"+49 30 297 43333","light_rail":"yes","name":"Hennigsdorf (bei Berlin)","official_name":"Hennigsdorf (b Berlin) S-Bahn","operator":"DB InfraGO AG","public_transport":"station","railway":"station","railway:ref":"BHD","railway:station_category":"3","ref:ibnr":"8089207","short_name":"Hennigsdorf (b Berlin) S-Bahn","station":"light_rail","toilets:wheelchair":"no","website":"https://sbahn.berlin/fahren/bahnhofsuebersicht/hennigsdorf-b-bln/","wheelchair":"limited","wikidata":"Q800909","wikipedia":"de:Bahnhof Hennigsdorf (b Berlin)"},"geometry":{"type":"Point","coordinates":[13.2060771,52.6374079]}},{"type":"Feature","id":2513898321,"properties":{"osmId":2513898321,"osmType":"node","contact:phone":"+49 30 297 43333","light_rail":"yes","name":"Babelsberg","network":"Verkehrsverbund Berlin-Brandenburg","network:short":"VBB","network:wikidata":"Q315451","official_name":"Potsdam-Babelsberg","operator":"DB InfraGO AG","public_transport":"station","railway":"station","railway:ref":"BBAB","railway:station_category":"5","ref:ibnr":"8080070","ref:station":"237","shelter":"yes","station":"light_rail","tactile_paving":"no","train":"yes","website":"https://sbahn.berlin/fahren/bahnhofsuebersicht/babelsberg/","wheelchair":"no","wikidata":"Q801326","wikipedia":"de:Bahnhof Potsdam-Babelsberg"},"geometry":{"type":"Point","coordinates":[13.0929636,52.3914035]}},{"type":"Feature","id":2514084207,"properties":{"osmId":2514084207,"osmType":"node","addr:city":"Teltow","addr:country":"DE","addr:postcode":"14513","addr:street":"Mahlower Straße","contact:phone":"+49 30 297 43333","level":"-1","light_rail":"yes","name":"Teltow Stadt","network":"Verkehrsverbund Berlin-Brandenburg","network:short":"VBB","network:wikidata":"Q315451","official_name":"Teltow Stadt","operator":"DB InfraGO AG","public_transport":"station","railway":"station","railway:ref":"BTLS","railway:station_category":"5","ref:ibnr":"8080450","station":"light_rail","train":"yes","uic_ref":"8039837","website":"https://sbahn.berlin/fahren/bahnhofsuebersicht/teltow-stadt/","wheelchair":"yes","wikidata":"Q7697867"},"geometry":{"type":"Point","coordinates":[13.2762483,52.396844]}},{"type":"Feature","id":2567991414,"properties":{"osmId":2567991414,"osmType":"node","contact:phone":"+49 30 297 43333","contact:website":"http://www.s-bahn-berlin.de/fahrplanundnetz/bahnhof/bornholmer-strasse/45","internet_access":"wlan","light_rail":"yes","name":"Bornholmer Straße","network":"Verkehrsverbund Berlin-Brandenburg","network:short":"VBB","official_name":"Berlin Bornholmer Straße","operator":"DB InfraGO AG","public_transport":"station","railway":"station","railway:ref":"BBOS","railway:station_category":"4","ref:station":"791","station":"light_rail","surveillance":"indoor","surveillance:type":"camera","uic_name":"Berlin Bornholmer Str.","uic_ref":"8089008","wheelchair":"yes","wikidata":"Q32662318","wikipedia":"de:Bahnhof Berlin Bornholmer Straße"},"geometry":{"type":"Point","coordinates":[13.3978451,52.5547713]}},{"type":"Feature","id":2568010568,"properties":{"osmId":2568010568,"osmType":"node","contact:phone":"+49 30 297 43333","contact:website":"http://www.s-bahn-berlin.de/fahrplanundnetz/bahnhof/alt-reinickendorf/27","light_rail":"yes","name":"Alt-Reinickendorf","network":"Verkehrsverbund Berlin-Brandenburg","network:short":"VBB","network:wikidata":"Q315451","official_name":"Berlin Alt Reinickendorf","operator":"DB InfraGO AG","public_transport":"station","railway":"station","railway:ref":"BARF","railway:station_category":"5","station":"light_rail","train":"yes","uic_name":"Berlin Alt-Reinickendorf","uic_ref":"8089103","wheelchair":"limited","wikidata":"Q800496","wikipedia":"de:Bahnhof Berlin Alt-Reinickendorf"},"geometry":{"type":"Point","coordinates":[13.3512427,52.5777843]}},{"type":"Feature","id":2568020195,"properties":{"osmId":2568020195,"osmType":"node","contact:phone":"+49 30 297 43333","contact:website":"http://www.s-bahn-berlin.de/fahrplanundnetz/bahnhof/tegel/149","light_rail":"yes","name":"Tegel","network":"Verkehrsverbund Berlin-Brandenburg","network:short":"VBB","network:wikidata":"Q315451","official_name":"Berlin-Tegel","operator":"DB InfraGO AG","public_transport":"station","railway":"station","railway:ref":"BTG","railway:station_category":"5","station":"light_rail","train":"yes","uic_name":"Berlin-Tegel (S)","uic_ref":"8089089","wheelchair":"yes","wikidata":"Q800493","wikipedia":"de:Bahnhof Berlin-Tegel"},"geometry":{"type":"Point","coordinates":[13.2896968,52.5881913]}},{"type":"Feature","id":2613268560,"properties":{"osmId":2613268560,"osmType":"node","contact:website":"http://www.s-bahn-berlin.de/fahrplanundnetz/bahnhof/buckower-chaussee/47","light_rail":"yes","name":"Buckower Chaussee","network":"Verkehrsverbund Berlin-Brandenburg","network:short":"VBB","network:wikidata":"Q315451","official_name":"Berlin Buckower Chaussee","operator":"DB InfraGO AG","public_transport":"station","railway":"station","railway:ref":"BBCH","railway:station_category":"5","ref:station":"951","station":"light_rail","toilets:wheelchair":"no","train":"yes","uic_ref":"8089010","wheelchair":"yes","wikidata":"Q800499","wikipedia":"de:Bahnhof Berlin Buckower Chaussee"},"geometry":{"type":"Point","coordinates":[13.3827559,52.4105417]}},{"type":"Feature","id":2634929378,"properties":{"osmId":2634929378,"osmType":"node","contact:website":"http://www.s-bahn-berlin.de/fahrplanundnetz/bahnhof/heiligensee/73","light_rail":"yes","name":"Heiligensee","network":"Verkehrsverbund Berlin-Brandenburg","network:short":"VBB","network:wikidata":"Q315451","official_name":"Berlin-Heiligensee","operator":"DB InfraGO AG","public_transport":"station","railway":"station","railway:ref":"BHLS","railway:station_category":"4","ref":"BHLS","station":"light_rail","train":"yes","uic_ref":"8089025","wheelchair":"yes","wikidata":"Q800475","wikipedia":"de:Bahnhof Berlin-Heiligensee"},"geometry":{"type":"Point","coordinates":[13.229194,52.6246647]}},{"type":"Feature","id":2808272930,"properties":{"osmId":2808272930,"osmType":"node","contact:phone":"+49 30 297 43333","contact:website":"http://www.s-bahn-berlin.de/fahrplanundnetz/bahnhof/schoeneberg/13","departures_board":"timetable","level":"1","light_rail":"yes","name":"Schöneberg","network":"Verkehrsverbund Berlin-Brandenburg","network:short":"VBB","note":"Für den Personenverkehr benutzt die Bahn in der Regel das Kürzel BSGR und nicht BSGV.","official_name":"Berlin-Schöneberg (Vorortbahn)","operator":"DB InfraGO AG","public_transport":"station","railway":"station","railway:ref":"BSGV","railway:station_category":"4","ref:station":"558","station":"light_rail","uic_name":"Berlin-Schöneberg","uic_ref":"8089474","website":"https://www.bahnhof.de/bahnhof-de/bahnhof/Schoeneberg-1025752","wheelchair":"no","wikidata":"Q543855","wikipedia":"de:Bahnhof Berlin-Schöneberg"},"geometry":{"type":"Point","coordinates":[13.3519181,52.4793491]}},{"type":"Feature","id":2837556546,"properties":{"osmId":2837556546,"osmType":"node","light_rail":"yes","name":"Ostbahnhof","network":"Verkehrsverbund Berlin-Brandenburg","network:short":"VBB","network:wikidata":"Q315451","official_name":"Berlin Ostbahnhof S-Bahn","operator":"DB InfraGO AG","platforms":"2","public_transport":"station","railway":"station","railway:ref":"BOSB","railway:station_category":"1","ref:ibnr":"8010255","ref:station":"530","station":"light_rail","train":"yes","uic_name":"Berlin Ostbahnhof","website":"https://sbahn.berlin/fahren/bahnhofsuebersicht/ostbahnhof/","wheelchair":"limited","wikidata":"Q683239","wikipedia":"de:Berlin Ostbahnhof"},"geometry":{"type":"Point","coordinates":[13.4351709,52.5107448]}},{"type":"Feature","id":2909563126,"properties":{"osmId":2909563126,"osmType":"node","contact:phone":"+49 30 297 43333","contact:website":"http://www.s-bahn-berlin.de/fahrplanundnetz/bahnhof/blankenburg/42","light_rail":"yes","name":"Blankenburg","network":"Verkehrsverbund Berlin-Brandenburg","network:short":"VBB","network:wikidata":"Q315451","official_name":"Berlin-Blankenburg S-Bahn","operator":"DB InfraGO AG","public_transport":"station","railway":"station","railway:ref":"BBLB","railway:station_category":"4","station":"light_rail","train":"yes","uic_ref":"8089056","wheelchair":"yes","wikidata":"Q800469","wikipedia":"de:Bahnhof Berlin-Blankenburg"},"geometry":{"type":"Point","coordinates":[13.4434822,52.5914655]}},{"type":"Feature","id":2974219763,"properties":{"osmId":2974219763,"osmType":"node","contact:phone":"+49 30 297 43333","contact:website":"http://www.s-bahn-berlin.de/fahrplanundnetz/bahnhof/stresow/177","departures_board":"realtime","departures_board:speech_output":"no","light_rail":"yes","name":"Stresow","network":"Verkehrsverbund Berlin-Brandenburg","network:short":"VBB","note":"\"Berlin-Stresow\" ist die offizielle Betriebsstellenbezeichnung","note:old_name":"Berlin-Spandau bzw. 1911-1936 Spandau (Hbf.)","official_name":"Berlin-Stresow","operator":"DB InfraGO AG","public_transport":"station","railway":"station","railway:ref":"BSRW","railway:ref:parent":"BSPA","railway:station_category":"5","station":"light_rail","uic_ref":"8089053","wheelchair":"yes","wikidata":"Q800491","wikipedia":"de:Bahnhof Berlin-Stresow"},"geometry":{"type":"Point","coordinates":[13.2093454,52.5319419]}},{"type":"Feature","id":3092283379,"properties":{"osmId":3092283379,"osmType":"node","contact:phone":"+49 30 297 43333","contact:website":"http://www.s-bahn-berlin.de/fahrplanundnetz/bahnhof/frohnau/60","description":"S Frohnau","light_rail":"yes","name":"Frohnau","network":"Verkehrsverbund Berlin-Brandenburg","network:short":"VBB","network:wikidata":"Q315451","official_name":"Berlin-Frohnau","operator":"DB InfraGO AG","public_transport":"station","railway":"station","railway:ref":"BFOH","railway:station_category":"4","station":"light_rail","train":"yes","uic_ref":"8089061","wheelchair":"yes","wikidata":"Q800472","wikipedia":"de:Bahnhof Berlin-Frohnau"},"geometry":{"type":"Point","coordinates":[13.2902205,52.632409]}},{"type":"Feature","id":3092447211,"properties":{"osmId":3092447211,"osmType":"node","contact:phone":"+49 30 297 43333","contact:website":"http://www.s-bahn-berlin.de/fahrplanundnetz/bahnhof/waidmannslust/154","description":"S Waidmannslust","light_rail":"yes","name":"Waidmannslust","network":"Verkehrsverbund Berlin-Brandenburg","network:short":"VBB","network:wikidata":"Q315451","official_name":"Berlin-Waidmannslust","operator":"DB InfraGO AG","public_transport":"station","railway":"station","railway:ref":"BWAI","railway:station_category":"4","station":"light_rail","train":"yes","uic_ref":"8089092","wheelchair":"yes","wikidata":"Q800492","wikipedia":"de:Bahnhof Berlin-Waidmannslust"},"geometry":{"type":"Point","coordinates":[13.321194,52.6062718]}},{"type":"Feature","id":3154117524,"properties":{"osmId":3154117524,"osmType":"node","contact:phone":"+49 30 297 43333","contact:website":"http://www.s-bahn-berlin.de/fahrplanundnetz/bahnhof/schoenholz/136","departures_board":"realtime","departures_board:speech_output":"no","light_rail":"yes","name":"Schönholz","network":"Verkehrsverbund Berlin-Brandenburg","network:short":"VBB","network:wikidata":"Q315451","official_name":"Berlin-Schönholz S-Bahn","operator":"DB InfraGO AG","public_transport":"station","railway":"station","railway:ref":"BSNH","railway:station_category":"4","ref:station":"560","station":"light_rail","train":"yes","uic_ref":"8089087","wheelchair":"yes","wikidata":"Q800490","wikipedia":"de:Bahnhof Berlin-Schönholz"},"geometry":{"type":"Point","coordinates":[13.3809904,52.5715004]}},{"type":"Feature","id":3204488807,"properties":{"osmId":3204488807,"osmType":"node","contact:phone":"+49 30 297 43333","contact:website":"http://www.s-bahn-berlin.de/fahrplanundnetz/bahnhof/hoppegarten-mark/81","level":"0","light_rail":"yes","name":"Hoppegarten (Mark)","network":"Verkehrsverbund Berlin-Brandenburg","network:short":"VBB","network:wikidata":"Q315451","official_name":"Hoppegarten (Mark) S-Bahn","operator":"DB InfraGO AG","public_transport":"station","railway":"station","railway:ref":"BHPG","railway:station_category":"4","ref:station":"2901","station":"light_rail","train":"yes","uic_name":"Hoppegarten(Mark)","uic_ref":"8080750","wheelchair":"yes","wikidata":"Q15197357","wikipedia":"de:Bahnhof Hoppegarten (Mark)"},"geometry":{"type":"Point","coordinates":[13.6742567,52.5182432]}},{"type":"Feature","id":3234856203,"properties":{"osmId":3234856203,"osmType":"node","contact:phone":"+49 30 297 43333","contact:website":"http://www.s-bahn-berlin.de/fahrplanundnetz/bahnhof/attilastrasse/29","light_rail":"yes","name":"Attilastraße","network":"Verkehrsverbund Berlin-Brandenburg","network:short":"VBB","network:wikidata":"Q315451","official_name":"Berlin Attilastraße","operator":"DB InfraGO AG","public_transport":"station","railway":"station","railway:ref":"BATS","railway:station_category":"5","station":"light_rail","train":"yes","uic_ref":"8089003","wheelchair":"yes","wikidata":"Q800497","wikipedia":"de:Bahnhof Berlin Attilastraße"},"geometry":{"type":"Point","coordinates":[13.3607503,52.4480308]}},{"type":"Feature","id":3508654676,"properties":{"osmId":3508654676,"osmType":"node","contact:website":"http://www.s-bahn-berlin.de/fahrplanundnetz/bahnhof/altglienicke/28","departures_board":"no","light_rail":"yes","name":"Altglienicke","network":"Verkehrsverbund Berlin-Brandenburg","network:short":"VBB","network:wikidata":"Q315451","official_name":"Berlin-Altglienicke","operator":"DB InfraGO AG","public_transport":"station","railway":"station","railway:ref":"BAGL","railway:station_category":"5","station":"light_rail","train":"yes","uic_ref":"8089054","wheelchair":"yes","wikidata":"Q4736651","wikipedia":"de:Bahnhof Berlin-Altglienicke"},"geometry":{"type":"Point","coordinates":[13.5582554,52.4069533]}},{"type":"Feature","id":3508654679,"properties":{"osmId":3508654679,"osmType":"node","contact:website":"http://www.s-bahn-berlin.de/fahrplanundnetz/bahnhof/gruenau/65","light_rail":"yes","name":"Grünau","network":"Verkehrsverbund Berlin-Brandenburg","network:short":"VBB","official_name":"Berlin-Grünau S-Bahn","operator":"DB InfraGO AG","public_transport":"station","railway":"station","railway:ref":"BGAS","railway:station_category":"4","ref:station":"540","short_name":"Bln-Grünau","station":"light_rail","uic_ref":"8089063","wheelchair":"yes","wikidata":"Q324777","wikipedia":"de:Bahnhof Berlin-Grünau"},"geometry":{"type":"Point","coordinates":[13.5736378,52.4128789]}},{"type":"Feature","id":3508654680,"properties":{"osmId":3508654680,"osmType":"node","alt_name":"Berlin-Schöneweide S-Bahn","contact:phone":"+49 30 297 43333","internet_access":"no","light_rail":"yes","name":"Schöneweide","network":"Verkehrsverbund Berlin-Brandenburg","network:short":"VBB","network:wikidata":"Q315451","official_name":"Berlin-Schöneweide S-Bahn","operator":"DB InfraGO AG","public_transport":"station","railway":"station","railway:ref":"BSW","railway:station_category":"3","ref:station":"559","station":"light_rail","train":"yes","uic_name":"Berlin-Schöneweide (S)","uic_ref":"8089168","website":"https://sbahn.berlin/fahren/bahnhofsuebersicht/schoeneweide/","wheelchair":"yes","wikidata":"Q111323931"},"geometry":{"type":"Point","coordinates":[13.5097653,52.4549058]}},{"type":"Feature","id":3508978359,"properties":{"osmId":3508978359,"osmType":"node","contact:phone":"+49 30 297 43333","contact:website":"http://www.s-bahn-berlin.de/fahrplanundnetz/bahnhof/zeuthen/168","level":"0","light_rail":"yes","name":"Zeuthen","network":"Verkehrsverbund Berlin-Brandenburg","network:short":"VBB","official_name":"Zeuthen S-Bahn","operator":"DB InfraGO AG","public_transport":"station","railway":"station","railway:ref":"BZTH","railway:station_category":"5","station":"light_rail","uic_ref":"8081580","wheelchair":"yes","wikidata":"Q8069824","wikipedia":"de:Bahnhof Zeuthen"},"geometry":{"type":"Point","coordinates":[13.627647,52.3484435]}},{"type":"Feature","id":3515302610,"properties":{"osmId":3515302610,"osmType":"node","addr:city":"Berlin","addr:housenumber":"40","addr:postcode":"12437","addr:street":"Baumschulenstraße","alt_name":"Berlin-Baumschulenweg S-Bahn","contact:phone":"+49 30 297 43333","contact:website":"http://www.s-bahn-berlin.de/fahrplanundnetz/bahnhof/baumschulenweg/174","departures_board":"realtime","departures_board:speech_output":"yes","internet_access":"wlan","light_rail":"yes","name":"Baumschulenweg","network":"Verkehrsverbund Berlin-Brandenburg","network:short":"VBB","network:wikidata":"Q315451","official_name":"Berlin-Baumschulenweg S-Bahn","operator":"DB InfraGO AG","public_transport":"station","railway":"station","railway:ref":"BBMW","railway:station_category":"4","ref:ibnr":"8089004","ref:station":"430","station":"light_rail","wheelchair":"yes","wikidata":"Q324336","wikipedia":"de:Bahnhof Berlin-Baumschulenweg"},"geometry":{"type":"Point","coordinates":[13.4898621,52.4674002]}},{"type":"Feature","id":3515302614,"properties":{"osmId":3515302614,"osmType":"node","addr:city":"Berlin","addr:housenumber":"229","addr:postcode":"12055","addr:street":"Karl-Marx-Straße","contact:phone":"+49 30 297 43333","contact:website":"http://www.s-bahn-berlin.de/fahrplanundnetz/bahnhof/neukoelln/172","light_rail":"yes","name":"Neukölln","network":"Verkehrsverbund Berlin-Brandenburg","network:short":"VBB","network:wikidata":"Q315451","official_name":"Berlin-Neukölln S-Bahn","operator":"DB InfraGO AG","public_transport":"station","railway":"station","railway:ref":"BNK","railway:station_category":"4","ref:station":"554","station":"light_rail","train":"yes","uic_name":"Berlin-Neukölln","uic_ref":"8089077","wheelchair":"yes","wikidata":"Q569905","wikipedia":"de:Bahnhof Berlin-Neukölln"},"geometry":{"type":"Point","coordinates":[13.4437571,52.4695134]}},{"type":"Feature","id":3541526943,"properties":{"osmId":3541526943,"osmType":"node","addr:city":"Schönefeld","addr:housenumber":"20","addr:postcode":"12529","addr:street":"Mittelstraße","contact:phone":"+49 30 297 43333","light_rail":"yes","name":"Schönefeld (bei Berlin)","name:de":"Schönefeld (bei Berlin)","name:ja":"ベルリン・シェーネフェルト空港駅","network":"Verkehrsverbund Berlin-Brandenburg","network:short":"VBB","network:wikidata":"Q315451","official_name":"Schönefeld (bei Berlin)","old_name":"Flughafen BER - Terminal 5","operator":"DB InfraGO AG","public_transport":"station","railway":"station","railway:ref":"BFLH","railway:station_category":"3","ref:ibnr":"8010109","ref:station":"1821","station":"light_rail","train":"yes","uic_name":"Berlin-Schönefeld Flughafen","uic_ref":"8003424","website":"https://sbahn.berlin/fahren/bahnhofsuebersicht/flughafen-ber-terminal-5/","wheelchair":"limited","wikidata":"Q661069","wikipedia":"de:Bahnhof Berlin-Schönefeld Flughafen"},"geometry":{"type":"Point","coordinates":[13.5130469,52.3909067]}},{"type":"Feature","id":3658970189,"properties":{"osmId":3658970189,"osmType":"node","addr:city":"Berlin","addr:housenumber":"34","addr:postcode":"10243","addr:street":"Warschauer Straße","light_rail":"yes","name":"Warschauer Straße","network":"Verkehrsverbund Berlin-Brandenburg","network:short":"VBB","network:wikidata":"Q315451","official_name":"Berlin Warschauer Straße","operator":"DB InfraGO AG","public_transport":"station","railway":"station","railway:ref":"BWRS","railway:ref:parent":"BOSB","railway:station_category":"4","ref:ibnr":"8089045","ref:station":"6550","station":"light_rail","toilets:wheelchair":"no","train":"yes","wheelchair":"yes","wikidata":"Q664036","wikipedia":"de:Bahnhof Berlin Warschauer Straße"},"geometry":{"type":"Point","coordinates":[13.4501205,52.5063685]}},{"type":"Feature","id":3659830181,"properties":{"osmId":3659830181,"osmType":"node","contact:phone":"+49 30 297 43333","contact:website":"http://www.s-bahn-berlin.de/fahrplanundnetz/bahnhof/greifswalder-strasse/63","light_rail":"yes","name":"Greifswalder Straße","network":"Verkehrsverbund Berlin-Brandenburg","network:short":"VBB","network:wikidata":"Q315451","official_name":"Berlin Greifswalder Straße S-Bahn","operator":"DB InfraGO AG","public_transport":"station","railway":"station","railway:ref":"BGSF","railway:station_category":"4","station":"light_rail","surveillance":"indoor","surveillance:type":"camera","uic_name":"Berlin Greifswalder Str","uic_ref":"8089011","wheelchair":"yes","wikidata":"Q439246","wikipedia":"de:Bahnhof Berlin Greifswalder Straße"},"geometry":{"type":"Point","coordinates":[13.4389887,52.5402462]}},{"type":"Feature","id":3778075167,"properties":{"osmId":3778075167,"osmType":"node","contact:phone":"+49 30 297 43333","contact:website":"http://www.s-bahn-berlin.de/fahrplanundnetz/bahnhof/hermannstrasse/173","light_rail":"yes","name":"Hermannstraße","network":"Verkehrsverbund Berlin-Brandenburg","network:short":"VBB","network:wikidata":"Q315451","official_name":"Berlin Hermannstraße","operator":"DB InfraGO AG","public_transport":"station","railway":"station","railway:ref":"BHER","railway:ref:parent":"BNK","railway:station_category":"4","ref:station":"2716","station":"light_rail","train":"yes","uic_ref":"8089105","wheelchair":"yes","wikidata":"Q1421962","wikipedia":"de:Bahnhof Berlin Hermannstraße"},"geometry":{"type":"Point","coordinates":[13.4312408,52.4676341]}},{"type":"Feature","id":3779421874,"properties":{"osmId":3779421874,"osmType":"node","contact:website":"http://www.s-bahn-berlin.de/fahrplanundnetz/bahnhof/bundesplatz/48","light_rail":"yes","name":"Bundesplatz","network":"Verkehrsverbund Berlin-Brandenburg","network:short":"VBB","official_name":"Berlin Bundesplatz","operator":"DB InfraGO AG","public_transport":"station","railway":"station","railway:ref":"BBUP","railway:station_category":"4","ref:station":"970","station":"light_rail","uic_ref":"8089107","wheelchair":"yes","wikidata":"Q464094","wikipedia":"de:Bahnhof Berlin Bundesplatz"},"geometry":{"type":"Point","coordinates":[13.3295474,52.477658]}},{"type":"Feature","id":3808290434,"properties":{"osmId":3808290434,"osmType":"node","light_rail":"yes","name":"Charlottenburg","name:ja":"シャルロッテンブルク","network":"Verkehrsverbund Berlin-Brandenburg","network:short":"VBB","network:wikidata":"Q315451","official_name":"Berlin-Charlottenburg S-Bahn","operator":"DB InfraGO AG","public_transport":"station","railway":"station","railway:ref":"BCHS","railway:station_category":"3","ref":"BCHS","ref:ibnr":"8010403","station":"light_rail","train":"yes","uic_ref":"8010403","website":"https://sbahn.berlin/fahren/bahnhofsuebersicht/charlottenburg/","wheelchair":"yes","wikidata":"Q702596","wikipedia":"de:Bahnhof Berlin-Charlottenburg"},"geometry":{"type":"Point","coordinates":[13.3045162,52.5050484]}},{"type":"Feature","id":3842232853,"properties":{"osmId":3842232853,"osmType":"node","contact:website":"http://www.s-bahn-berlin.de/fahrplanundnetz/bahnhof/schichauweg/132","light_rail":"yes","name":"Schichauweg","network":"Verkehrsverbund Berlin-Brandenburg","network:short":"VBB","network:wikidata":"Q315451","official_name":"Berlin Schichauweg","operator":"DB InfraGO AG","public_transport":"station","railway":"station","railway:ref":"BSC","railway:station_category":"5","station":"light_rail","train":"yes","uic_ref":"8089038","wheelchair":"yes","wikidata":"Q3672596","wikipedia":"de:Bahnhof Berlin Schichauweg"},"geometry":{"type":"Point","coordinates":[13.3894102,52.3985451]}},{"type":"Feature","id":3846358177,"properties":{"osmId":3846358177,"osmType":"node","contact:phone":"+49 30 297 43333","level":"1","light_rail":"yes","name":"Lichterfelde Ost","network":"Verkehrsverbund Berlin-Brandenburg","network:short":"VBB","network:wikidata":"Q315451","official_name":"Berlin-Lichterfelde Ost (S-Bahn)","operator":"DB InfraGO AG","public_transport":"station","railway":"station","railway:ref":"BLIO","railway:station_category":"3","ref:ibnr":"8089113","station":"light_rail","toilets:wheelchair":"no","train":"yes","uic_name":"Berlin-Lichterfelde Ost (S)","website":"https://sbahn.berlin/fahren/bahnhofsuebersicht/lichterfelde-ost/","wheelchair":"yes","wikidata":"Q111311299","wikipedia":"de:Bahnhof Berlin-Lichterfelde Ost"},"geometry":{"type":"Point","coordinates":[13.3280815,52.4298633]}},{"type":"Feature","id":3854590993,"properties":{"osmId":3854590993,"osmType":"node","contact:phone":"+49 30 297 43333","contact:website":"http://www.s-bahn-berlin.de/fahrplanundnetz/bahnhof/anhalter-bahnhof/15","light_rail":"yes","name":"S Anhalter Bahnhof","network":"Verkehrsverbund Berlin-Brandenburg","network:short":"VBB","network:wikidata":"Q315451","official_name":"Berlin Anhalter Bf","operator":"DB InfraGO AG","public_transport":"station","railway":"station","railway:ref":"BAHU","railway:station_category":"3","ref:station":"525","station":"light_rail","train":"yes","uic_name":"Berlin Anhalter Bf","uic_ref":"8089002","wheelchair":"yes","wikidata":"Q695244","wikipedia":"de:Berlin Anhalter Bahnhof"},"geometry":{"type":"Point","coordinates":[13.3814763,52.5035788]}},{"type":"Feature","id":3854590996,"properties":{"osmId":3854590996,"osmType":"node","contact:phone":"+49 30 297 43333","contact:website":"http://www.s-bahn-berlin.de/fahrplanundnetz/bahnhof/potsdamer-platz/124","light_rail":"yes","name":"Potsdamer Platz","network":"Verkehrsverbund Berlin-Brandenburg","network:short":"VBB","network:wikidata":"Q315451","official_name":"Berlin Potsdamer Platz (S-Bahn)","operator":"DB InfraGO AG","public_transport":"station","railway":"station","railway:ref":"BPOP","railway:station_category":"2","ref:ibnr":"8011118","ref:station":"5016","station":"light_rail","train":"yes","uic_name":"Berlin Potsdamer Platz (S)","uic_ref":"8089032","wheelchair":"limited","wikidata":"Q672579","wikipedia":"de:Bahnhof Berlin Potsdamer Platz"},"geometry":{"type":"Point","coordinates":[13.3766399,52.5094035]}},{"type":"Feature","id":3858390219,"properties":{"osmId":3858390219,"osmType":"node","contact:phone":"+49 30 297 43333","contact:website":"http://www.s-bahn-berlin.de/fahrplanundnetz/bahnhof/lichtenrade/98","light_rail":"yes","name":"Lichtenrade","network":"Verkehrsverbund Berlin-Brandenburg","network:short":"VBB","network:wikidata":"Q315451","official_name":"Berlin-Lichtenrade","operator":"DB InfraGO AG","public_transport":"station","railway":"station","railway:ref":"BLRD","railway:station_category":"5","station":"light_rail","train":"yes","uic_name":"Berlin-Lichtenrade","uic_ref":"8089070","wheelchair":"yes","wikidata":"Q6543354","wikipedia":"de:Bahnhof Berlin-Lichtenrade"},"geometry":{"type":"Point","coordinates":[13.3964496,52.3869393]}},{"type":"Feature","id":3866864060,"properties":{"osmId":3866864060,"osmType":"node","contact:phone":"+49 30 297 43333","contact:website":"http://www.s-bahn-berlin.de/fahrplanundnetz/bahnhof/kaulsdorf/89","departures_board":"timetable","internet_access":"no","light_rail":"yes","name":"Kaulsdorf","network":"Verkehrsverbund Berlin-Brandenburg","network:short":"VBB","network:wikidata":"Q315451","official_name":"Berlin-Kaulsdorf S-Bahn","operator":"DB InfraGO AG","public_transport":"station","railway":"station","railway:ref":"BKAD","railway:station_category":"4","station":"light_rail","train":"yes","uic_ref":"8089068","wheelchair":"yes","wikidata":"Q800478","wikipedia":"de:Bahnhof Berlin-Kaulsdorf"},"geometry":{"type":"Point","coordinates":[13.5901922,52.5121351]}},{"type":"Feature","id":3869306763,"properties":{"osmId":3869306763,"osmType":"node","addr:city":"Berlin","addr:housenumber":"142","addr:postcode":"10117","addr:street":"Friedrichstraße","level":"3","light_rail":"yes","name":"S Friedrichstraße","network":"Verkehrsverbund Berlin-Brandenburg","network:short":"VBB","network:wikidata":"Q315451","official_name":"Berlin Friedrichstraße (Stadtb) S-Bahn","operator":"DB InfraGO AG","public_transport":"station","railway":"station","railway:ref":"BFST","railway:station_category":"2","ref:ibnr":"8011306","ref:station":"527","station":"light_rail","train":"yes","website":"https://sbahn.berlin/fahren/bahnhofsuebersicht/friedrichstrasse/","wheelchair":"yes","wikidata":"Q702402","wikipedia":"de:Bahnhof Berlin Friedrichstraße"},"geometry":{"type":"Point","coordinates":[13.3868236,52.5204967]}},{"type":"Feature","id":3872632789,"properties":{"osmId":3872632789,"osmType":"node","addr:city":"Berlin","addr:housenumber":"117","addr:postcode":"10407","addr:street":"Landsberger Allee","contact:website":"http://www.s-bahn-berlin.de/fahrplanundnetz/bahnhof/landsberger-allee/93","internet_access":"no","light_rail":"yes","name":"Landsberger Allee","network":"Verkehrsverbund Berlin-Brandenburg","network:short":"VBB","network:wikidata":"Q315451","official_name":"Berlin Landsberger Allee","operator":"DB InfraGO AG","public_transport":"station","railway":"station","railway:ref":"BLST","railway:ref:parent":"BGSS","railway:station_category":"4","ref:station":"3511","station":"light_rail","surveillance":"indoor","surveillance:type":"camera","train":"yes","uic_ref":"8089020","wheelchair":"yes","wikidata":"Q800507","wikipedia":"de:Bahnhof Berlin Landsberger Allee"},"geometry":{"type":"Point","coordinates":[13.4547803,52.529482]}},{"type":"Feature","id":3874806029,"properties":{"osmId":3874806029,"osmType":"node","contact:website":"http://www.s-bahn-berlin.de/fahrplanundnetz/bahnhof/friedenau/12","light_rail":"yes","name":"Friedenau","network":"Verkehrsverbund Berlin-Brandenburg","network:short":"VBB","official_name":"Berlin-Friedenau","operator":"DB InfraGO AG","public_transport":"station","railway":"station","railway:ref":"BFRU","railway:ref:parent":"BSGR","railway:station_category":"4","station":"light_rail","uic_ref":"8089058","wheelchair":"yes","wikidata":"Q800471","wikipedia":"de:Bahnhof Berlin-Friedenau"},"geometry":{"type":"Point","coordinates":[13.3415003,52.4707164]}},{"type":"Feature","id":3876909305,"properties":{"osmId":3876909305,"osmType":"node","check_date:wheelchair":"2022-07-11","contact:phone":"+49 30 297 43333","contact:website":"http://www.s-bahn-berlin.de/fahrplanundnetz/bahnhof/westhafen/158","light_rail":"yes","name":"Westhafen","network":"Verkehrsverbund Berlin-Brandenburg","network:short":"VBB","network:wikidata":"Q315451","note":"Die S-Bahn-Station hat keine Weichen und ist daher ein Haltepunkt.","official_name":"Berlin Westhafen (S-Bahn)","operator":"DB InfraGO AG","public_transport":"station","railway":"station","railway:ref":"BWH","railway:station_category":"4","station":"light_rail","train":"yes","uic_name":"Berlin Westhafen","uic_ref":"8089116","wheelchair":"no","wikidata":"Q465972","wikimedia_commons":"Category:Bahnhof Berlin Westhafen","wikipedia":"de:Bahnhof Berlin Westhafen"},"geometry":{"type":"Point","coordinates":[13.3444152,52.5362768]}},{"type":"Feature","id":3896342607,"properties":{"osmId":3896342607,"osmType":"node","contact:phone":"+49 30 297 43333","contact:website":"http://www.s-bahn-berlin.de/fahrplanundnetz/bahnhof/wollankstrasse/165","departures_board":"realtime","departures_board:speech_output":"no","description":"S Wollankstraße","light_rail":"yes","name":"Wollankstraße","network":"Verkehrsverbund Berlin-Brandenburg","network:short":"VBB","official_name":"Berlin Wollankstraße","old_name":"Pankow Nordbahn","operator":"DB InfraGO AG","public_transport":"station","railway":"station","railway:ref":"BWOK","railway:station_category":"4","station":"light_rail","toilets:wheelchair":"no","uic_ref":"8089048","wheelchair":"yes","wheelchair:description":"11.05.2018: Aufzug defekt, kein Reparaturtermin","wikidata":"Q800515","wikipedia":"de:Bahnhof Berlin Wollankstraße"},"geometry":{"type":"Point","coordinates":[13.3923627,52.5651525]}},{"type":"Feature","id":3908141014,"properties":{"osmId":3908141014,"osmType":"node","addr:city":"Berlin","addr:housenumber":"2","addr:postcode":"10179","addr:street":"Dircksenstraße","internet_access":"wlan","light_rail":"yes","name":"Alexanderplatz","name:ja":"アレクサンダー広場","network":"Verkehrsverbund Berlin-Brandenburg","network:short":"VBB","official_name":"Berlin Alexanderplatz S-Bahn","operator":"DB InfraGO AG","public_transport":"station","railway":"station","railway:ref":"BALX","railway:station_category":"3","ref:ibnr":"8089001","ref:station":"53","station":"light_rail","toilets:wheelchair":"yes","train":"yes","website":"https://www.bahnhof.de/alexanderplatz","wheelchair":"yes","wikidata":"Q698497","wikipedia":"de:Bahnhof Berlin Alexanderplatz"},"geometry":{"type":"Point","coordinates":[13.4112804,52.5215661]}},{"type":"Feature","id":3936632939,"properties":{"osmId":3936632939,"osmType":"node","addr:city":"Berlin","addr:postcode":"12689","addr:street":"Märkische Allee","contact:phone":"+49 30 297 43333","light_rail":"yes","name":"Ahrensfelde","network":"Verkehrsverbund Berlin-Brandenburg","network:short":"VBB","network:wikidata":"Q315451","official_name":"Ahrensfelde S-Bahn","operator":"DB InfraGO AG","public_transport":"station","railway":"station","railway:ref":"BAF","railway:station_category":"4","ref:ibnr":"8089188","ref:station":"28","station":"light_rail","train":"yes","uic_ref":"8085752","website":"https://sbahn.berlin/fahren/bahnhofsuebersicht/ahrensfelde/","wheelchair":"yes","wikidata":"Q111307724","wikipedia":"de:Bahnhof Ahrensfelde"},"geometry":{"type":"Point","coordinates":[13.5656581,52.5713397]}},{"type":"Feature","id":3961281931,"properties":{"osmId":3961281931,"osmType":"node","contact:website":"http://www.s-bahn-berlin.de/fahrplanundnetz/bahnhof/zehlendorf/6","layer":"1","level":"1","light_rail":"yes","name":"Zehlendorf","network":"Verkehrsverbund Berlin-Brandenburg","network:short":"VBB","network:wikidata":"Q315451","official_name":"Berlin-Zehlendorf","operator":"DB InfraGO AG","public_transport":"station","railway":"station","railway:ref":"BZD","railway:station_category":"4","station":"light_rail","train":"yes","uic_ref":"8089098","wheelchair":"yes","wikidata":"Q737962","wikipedia":"de:Bahnhof Berlin-Zehlendorf"},"geometry":{"type":"Point","coordinates":[13.2585888,52.4310735]}},{"type":"Feature","id":3995738144,"properties":{"osmId":3995738144,"osmType":"node","departures_board":"realtime","departures_board:speech_output":"no","internet_access":"wlan","light_rail":"yes","name":"Lichtenberg","network":"Verkehrsverbund Berlin-Brandenburg","network:short":"VBB","official_name":"Berlin-Lichtenberg S-Bahn","operator":"DB InfraGO AG","public_transport":"station","railway":"station","railway:ref":"BLI","railway:station_category":"2","ref:station":"549","station":"light_rail","train":"yes","uic_ref":"8010036","website":"https://sbahn.berlin/fahren/bahnhofsuebersicht/lichtenberg/","wheelchair":"yes","wikidata":"Q634247","wikipedia":"de:Bahnhof Berlin-Lichtenberg"},"geometry":{"type":"Point","coordinates":[13.4978129,52.5102343]}},{"type":"Feature","id":4011129259,"properties":{"osmId":4011129259,"osmType":"node","contact:phone":"+49 30 297 43333","contact:website":"http://www.s-bahn-berlin.de/fahrplanundnetz/bahnhof/lichterfelde-sued/21","light_rail":"yes","name":"Lichterfelde Süd","network":"Verkehrsverbund Berlin-Brandenburg","network:short":"VBB","official_name":"Berlin-Lichterfelde Süd","operator":"DB InfraGO AG","public_transport":"station","railway":"station","railway:ref":"BLIS","railway:station_category":"5","station":"light_rail","uic_ref":"8089472","wheelchair":"yes","wikidata":"Q800482","wikipedia":"de:Bahnhof Berlin-Lichterfelde Süd"},"geometry":{"type":"Point","coordinates":[13.3085527,52.4099669]}},{"type":"Feature","id":4011336129,"properties":{"osmId":4011336129,"osmType":"node","contact:phone":"+49 30 297 43333","contact:website":"http://www.s-bahn-berlin.de/fahrplanundnetz/bahnhof/suedende/148","light_rail":"yes","name":"Südende","network":"Verkehrsverbund Berlin-Brandenburg","network:short":"VBB","official_name":"Berlin Südende","operator":"DB InfraGO AG","public_transport":"station","railway":"station","railway:ref":"BSDE","railway:ref:parent":"BPRS","railway:station_category":"5","station":"light_rail","toilets:wheelchair":"no","uic_ref":"8089115","wheelchair":"yes","wikidata":"Q800511","wikipedia":"de:Bahnhof Berlin-Südende"},"geometry":{"type":"Point","coordinates":[13.3537492,52.448279]}},{"type":"Feature","id":4012502919,"properties":{"osmId":4012502919,"osmType":"node","addr:city":"Berlin","addr:housenumber":"1","addr:postcode":"12589","addr:street":"Alter Fischerweg","contact:website":"http://www.s-bahn-berlin.de/fahrplanundnetz/bahnhof/rahnsdorf/127","light_rail":"yes","name":"Rahnsdorf","network":"Verkehrsverbund Berlin-Brandenburg","network:short":"VBB","network:wikidata":"Q315451","official_name":"Berlin-Rahnsdorf","operator":"DB InfraGO AG","public_transport":"station","railway":"station","railway:ref":"BRD","railway:station_category":"5","ref:ibnr":"8089082","ref:station":"5100","station":"light_rail","train":"yes","wheelchair":"yes","wikidata":"Q800489","wikipedia":"de:Bahnhof Berlin-Rahnsdorf"},"geometry":{"type":"Point","coordinates":[13.6899776,52.4516372]}},{"type":"Feature","id":4012713682,"properties":{"osmId":4012713682,"osmType":"node","contact:website":"http://www.s-bahn-berlin.de/fahrplanundnetz/bahnhof/priesterweg/126","light_rail":"yes","name":"Priesterweg","network":"Verkehrsverbund Berlin-Brandenburg","network:short":"VBB","network:wikidata":"Q315451","official_name":"Berlin Priesterweg","operator":"DB InfraGO AG","public_transport":"station","railway":"station","railway:ref":"BPRS","railway:station_category":"4","ref:ibnr":"8089034","ref:station":"5036","station":"light_rail","train":"yes","wheelchair":"yes","wikidata":"Q800508","wikipedia":"de:Bahnhof Berlin Priesterweg"},"geometry":{"type":"Point","coordinates":[13.356253,52.4599231]}},{"type":"Feature","id":4027945653,"properties":{"osmId":4027945653,"osmType":"node","contact:phone":"+49 30 297 43333","contact:website":"http://www.s-bahn-berlin.de/fahrplanundnetz/bahnhof/buch/46","light_rail":"yes","name":"Buch","network":"Verkehrsverbund Berlin-Brandenburg","network:short":"VBB","official_name":"Berlin-Buch","operator":"DB InfraGO AG","public_transport":"station","railway":"station","railway:ref":"BBU","railway:station_category":"4","station":"light_rail","uic_ref":"8089057","wheelchair":"yes","wikidata":"Q4892359","wikipedia":"de:Bahnhof Berlin-Buch"},"geometry":{"type":"Point","coordinates":[13.4916378,52.6358345]}},{"type":"Feature","id":4059804083,"properties":{"osmId":4059804083,"osmType":"node","check_date:wheelchair":"2022-10-02","contact:phone":"+49 30 297 43333","contact:website":"http://www.s-bahn-berlin.de/fahrplanundnetz/bahnhof/schoenfliess/134","light_rail":"yes","name":"Schönfließ","network":"Verkehrsverbund Berlin-Brandenburg","network:short":"VBB","network:wikidata":"Q315451","official_name":"Schönfließ S-Bahn","operator":"DB InfraGO AG","public_transport":"station","railway":"station","railway:ref":"BSNF","railway:station_category":"6","ref:ibnr":"8081290","ref:station":"5659","station":"light_rail","train":"yes","uic_name":"Schönfließ(b Oranienburg)","uic_ref":"8085786","wheelchair":"no","wikidata":"Q801423","wikipedia":"de:Bahnhof Schönfließ"},"geometry":{"type":"Point","coordinates":[13.3400405,52.6647002]}},{"type":"Feature","id":4071360788,"properties":{"osmId":4071360788,"osmType":"node","contact:phone":"+49 30 297 43333","contact:website":"http://www.s-bahn-berlin.de/fahrplanundnetz/bahnhof/springpfuhl/141","light_rail":"yes","name":"Springpfuhl","network":"Verkehrsverbund Berlin-Brandenburg","network:short":"VBB","network:wikidata":"Q315451","official_name":"Berlin Springpfuhl","operator":"DB InfraGO AG","operator:wikidata":"Q122870674","public_transport":"station","railway":"station","railway:ref":"BSPH","railway:station_category":"4","shelter":"yes","station":"light_rail","tactile_paving":"yes","train":"no","uic_ref":"8089040","wheelchair":"yes","wikidata":"Q320263","wikipedia":"de:Bahnhof Berlin Springpfuhl"},"geometry":{"type":"Point","coordinates":[13.5365518,52.52704]}},{"type":"Feature","id":4208739688,"properties":{"osmId":4208739688,"osmType":"node","check_date:wheelchair":"2022-10-09","light_rail":"yes","name":"Spandau","network":"Verkehrsverbund Berlin-Brandenburg","network:short":"VBB","network:wikidata":"Q315451","official_name":"Berlin-Spandau S-Bahn","old_name":"Spandau-West","operator":"DB InfraGO AG","public_transport":"station","railway":"station","railway:ref":"BSPA","railway:station_category":"2","ref":"S5","ref:ibnr":"8089083","station":"light_rail","toilets:wheelchair":"yes","train":"yes","uic_name":"Berlin-Spandau","uic_ref":"8085788","website":"https://sbahn.berlin/fahren/bahnhofsuebersicht/spandau/","wheelchair":"yes","wikidata":"Q654980","wikipedia":"de:Bahnhof Berlin-Spandau"},"geometry":{"type":"Point","coordinates":[13.1974528,52.5347721]}},{"type":"Feature","id":4946078136,"properties":{"osmId":4946078136,"osmType":"node","contact:phone":"+49 30 297 43333","contact:website":"http://www.s-bahn-berlin.de/fahrplanundnetz/bahnhof/westkreuz/159","light_rail":"yes","name":"Westkreuz (Stadtbahn)","network":"Verkehrsverbund Berlin-Brandenburg","network:short":"VBB","network:wikidata":"Q315451","note":"Für den Personenverkehr benutzt die Bahn in der Regel das Kürzel BWKR und nicht BWKRR oder BWKR.","operator":"DB InfraGO AG","public_transport":"station","railway":"station","railway:ref":"BWKS","railway:station_category":"3","site":"Bf","station":"light_rail","train":"yes","uic_name":"Berlin Westkreuz","uic_ref":"8089047","wheelchair":"yes","wikidata":"Q678125","wikipedia":"de:Bahnhof Berlin Westkreuz"},"geometry":{"type":"Point","coordinates":[13.2847452,52.5010288]}},{"type":"Feature","id":4949971070,"properties":{"osmId":4949971070,"osmType":"node","contact:phone":"+49 30 297 43333","contact:website":"http://www.s-bahn-berlin.de/fahrplanundnetz/bahnhof/pankow/117","light_rail":"yes","name":"Pankow","network":"Verkehrsverbund Berlin-Brandenburg","network:short":"VBB","official_name":"Berlin-Pankow S-Bahn","operator":"DB InfraGO AG","public_transport":"station","railway":"station","railway:ref":"BPKW","railway:station_category":"5","ref:station":"555","station":"light_rail","train":"yes","uic_name":"Berlin-Pankow","uic_ref":"8089080","wheelchair":"yes","wikidata":"Q653775","wikipedia":"de:Bahnhof Berlin-Pankow"},"geometry":{"type":"Point","coordinates":[13.4103397,52.5662755]}},{"type":"Feature","id":4959163245,"properties":{"osmId":4959163245,"osmType":"node","contact:phone":"+49 30 297 43333","contact:website":"http://www.s-bahn-berlin.de/fahrplanundnetz/bahnhof/botanischer-garten/9","light_rail":"yes","name":"Botanischer Garten","network":"Verkehrsverbund Berlin-Brandenburg","network:short":"VBB","network:wikidata":"Q315451","official_name":"Berlin Botanischer Garten","operator":"DB InfraGO AG","public_transport":"station","railway":"station","railway:ref":"BBGT","railway:station_category":"4","station":"light_rail","toilets:wheelchair":"no","train":"yes","uic_ref":"8089009","wheelchair":"no","wikidata":"Q800498","wikipedia":"de:Bahnhof Berlin Botanischer Garten"},"geometry":{"type":"Point","coordinates":[13.3071282,52.4479557]}},{"type":"Feature","id":5284961126,"properties":{"osmId":5284961126,"osmType":"node","departures_board":"realtime","departures_board:speech_output":"no","light_rail":"yes","name":"Ostkreuz (Ringbahn)","network":"Verkehrsverbund Berlin-Brandenburg","network:short":"VBB","network:wikidata":"Q315451","note":"Bitte die 5 Nodes mit uic_ref in Bezug auf das Eisenbahn-Tagging so lassen und auch die Position nicht verändern. Die beiden Stadtbahn-Nodes BOKS und BOKR werden gerendert.","official_name":"Berlin Ostkreuz (Ringbahn-S)","operator":"DB InfraGO AG","public_transport":"station","railway":"station","railway:ref":"BOK","railway:station_category":"3","ref:station":"4809","site":"Bf","station":"light_rail","train":"yes","uic_name":"Berlin Ostkreuz (S)","uic_ref":"8089028","wheelchair":"yes","wikidata":"Q660045","wikipedia":"de:Bahnhof Berlin Ostkreuz"},"geometry":{"type":"Point","coordinates":[13.4691195,52.5029812]}},{"type":"Feature","id":5320311289,"properties":{"osmId":5320311289,"osmType":"node","level":"-2","light_rail":"yes","name":"S Friedrichstraße","network":"Verkehrsverbund Berlin-Brandenburg","network:short":"VBB","network:wikidata":"Q315451","operator":"DB InfraGO AG","public_transport":"station","railway":"station","railway:ref":"BFSTT","railway:station_category":"2","ref:ibnr":"8011306","ref:station":"527","station":"light_rail","surveillance":"indoor","train":"yes","website":"https://sbahn.berlin/fahren/bahnhofsuebersicht/friedrichstrasse/","wheelchair":"yes","wikidata":"Q702402","wikipedia":"de:Bahnhof Berlin Friedrichstraße"},"geometry":{"type":"Point","coordinates":[13.3866879,52.520768]}},{"type":"Feature","id":7103322725,"properties":{"osmId":7103322725,"osmType":"node","contact:phone":"+49 30 297 43333","departures_board":"realtime","departures_board:speech_output":"no","light_rail":"yes","name":"Südkreuz (Nord-Süd)","network":"Verkehrsverbund Berlin-Brandenburg","network:short":"VBB","network:wikidata":"Q315451","official_name":"Berlin Südkreuz (Vorortbahn)","operator":"DB InfraGO AG","public_transport":"station","railway":"station","railway:ref":"BSKV","railway:station_category":"1","ref:station":"4859","station":"light_rail","train":"yes","website":"https://sbahn.berlin/fahren/bahnhofsuebersicht/suedkreuz/","wheelchair":"yes"},"geometry":{"type":"Point","coordinates":[13.3651375,52.476214]}}]}