{"type":"FeatureCollection","features":[{"type":"Feature","id":"schwimmbaeder.1","geometry":{"type":"Point","coordinates":[13.393541,52.52954404]},"geometry_name":"geom","properties":{"id":1,"name_des_schwimmbads":"Stadtbad Mitte - James Simon","adresse":"Gartenstraße 5","postleitzahl":10115,"bezirk":"Mitte","badkategorie":"Hallenbad","hinweis_zu_oeffnungszeiten":"Die Öffnungszeiten können im Sommer variieren.","link_zum_bad":"https://www.berlinerbaeder.de/baeder/detail/stadtbad-mitte-james-simon/ "},"bbox":[13.393541,52.52954404,13.393541,52.52954404]},{"type":"Feature","id":"schwimmbaeder.2","geometry":{"type":"Point","coordinates":[13.404693,52.51248604]},"geometry_name":"geom","properties":{"id":2,"name_des_schwimmbads":"Schwimmhalle Fischerinsel","adresse":"Fischerinsel 11","postleitzahl":10179,"bezirk":"Mitte","badkategorie":"Hallenbad","hinweis_zu_oeffnungszeiten":"Die Öffnungszeiten können im Sommer variieren.","link_zum_bad":"https://www.berlinerbaeder.de/baeder/detail/schwimmhalle-fischerinsel/  "},"bbox":[13.404693,52.51248604,13.404693,52.51248604]},{"type":"Feature","id":"schwimmbaeder.3","geometry":{"type":"Point","coordinates":[13.396222,52.52276404]},"geometry_name":"geom","properties":{"id":3,"name_des_schwimmbads":"Kinderbad Monbijou","adresse":"Oranienburger Straße 78","postleitzahl":10178,"bezirk":"Mitte","badkategorie":"Freibad","hinweis_zu_oeffnungszeiten":"Das Bad ist nur in der Sommersaison geöffnet. ","link_zum_bad":"https://www.berlinerbaeder.de/baeder/detail/kinderbad-monbijou/"},"bbox":[13.396222,52.52276404,13.396222,52.52276404]},{"type":"Feature","id":"schwimmbaeder.4","geometry":{"type":"Point","coordinates":[13.359621,52.52742804]},"geometry_name":"geom","properties":{"id":4,"name_des_schwimmbads":"Stadtbad Tiergarten","adresse":"Seydlitzstraße 7","postleitzahl":10557,"bezirk":"Mitte","badkategorie":"Hallenbad","hinweis_zu_oeffnungszeiten":"Die Öffnungszeiten können im Sommer variieren.","link_zum_bad":"https://www.berlinerbaeder.de/baeder/detail/stadtbad-tiergarten/ "},"bbox":[13.359621,52.52742804,13.359621,52.52742804]},{"type":"Feature","id":"schwimmbaeder.7","geometry":{"type":"Point","coordinates":[13.382076,52.54559404]},"geometry_name":"geom","properties":{"id":7,"name_des_schwimmbads":"Sommerbad Humboldthain","adresse":"Wiesenstraße 1","postleitzahl":13357,"bezirk":"Mitte","badkategorie":"Freibad","hinweis_zu_oeffnungszeiten":"Das Bad ist nur in der Sommersaison geöffnet. ","link_zum_bad":"https://www.berlinerbaeder.de/baeder/detail/sommerbad-humboldthain/ "},"bbox":[13.382076,52.54559404,13.382076,52.54559404]},{"type":"Feature","id":"schwimmbaeder.8","geometry":{"type":"Point","coordinates":[13.32734,52.54435604]},"geometry_name":"geom","properties":{"id":8,"name_des_schwimmbads":"Strandbad Plötzensee","adresse":"Nordufer 26","postleitzahl":13351,"bezirk":"Mitte","badkategorie":"Strandbad","hinweis_zu_oeffnungszeiten":"Das Bad ist nur in der Sommersaison geöffnet. Informationen zu den Öffnungszeiten finden sich auf der Internetseite des Strandbades.  ","link_zum_bad":"https://www.berlinerbaeder.de/baeder/detail/strandbad-ploetzensee/"},"bbox":[13.32734,52.54435604,13.32734,52.54435604]},{"type":"Feature","id":"schwimmbaeder.9","geometry":{"type":"Point","coordinates":[13.36132,52.55687004]},"geometry_name":"geom","properties":{"id":9,"name_des_schwimmbads":"Kombibad Seestraße Hallenbad","adresse":"Seestraße 80","postleitzahl":13347,"bezirk":"Mitte","badkategorie":"Hallenbad","hinweis_zu_oeffnungszeiten":"Die Öffnungszeiten können im Sommer variieren.","link_zum_bad":"https://www.berlinerbaeder.de/baeder/detail/kombibad-seestrasse-hallenbad/"},"bbox":[13.36132,52.55687004,13.36132,52.55687004]},{"type":"Feature","id":"schwimmbaeder.11","geometry":{"type":"Point","coordinates":[13.443238,52.54310504]},"geometry_name":"geom","properties":{"id":11,"name_des_schwimmbads":"Schwimmhalle Thomas-Mann-Straße","adresse":"Thomas-Mann-Straße 3","postleitzahl":10409,"bezirk":"Pankow","badkategorie":"Hallenbad, Schul- und Vereinsbad","hinweis_zu_oeffnungszeiten":"Die Öffnungszeiten können im Sommer variieren.","link_zum_bad":"https://www.berlinerbaeder.de/baeder/detail/schwimmhalle-thomas-mann-strasse/ "},"bbox":[13.443238,52.54310504,13.443238,52.54310504]},{"type":"Feature","id":"schwimmbaeder.12","geometry":{"type":"Point","coordinates":[13.433781,52.54097104]},"geometry_name":"geom","properties":{"id":12,"name_des_schwimmbads":"Schwimmhalle Ernst-Thälmann-Park","adresse":"Lilli-Henoch-Straße 20","postleitzahl":10405,"bezirk":"Pankow","badkategorie":"Hallenbad","hinweis_zu_oeffnungszeiten":"Die Öffnungszeiten können im Sommer variieren.","link_zum_bad":"https://www.berlinerbaeder.de/baeder/detail/schwimmhalle-ernst-thaelmann-park/ "},"bbox":[13.433781,52.54097104,13.433781,52.54097104]},{"type":"Feature","id":"schwimmbaeder.15","geometry":{"type":"Point","coordinates":[13.43213,52.49808404]},"geometry_name":"geom","properties":{"id":15,"name_des_schwimmbads":"Wellenbad am Spreewaldplatz","adresse":"Wiener Str. 59 H","postleitzahl":10999,"bezirk":"Friedrichshain-Kreuzberg","badkategorie":"Hallenbad, Freizeit- und Familienbad","hinweis_zu_oeffnungszeiten":"Das Bad wird saniert. ","link_zum_bad":"https://www.berlinerbaeder.de/baeder/detail/wellenbad-am-spreewaldplatz/"},"bbox":[13.43213,52.49808404,13.43213,52.49808404]},{"type":"Feature","id":"schwimmbaeder.17","geometry":{"type":"Point","coordinates":[13.405773,52.49774004]},"geometry_name":"geom","properties":{"id":17,"name_des_schwimmbads":"Sommerbad Kreuzberg","adresse":"Prinzenstraße 113-119","postleitzahl":10969,"bezirk":"Friedrichshain-Kreuzberg","badkategorie":"Freibad","hinweis_zu_oeffnungszeiten":"Das Bad ist nur in der Sommersaison geöffnet. ","link_zum_bad":"https://www.berlinerbaeder.de/baeder/detail/sommerbad-kreuzberg/ "},"bbox":[13.405773,52.49774004,13.405773,52.49774004]},{"type":"Feature","id":"schwimmbaeder.18","geometry":{"type":"Point","coordinates":[13.354628,52.48520804]},"geometry_name":"geom","properties":{"id":18,"name_des_schwimmbads":"Stadtbad Schöneberg - Hans Rosenthal","adresse":"Hauptstraße 39","postleitzahl":10827,"bezirk":"Tempelhof-Schöneberg","badkategorie":"Hallenbad, Freizeit- und Familienbad","hinweis_zu_oeffnungszeiten":"Das Bad wird saniert. ","link_zum_bad":"https://www.berlinerbaeder.de/baeder/detail/stadtbad-schoeneberg-hans-rosenthal/"},"bbox":[13.354628,52.48520804,13.354628,52.48520804]},{"type":"Feature","id":"schwimmbaeder.19","geometry":{"type":"Point","coordinates":[13.35547,52.47655604]},"geometry_name":"geom","properties":{"id":19,"name_des_schwimmbads":"Sport- und Lehrschwimmhalle Schöneberg","adresse":"Sachsendamm 11","postleitzahl":10829,"bezirk":"Tempelhof-Schöneberg","badkategorie":"Hallenbad, Schul- und Vereinsbad","hinweis_zu_oeffnungszeiten":"Die Öffnungszeiten können im Sommer variieren.","link_zum_bad":"https://www.berlinerbaeder.de/baeder/detail/sport-und-lehrschwimmhalle-schoeneberg/ "},"bbox":[13.35547,52.47655604,13.35547,52.47655604]},{"type":"Feature","id":"schwimmbaeder.20","geometry":{"type":"Point","coordinates":[13.274509,52.54388004]},"geometry_name":"geom","properties":{"id":20,"name_des_schwimmbads":"Strandbad Jungfernheide","adresse":"Jungfernheideweg 60","postleitzahl":13629,"bezirk":"Charlottenburg-Wilmersdorf","badkategorie":"Strandbad","hinweis_zu_oeffnungszeiten":"Informationen zu den Öffnungszeiten finden sich auf der Internetseite des Strandbades. ","link_zum_bad":"https://www.berlinerbaeder.de/baeder/detail/strandbad-jungfernheide/"},"bbox":[13.274509,52.54388004,13.274509,52.54388004]},{"type":"Feature","id":"schwimmbaeder.21","geometry":{"type":"Point","coordinates":[13.308833,52.51452504]},"geometry_name":"geom","properties":{"id":21,"name_des_schwimmbads":"Stadtbad Charlottenburg -Alte Halle-","adresse":"Krumme Straße 10","postleitzahl":10585,"bezirk":"Charlottenburg-Wilmersdorf","badkategorie":"Hallenbad","hinweis_zu_oeffnungszeiten":"Die Öffnungszeiten können im Sommer variieren.","link_zum_bad":"https://www.berlinerbaeder.de/baeder/detail/stadtbad-charlottenburg-alte-halle/"},"bbox":[13.308833,52.51452504,13.308833,52.51452504]},{"type":"Feature","id":"schwimmbaeder.23","geometry":{"type":"Point","coordinates":[13.239056,52.51662904]},"geometry_name":"geom","properties":{"id":23,"name_des_schwimmbads":"Schwimmhalle Forumbad Olympiastadion","adresse":"Hanns-Braun-Straße","postleitzahl":14053,"bezirk":"Charlottenburg-Wilmersdorf","badkategorie":"Schul- und Vereinsbad","hinweis_zu_oeffnungszeiten":"Kein öffentlicher Badebetrieb.","link_zum_bad":"https://www.berlinerbaeder.de/baeder/detail/schwimmhalle-forumbad-olympiastadion/ "},"bbox":[13.239056,52.51662904,13.239056,52.51662904]},{"type":"Feature","id":"schwimmbaeder.24","geometry":{"type":"Point","coordinates":[13.239814,52.51458504]},"geometry_name":"geom","properties":{"id":24,"name_des_schwimmbads":"Sommerbad Olympiastadion","adresse":"Olympischer Platz 3","postleitzahl":14053,"bezirk":"Charlottenburg-Wilmersdorf","badkategorie":"Freibad","hinweis_zu_oeffnungszeiten":"Das Bad ist nur in der Sommersaison geöffnet. ","link_zum_bad":"https://www.berlinerbaeder.de/baeder/detail/sommerbad-olympiastadion/ "},"bbox":[13.239814,52.51458504,13.239814,52.51458504]},{"type":"Feature","id":"schwimmbaeder.26","geometry":{"type":"Point","coordinates":[13.194603,52.55475004]},"geometry_name":"geom","properties":{"id":26,"name_des_schwimmbads":"Stadtbad Spandau Nord","adresse":"Radelandstraße 1","postleitzahl":13589,"bezirk":"Spandau","badkategorie":"Hallenbad","hinweis_zu_oeffnungszeiten":"Die Öffnungszeiten können im Sommer variieren.","link_zum_bad":"https://www.berlinerbaeder.de/baeder/detail/stadtbad-spandau-nord/ "},"bbox":[13.194603,52.55475004,13.194603,52.55475004]},{"type":"Feature","id":"schwimmbaeder.27","geometry":{"type":"Point","coordinates":[13.196934,52.53331804]},"geometry_name":"geom","properties":{"id":27,"name_des_schwimmbads":"Sommerbad Staaken-West","adresse":"Brunsbüttler Damm 443","postleitzahl":13591,"bezirk":"Spandau","badkategorie":"Freibad","hinweis_zu_oeffnungszeiten":"Das Bad ist nur in der Sommersaison geöffnet. ","link_zum_bad":"https://www.berlinerbaeder.de/baeder/detail/sommerbad-staaken-west/ "},"bbox":[13.196934,52.53331804,13.196934,52.53331804]},{"type":"Feature","id":"schwimmbaeder.28","geometry":{"type":"Point","coordinates":[13.188406,52.51820904]},"geometry_name":"geom","properties":{"id":28,"name_des_schwimmbads":"Kombibad Spandau Süd Hallenbad","adresse":"Gatower Straße 19","postleitzahl":13595,"bezirk":"Spandau","badkategorie":"Hallenbad","hinweis_zu_oeffnungszeiten":"Die Öffnungszeiten können im Sommer variieren.","link_zum_bad":"https://www.berlinerbaeder.de/baeder/detail/kombibad-spandau-sued-hallenbad/ "},"bbox":[13.188406,52.51820904,13.188406,52.51820904]},{"type":"Feature","id":"schwimmbaeder.29","geometry":{"type":"Point","coordinates":[13.314487,52.48050904]},"geometry_name":"geom","properties":{"id":29,"name_des_schwimmbads":"Stadtbad Wilmersdorf I","adresse":"Mecklenburgische Straße 80","postleitzahl":10713,"bezirk":"Charlottenburg-Wilmersdorf","badkategorie":"Hallenbad","hinweis_zu_oeffnungszeiten":"Die Öffnungszeiten können im Sommer variieren.","link_zum_bad":"https://www.berlinerbaeder.de/baeder/detail/stadtbad-wilmersdorf-i/ "},"bbox":[13.314487,52.48050904,13.314487,52.48050904]},{"type":"Feature","id":"schwimmbaeder.30","geometry":{"type":"Point","coordinates":[13.301005,52.48597904]},"geometry_name":"geom","properties":{"id":30,"name_des_schwimmbads":"Stadtbad Wilmersdorf II","adresse":"Fritz-Wildung-Straße 7","postleitzahl":14199,"bezirk":"Charlottenburg-Wilmersdorf","badkategorie":"Hallenbad, Schul- und Vereinsbad","hinweis_zu_oeffnungszeiten":"Die Öffnungszeiten können im Sommer variieren.","link_zum_bad":"https://www.berlinerbaeder.de/baeder/detail/stadtbad-wilmersdorf-ii/ "},"bbox":[13.301005,52.48597904,13.301005,52.48597904]},{"type":"Feature","id":"schwimmbaeder.31","geometry":{"type":"Point","coordinates":[13.302201,52.48179504]},"geometry_name":"geom","properties":{"id":31,"name_des_schwimmbads":"Sommerbad Wilmersdorf","adresse":"Forckenbeckstraße 14","postleitzahl":14199,"bezirk":"Charlottenburg-Wilmersdorf","badkategorie":"Freibad","hinweis_zu_oeffnungszeiten":"Das Bad ist nur in der Sommersaison geöffnet. ","link_zum_bad":"https://www.berlinerbaeder.de/baeder/detail/sommerbad-wilmersdorf/ "},"bbox":[13.302201,52.48179504,13.302201,52.48179504]},{"type":"Feature","id":"schwimmbaeder.32","geometry":{"type":"Point","coordinates":[13.282339,52.49406304]},"geometry_name":"geom","properties":{"id":32,"name_des_schwimmbads":"Strandbad Halensee","adresse":"Koenigsallee 5 a-b","postleitzahl":14193,"bezirk":"Charlottenburg-Wilmersdorf","badkategorie":"Strandbad","hinweis_zu_oeffnungszeiten":"Informationen zu den Öffnungszeiten finden sich auf der Internetseite des Strandbades. ","link_zum_bad":"https://www.berlinerbaeder.de/baeder/detail/strandbad-halensee/"},"bbox":[13.282339,52.49406304,13.282339,52.49406304]},{"type":"Feature","id":"schwimmbaeder.34","geometry":{"type":"Point","coordinates":[13.267723,52.45376304]},"geometry_name":"geom","properties":{"id":34,"name_des_schwimmbads":"Schwimmhalle Hüttenweg ","adresse":"Hüttenweg 41","postleitzahl":14195,"bezirk":"Steglitz-Zehlendorf","badkategorie":"Hallenbad, Schul- und Vereinsbad","hinweis_zu_oeffnungszeiten":"Die Öffnungszeiten können im Sommer variieren.","link_zum_bad":"https://www.berlinerbaeder.de/baeder/detail/schwimmhalle-huettenweg/ "},"bbox":[13.267723,52.45376304,13.267723,52.45376304]},{"type":"Feature","id":"schwimmbaeder.35","geometry":{"type":"Point","coordinates":[13.179439,52.43817504]},"geometry_name":"geom","properties":{"id":35,"name_des_schwimmbads":"Strandbad Wannsee","adresse":"Wannseebadweg 25","postleitzahl":14129,"bezirk":"Steglitz-Zehlendorf","badkategorie":"Strandbad","hinweis_zu_oeffnungszeiten":"Die Öffnungszeiten können im Sommer variieren.","link_zum_bad":"https://www.berlinerbaeder.de/baeder/detail/strandbad-wannsee/ "},"bbox":[13.179439,52.43817504,13.179439,52.43817504]},{"type":"Feature","id":"schwimmbaeder.36","geometry":{"type":"Point","coordinates":[13.347254,52.57550904]},"geometry_name":"geom","properties":{"id":36,"name_des_schwimmbads":"Paracelsus-Bad","adresse":"Roedernallee 200-204","postleitzahl":13407,"bezirk":"Reinickendorf","badkategorie":"Hallenbad","hinweis_zu_oeffnungszeiten":"Das Bad wird saniert. ","link_zum_bad":"https://www.berlinerbaeder.de/baeder/detail/paracelsus-bad/"},"bbox":[13.347254,52.57550904,13.347254,52.57550904]},{"type":"Feature","id":"schwimmbaeder.38","geometry":{"type":"Point","coordinates":[13.353184,52.59859904]},"geometry_name":"geom","properties":{"id":38,"name_des_schwimmbads":"Stadtbad Märkisches Viertel","adresse":"Wilhelmsruher Damm 142d","postleitzahl":13439,"bezirk":"Reinickendorf","badkategorie":"Hallenbad","hinweis_zu_oeffnungszeiten":"Die Öffnungszeiten können im Sommer variieren.","link_zum_bad":"https://www.berlinerbaeder.de/baeder/detail/stadtbad-maerkisches-viertel/ "},"bbox":[13.353184,52.59859904,13.353184,52.59859904]},{"type":"Feature","id":"schwimmbaeder.39","geometry":{"type":"Point","coordinates":[13.335334,52.61821604]},"geometry_name":"geom","properties":{"id":39,"name_des_schwimmbads":"Strandbad Lübars","adresse":"Am Freibad 9","postleitzahl":13469,"bezirk":"Reinickendorf","badkategorie":"Strandbad","hinweis_zu_oeffnungszeiten":"Informationen zu den Öffnungszeiten finden sich auf der Internetseite des Strandbades. ","link_zum_bad":"https://www.berlinerbaeder.de/baeder/detail/strandbad-luebars/"},"bbox":[13.335334,52.61821604,13.335334,52.61821604]},{"type":"Feature","id":"schwimmbaeder.40","geometry":{"type":"Point","coordinates":[13.244339,52.57831604]},"geometry_name":"geom","properties":{"id":40,"name_des_schwimmbads":"Strandbad Tegeler See","adresse":"Schwarzer Weg 95","postleitzahl":13505,"bezirk":"Reinickendorf","badkategorie":"Strandbad","hinweis_zu_oeffnungszeiten":"Informationen zu den Öffnungszeiten finden sich auf der Internetseite des Strandbades. ","link_zum_bad":"https://www.berlinerbaeder.de/baeder/detail/strandbad-tegeler-see/"},"bbox":[13.244339,52.57831604,13.244339,52.57831604]},{"type":"Feature","id":"schwimmbaeder.42","geometry":{"type":"Point","coordinates":[13.343338,52.44194604]},"geometry_name":"geom","properties":{"id":42,"name_des_schwimmbads":"Stadtbad Lankwitz","adresse":"Leonorenstraße 39","postleitzahl":12247,"bezirk":"Steglitz-Zehlendorf","badkategorie":"Hallenbad, Freizeit- und Familienbad","hinweis_zu_oeffnungszeiten":"Die Öffnungszeiten können im Sommer variieren.","link_zum_bad":"https://www.berlinerbaeder.de/baeder/detail/stadtbad-lankwitz/ "},"bbox":[13.343338,52.44194604,13.343338,52.44194604]},{"type":"Feature","id":"schwimmbaeder.43","geometry":{"type":"Point","coordinates":[13.297825,52.43193404]},"geometry_name":"geom","properties":{"id":43,"name_des_schwimmbads":"Schwimmhalle Finckensteinallee","adresse":"Finckensteinallee 73","postleitzahl":12205,"bezirk":"Steglitz-Zehlendorf","badkategorie":"Hallenbad","hinweis_zu_oeffnungszeiten":"Die Öffnungszeiten können im Sommer variieren.","link_zum_bad":"https://www.berlinerbaeder.de/baeder/detail/schwimmhalle-finckensteinallee/ "},"bbox":[13.297825,52.43193404,13.297825,52.43193404]},{"type":"Feature","id":"schwimmbaeder.45","geometry":{"type":"Point","coordinates":[13.351495,52.45590904]},"geometry_name":"geom","properties":{"id":45,"name_des_schwimmbads":"Sommerbad am Insulaner","adresse":"Munsterdamm 80","postleitzahl":12169,"bezirk":"Steglitz-Zehlendorf","badkategorie":"Freibad","hinweis_zu_oeffnungszeiten":"Das Bad ist nur in der Sommersaison geöffnet. ","link_zum_bad":"https://www.berlinerbaeder.de/baeder/detail/sommerbad-am-insulaner/ "},"bbox":[13.351495,52.45590904,13.351495,52.45590904]},{"type":"Feature","id":"schwimmbaeder.46","geometry":{"type":"Point","coordinates":[13.395118,52.46196704]},"geometry_name":"geom","properties":{"id":46,"name_des_schwimmbads":"Stadtbad Tempelhof","adresse":"Götzstraße 14-18","postleitzahl":12099,"bezirk":"Tempelhof-Schöneberg","badkategorie":"Hallenbad, Schul- und Vereinsbad","hinweis_zu_oeffnungszeiten":"Die Öffnungszeiten können im Sommer variieren.","link_zum_bad":"https://www.berlinerbaeder.de/baeder/detail/stadtbad-tempelhof/ "},"bbox":[13.395118,52.46196704,13.395118,52.46196704]},{"type":"Feature","id":"schwimmbaeder.47","geometry":{"type":"Point","coordinates":[13.401606,52.41999204]},"geometry_name":"geom","properties":{"id":47,"name_des_schwimmbads":"Kombibad Mariendorf - Hallenbad","adresse":"Ankogelweg 95","postleitzahl":12107,"bezirk":"Tempelhof-Schöneberg","badkategorie":"Hallenbad","hinweis_zu_oeffnungszeiten":"Das Bad wird saniert. ","link_zum_bad":"https://www.berlinerbaeder.de/baeder/detail/kombibad-mariendorf-hallenbad/"},"bbox":[13.401606,52.41999204,13.401606,52.41999204]},{"type":"Feature","id":"schwimmbaeder.48","geometry":{"type":"Point","coordinates":[13.397263,52.44372004]},"geometry_name":"geom","properties":{"id":48,"name_des_schwimmbads":"Sommerbad Mariendorf","adresse":"Rixdorfer Straße 130","postleitzahl":12109,"bezirk":"Tempelhof-Schöneberg","badkategorie":"Freibad","hinweis_zu_oeffnungszeiten":"Das Bad ist nur in der Sommersaison geöffnet. ","link_zum_bad":"https://www.berlinerbaeder.de/baeder/detail/sommerbad-mariendorf/ "},"bbox":[13.397263,52.44372004,13.397263,52.44372004]},{"type":"Feature","id":"schwimmbaeder.49","geometry":{"type":"Point","coordinates":[13.439732,52.47919504]},"geometry_name":"geom","properties":{"id":49,"name_des_schwimmbads":"Stadtbad Neukölln","adresse":"Ganghofer Straße 3","postleitzahl":12043,"bezirk":"Neukölln","badkategorie":"Hallenbad","hinweis_zu_oeffnungszeiten":"Die Öffnungszeiten können im Sommer variieren.","link_zum_bad":"https://www.berlinerbaeder.de/baeder/detail/stadtbad-neukoelln/ "},"bbox":[13.439732,52.47919504,13.439732,52.47919504]},{"type":"Feature","id":"schwimmbaeder.50","geometry":{"type":"Point","coordinates":[13.473949,52.44010504]},"geometry_name":"geom","properties":{"id":50,"name_des_schwimmbads":"Sportbad Britz","adresse":"Kleiberweg 3","postleitzahl":12359,"bezirk":"Neukölln","badkategorie":"Freibad","hinweis_zu_oeffnungszeiten":"Das Bad ist nur in der Sommersaison geöffnet. ","link_zum_bad":"https://www.berlinerbaeder.de/baeder/detail/sportbad-britz/ "},"bbox":[13.473949,52.44010504,13.473949,52.44010504]},{"type":"Feature","id":"schwimmbaeder.51","geometry":{"type":"Point","coordinates":[13.4169,52.48026804]},"geometry_name":"geom","properties":{"id":51,"name_des_schwimmbads":"Sommerbad Neukölln","adresse":"Columbiadamm 160","postleitzahl":10965,"bezirk":"Neukölln","badkategorie":"Freibad","hinweis_zu_oeffnungszeiten":"Das Bad ist nur in der Sommersaison geöffnet. ","link_zum_bad":"https://www.berlinerbaeder.de/baeder/detail/sommerbad-neukoelln/ "},"bbox":[13.4169,52.48026804,13.4169,52.48026804]},{"type":"Feature","id":"schwimmbaeder.52","geometry":{"type":"Point","coordinates":[13.469445,52.42855104]},"geometry_name":"geom","properties":{"id":52,"name_des_schwimmbads":"Kombibad Gropiusstadt - Hallenbad","adresse":"Lipschitzallee 27-33","postleitzahl":12351,"bezirk":"Neukölln","badkategorie":"Hallenbad","hinweis_zu_oeffnungszeiten":"Die Öffnungszeiten können im Sommer variieren.","link_zum_bad":"https://www.berlinerbaeder.de/baeder/detail/kombibad-gropiusstadt-hallenbad/ "},"bbox":[13.469445,52.42855104,13.469445,52.42855104]},{"type":"Feature","id":"schwimmbaeder.54","geometry":{"type":"Point","coordinates":[13.494177,52.47020804]},"geometry_name":"geom","properties":{"id":54,"name_des_schwimmbads":"Schwimmhalle Baumschulenweg","adresse":"Neue Krugallee 209","postleitzahl":12437,"bezirk":"Treptow-Köpenick","badkategorie":"Hallenbad, Schul- und Vereinsbad","hinweis_zu_oeffnungszeiten":"Die Öffnungszeiten können im Sommer variieren.","link_zum_bad":"https://www.berlinerbaeder.de/baeder/detail/schwimmhalle-baumschulenweg/ "},"bbox":[13.494177,52.47020804,13.494177,52.47020804]},{"type":"Feature","id":"schwimmbaeder.56","geometry":{"type":"Point","coordinates":[13.630605,52.44650204]},"geometry_name":"geom","properties":{"id":56,"name_des_schwimmbads":"Strandbad Friedrichshagen","adresse":"Müggelseedamm 216","postleitzahl":12587,"bezirk":"Treptow-Köpenick","badkategorie":"Strandbad","hinweis_zu_oeffnungszeiten":"Das Bad ist nur in der Sommersaison geöffnet. Informationen zu den Öffnungszeiten finden sich auf der Internetseite des Strandbades.  ","link_zum_bad":"https://www.berlinerbaeder.de/baeder/detail/strandbad-friedrichshagen/"},"bbox":[13.630605,52.44650204,13.630605,52.44650204]},{"type":"Feature","id":"schwimmbaeder.58","geometry":{"type":"Point","coordinates":[13.599475,52.41541104]},"geometry_name":"geom","properties":{"id":58,"name_des_schwimmbads":"Strandbad Wendenschloss","adresse":"Möllhausenufer 30","postleitzahl":12557,"bezirk":"Treptow-Köpenick","badkategorie":"Strandbad","hinweis_zu_oeffnungszeiten":"Informationen zu den Öffnungszeiten finden sich auf der Internetseite des Strandbades. ","link_zum_bad":"https://www.berlinerbaeder.de/baeder/detail/strandbad-wendenschloss/"},"bbox":[13.599475,52.41541104,13.599475,52.41541104]},{"type":"Feature","id":"schwimmbaeder.59","geometry":{"type":"Point","coordinates":[13.606855,52.40887704]},"geometry_name":"geom","properties":{"id":59,"name_des_schwimmbads":"Strandbad Grünau","adresse":"Sportpromenade 9","postleitzahl":12527,"bezirk":"Treptow-Köpenick","badkategorie":"Strandbad","hinweis_zu_oeffnungszeiten":"Informationen zu den Öffnungszeiten finden sich auf der Internetseite des Strandbades. ","link_zum_bad":"https://www.berlinerbaeder.de/baeder/detail/strandbad-gruenau/"},"bbox":[13.606855,52.40887704,13.606855,52.40887704]},{"type":"Feature","id":"schwimmbaeder.60","geometry":{"type":"Point","coordinates":[13.539519,52.46007704]},"geometry_name":"geom","properties":{"id":60,"name_des_schwimmbads":"Kleine Schwimmhalle Wuhlheide","adresse":"An der Wuhlheide 161","postleitzahl":12459,"bezirk":"Treptow-Köpenick","badkategorie":"Hallenbad","hinweis_zu_oeffnungszeiten":"Die Öffnungszeiten können im Sommer variieren.","link_zum_bad":"https://www.berlinerbaeder.de/baeder/detail/kleine-schwimmhalle-wuhlheide/ "},"bbox":[13.539519,52.46007704,13.539519,52.46007704]},{"type":"Feature","id":"schwimmbaeder.61","geometry":{"type":"Point","coordinates":[13.587684,52.44241004]},"geometry_name":"geom","properties":{"id":61,"name_des_schwimmbads":"Schwimmhalle Allendeviertel","adresse":"Pablo-Neruda-Straße 5","postleitzahl":12559,"bezirk":"Treptow-Köpenick","badkategorie":"Hallenbad","hinweis_zu_oeffnungszeiten":"Die Öffnungszeiten können im Sommer variieren.","link_zum_bad":"https://www.berlinerbaeder.de/baeder/detail/schwimmhalle-allendeviertel/ "},"bbox":[13.587684,52.44241004,13.587684,52.44241004]},{"type":"Feature","id":"schwimmbaeder.62","geometry":{"type":"Point","coordinates":[13.519194,52.47027704]},"geometry_name":"geom","properties":{"id":62,"name_des_schwimmbads":"Sommerbad Wuhlheide","adresse":"Treskowallee 211","postleitzahl":12459,"bezirk":"Treptow-Köpenick","badkategorie":"Freibad","hinweis_zu_oeffnungszeiten":"Das Bad ist nur in der Sommersaison geöffnet. ","link_zum_bad":"https://www.berlinerbaeder.de/baeder/detail/sommerbad-wuhlheide/ "},"bbox":[13.519194,52.47027704,13.519194,52.47027704]},{"type":"Feature","id":"schwimmbaeder.64","geometry":{"type":"Point","coordinates":[13.515829,52.49565904]},"geometry_name":"geom","properties":{"id":64,"name_des_schwimmbads":"Schwimmhalle Sewanstraße","adresse":"Sewanstraße 229","postleitzahl":10319,"bezirk":"Lichtenberg","badkategorie":"Hallenbad","hinweis_zu_oeffnungszeiten":"Die Öffnungszeiten können im Sommer variieren.","link_zum_bad":"https://www.berlinerbaeder.de/baeder/detail/schwimmhalle-sewanstrasse/ "},"bbox":[13.515829,52.49565904,13.515829,52.49565904]},{"type":"Feature","id":"schwimmbaeder.65","geometry":{"type":"Point","coordinates":[13.472027,52.53073204]},"geometry_name":"geom","properties":{"id":65,"name_des_schwimmbads":"Schwimmhalle Anton-Saefkow-Platz","adresse":"Anton-Saefkow-Platz 1","postleitzahl":10369,"bezirk":"Lichtenberg","badkategorie":"Hallenbad","hinweis_zu_oeffnungszeiten":"Die Öffnungszeiten können im Sommer variieren.","link_zum_bad":"https://www.berlinerbaeder.de/baeder/detail/schwimmhalle-anton-saefkow-platz/ "},"bbox":[13.472027,52.53073204,13.472027,52.53073204]},{"type":"Feature","id":"schwimmbaeder.67","geometry":{"type":"Point","coordinates":[13.465549,52.55396304]},"geometry_name":"geom","properties":{"id":67,"name_des_schwimmbads":"Strandbad Weißensee","adresse":"Berliner Allee 155","postleitzahl":13088,"bezirk":"Pankow","badkategorie":"Strandbad","hinweis_zu_oeffnungszeiten":"Das Bad ist nur in der Sommersaison geöffnet. ","link_zum_bad":"https://www.berlinerbaeder.de/baeder/detail/strandbad-weissensee/ "},"bbox":[13.465549,52.55396304,13.465549,52.55396304]},{"type":"Feature","id":"schwimmbaeder.68","geometry":{"type":"Point","coordinates":[13.491916,52.62875204]},"geometry_name":"geom","properties":{"id":68,"name_des_schwimmbads":"Schwimmhalle Buch","adresse":"Wolfgang-Heinz-Straße 41","postleitzahl":13125,"bezirk":"Pankow","badkategorie":"Hallenbad","hinweis_zu_oeffnungszeiten":"Die Öffnungszeiten können im Sommer variieren.","link_zum_bad":"https://www.berlinerbaeder.de/baeder/detail/schwimmhalle-buch/ "},"bbox":[13.491916,52.62875204,13.491916,52.62875204]},{"type":"Feature","id":"schwimmbaeder.70","geometry":{"type":"Point","coordinates":[13.413191,52.57582904]},"geometry_name":"geom","properties":{"id":70,"name_des_schwimmbads":"Sommerbad Pankow","adresse":"Wolfshagener Straße 91-93\n","postleitzahl":13187,"bezirk":"Pankow","badkategorie":"Freibad","hinweis_zu_oeffnungszeiten":"Das Bad ist nur in der Sommersaison geöffnet. ","link_zum_bad":"https://www.berlinerbaeder.de/baeder/detail/sommerbad-pankow/ "},"bbox":[13.413191,52.57582904,13.413191,52.57582904]},{"type":"Feature","id":"schwimmbaeder.71","geometry":{"type":"Point","coordinates":[13.541545,52.52796804]},"geometry_name":"geom","properties":{"id":71,"name_des_schwimmbads":"Schwimmhalle Helene-Weigel-Platz \"Helmut Behrendt\"","adresse":"Helene-Weigel-Platz 9","postleitzahl":12681,"bezirk":"Marzahn-Hellersdorf","badkategorie":"Hallenbad","hinweis_zu_oeffnungszeiten":"Die Öffnungszeiten können im Sommer variieren.","link_zum_bad":"https://www.berlinerbaeder.de/baeder/detail/schwimmhalle-helene-weigel-platz-helmut-behrendt/ "},"bbox":[13.541545,52.52796804,13.541545,52.52796804]},{"type":"Feature","id":"schwimmbaeder.72","geometry":{"type":"Point","coordinates":[13.562655,52.55182804]},"geometry_name":"geom","properties":{"id":72,"name_des_schwimmbads":"Kinderbad Marzahn (Platsch)","adresse":"Max-Herrmann-Straße 7","postleitzahl":12687,"bezirk":"Marzahn-Hellersdorf","badkategorie":"Freibad","hinweis_zu_oeffnungszeiten":"Das Bad ist nur in der Sommersaison geöffnet. ","link_zum_bad":"https://www.berlinerbaeder.de/baeder/detail/kinderbad-marzahn-platsch/ "},"bbox":[13.562655,52.55182804,13.562655,52.55182804]},{"type":"Feature","id":"schwimmbaeder.73","geometry":{"type":"Point","coordinates":[13.484221,52.54960504]},"geometry_name":"geom","properties":{"id":73,"name_des_schwimmbads":"Strandbad Orankesee","adresse":"Gertrudstraße 7","postleitzahl":13053,"bezirk":"Lichtenberg","badkategorie":"Strandbad","hinweis_zu_oeffnungszeiten":"Das Bad ist nur in der Sommersaison geöffnet. ","link_zum_bad":"https://www.berlinerbaeder.de/baeder/detail/strandbad-orankesee/ "},"bbox":[13.484221,52.54960504,13.484221,52.54960504]},{"type":"Feature","id":"schwimmbaeder.74","geometry":{"type":"Point","coordinates":[13.503026,52.56631804]},"geometry_name":"geom","properties":{"id":74,"name_des_schwimmbads":"Schwimmhalle Zingster Straße","adresse":"Zingster Straße 16","postleitzahl":13051,"bezirk":"Lichtenberg","badkategorie":"Hallenbad","hinweis_zu_oeffnungszeiten":"Die Öffnungszeiten können im Sommer variieren.","link_zum_bad":"https://www.berlinerbaeder.de/baeder/detail/schwimmhalle-zingster-strasse/"},"bbox":[13.503026,52.56631804,13.503026,52.56631804]},{"type":"Feature","id":"schwimmbaeder.75","geometry":{"type":"Point","coordinates":[13.472435,52.54059104]},"geometry_name":"geom","properties":{"id":75,"name_des_schwimmbads":"Schwimmhalle Sportforum Hohenschönhausen","adresse":"Fritz-Lesch-Straße 24","postleitzahl":13053,"bezirk":"Lichtenberg","badkategorie":"Schul- und Vereinsbad","hinweis_zu_oeffnungszeiten":"Kein öffentlicher Badebetrieb.","link_zum_bad":"https://www.berlinerbaeder.de/baeder/detail/sportforum-hohenschoenhausen/ "},"bbox":[13.472435,52.54059104,13.472435,52.54059104]},{"type":"Feature","id":"schwimmbaeder.76","geometry":{"type":"Point","coordinates":[13.585517,52.52102004]},"geometry_name":"geom","properties":{"id":76,"name_des_schwimmbads":"Schwimmhalle Kaulsdorf","adresse":"Clara-Zetkin-Weg 13","postleitzahl":12619,"bezirk":"Marzahn-Hellersdorf","badkategorie":"Hallenbad","hinweis_zu_oeffnungszeiten":"Die Öffnungszeiten können im Sommer variieren.","link_zum_bad":"https://www.berlinerbaeder.de/baeder/detail/schwimmhalle-kaulsdorf/ "},"bbox":[13.585517,52.52102004,13.585517,52.52102004]},{"type":"Feature","id":"schwimmbaeder.79","geometry":{"type":"Point","coordinates":[13.452628,52.52917204]},"geometry_name":"geom","properties":{"id":79,"name_des_schwimmbads":"SSE  /  Schwimm- und Sprunghalle im Europasportpark ","adresse":"Paul-Heyse-Straße 26","postleitzahl":10407,"bezirk":"Pankow","badkategorie":"Hallenbad","hinweis_zu_oeffnungszeiten":"Die Öffnungszeiten können im Sommer variieren.","link_zum_bad":"https://www.berlinerbaeder.de/baeder/detail/schwimm-und-sprunghalle-im-europasportpark-sse/ "},"bbox":[13.452628,52.52917204,13.452628,52.52917204]},{"type":"Feature","id":"schwimmbaeder.81","geometry":{"type":"Point","coordinates":[13.402198,52.49813304]},"geometry_name":"geom","properties":{"id":81,"name_des_schwimmbads":"Schwimmhalle Kreuzberg","adresse":"Gitschiner Straße 18","postleitzahl":10969,"bezirk":"Friedrichshain-Kreuzberg","badkategorie":"Hallenbad, Schul- und Vereinsbad","hinweis_zu_oeffnungszeiten":"Die Öffnungszeiten können im Sommer variieren.","link_zum_bad":"https://www.berlinerbaeder.de/baeder/detail/schwimmhalle-kreuzberg/ "},"bbox":[13.402198,52.49813304,13.402198,52.49813304]},{"type":"Feature","id":"schwimmbaeder.91","geometry":{"type":"Point","coordinates":[13.36132,52.55687004]},"geometry_name":"geom","properties":{"id":91,"name_des_schwimmbads":"Kombibad Seestraße - Sommerbad","adresse":"Seestraße 80","postleitzahl":13347,"bezirk":"Mitte","badkategorie":"Freibad","hinweis_zu_oeffnungszeiten":"Das Bad ist nur in der Sommersaison geöffnet. ","link_zum_bad":"https://www.berlinerbaeder.de/baeder/detail/kombibad-seestrasse-sommerbad/"},"bbox":[13.36132,52.55687004,13.36132,52.55687004]},{"type":"Feature","id":"schwimmbaeder.281","geometry":{"type":"Point","coordinates":[13.188406,52.51820904]},"geometry_name":"geom","properties":{"id":281,"name_des_schwimmbads":"Kombibad Spandau Süd - Sommerbad","adresse":"Gatower Straße 19","postleitzahl":13595,"bezirk":"Spandau","badkategorie":"Freibad","hinweis_zu_oeffnungszeiten":"Das Bad ist wegen Sanierungsbedarf geschlossen. ","link_zum_bad":"https://www.berlinerbaeder.de/baeder/detail/kombibad-spandau-sued-sommerbad/ "},"bbox":[13.188406,52.51820904,13.188406,52.51820904]},{"type":"Feature","id":"schwimmbaeder.471","geometry":{"type":"Point","coordinates":[13.401606,52.41999204]},"geometry_name":"geom","properties":{"id":471,"name_des_schwimmbads":"Kombibad Mariendorf - Sommerbad ","adresse":"Ankogelweg 95","postleitzahl":12107,"bezirk":"Tempelhof-Schöneberg","badkategorie":"Freibad","hinweis_zu_oeffnungszeiten":"Das Bad wird saniert. ","link_zum_bad":"https://www.berlinerbaeder.de/baeder/detail/kombibad-mariendorf-sommerbad/ "},"bbox":[13.401606,52.41999204,13.401606,52.41999204]},{"type":"Feature","id":"schwimmbaeder.521","geometry":{"type":"Point","coordinates":[13.469445,52.42855104]},"geometry_name":"geom","properties":{"id":521,"name_des_schwimmbads":"Kombibad Gropiusstadt - Sommerbad","adresse":"Lipschitzallee 27-33","postleitzahl":12351,"bezirk":"Neukölln","badkategorie":"Freibad","hinweis_zu_oeffnungszeiten":"Das Bad ist nur in der Sommersaison geöffnet. ","link_zum_bad":"https://www.berlinerbaeder.de/baeder/detail/kombibad-gropiusstadt-sommerbad/ "},"bbox":[13.469445,52.42855104,13.469445,52.42855104]}],"totalFeatures":64,"numberMatched":64,"numberReturned":64,"timeStamp":"2026-05-13T06:37:28.039Z","crs":{"type":"name","properties":{"name":"urn:ogc:def:crs:EPSG::4326"}},"bbox":[13.179439,52.40887704,13.630605,52.62875204]}