{"type":"FeatureCollection","features":[{"type":"Feature","id":27586255,"properties":{"osmId":27586255,"osmType":"node","name":"Ruhleben","operator":"Berliner Verkehrsbetriebe","public_transport":"station","railway":"station","station":"subway","subway":"yes","toilets:wheelchair":"no","wheelchair":"yes","wikidata":"Q656401","wikipedia":"de:U-Bahnhof Ruhleben"},"geometry":{"type":"Point","coordinates":[13.2414191,52.5256744]}},{"type":"Feature","id":29045595,"properties":{"osmId":29045595,"osmType":"node","line":"U9","name":"Amrumer Straße","operator":"Berliner Verkehrsbetriebe","public_transport":"station","railway":"station","station":"subway","subway":"yes","wheelchair":"yes","wikidata":"Q557577","wikipedia":"de:U-Bahnhof Amrumer Straße"},"geometry":{"type":"Point","coordinates":[13.3501546,52.5423332]}},{"type":"Feature","id":29046450,"properties":{"osmId":29046450,"osmType":"node","atm":"yes","atm:operator":"Sparkasse","line":"U9","name":"Zoologischer Garten","network":"Verkehrsverbund Berlin-Brandenburg","network:short":"VBB","network:wikidata":"Q315451","operator":"Berliner Verkehrsbetriebe","operator:short":"BVG","operator:wikidata":"Q99633","public_transport":"station","railway":"station","station":"subway","subway":"yes","train":"yes","wheelchair":"yes"},"geometry":{"type":"Point","coordinates":[13.3330236,52.5058669]}},{"type":"Feature","id":29046970,"properties":{"osmId":29046970,"osmType":"node","name":"Kurfürstendamm","operator":"Berliner Verkehrsbetriebe","public_transport":"station","railway":"station","station":"subway","subway":"yes","toilets:wheelchair":"no","wheelchair":"yes","wikidata":"Q663933","wikipedia":"de:U-Bahnhof Kurfürstendamm"},"geometry":{"type":"Point","coordinates":[13.3314365,52.5038223]}},{"type":"Feature","id":29046976,"properties":{"osmId":29046976,"osmType":"node","atm":"yes","atm:operator":"Bankhaus Lenz","check_date:wheelchair":"2022-08-16","line":"U9","name":"Güntzelstraße","operator":"Berliner Verkehrsbetriebe","public_transport":"station","railway":"station","station":"subway","subway":"yes","wheelchair":"no","wikidata":"Q571563","wikipedia":"de:U-Bahnhof Güntzelstraße"},"geometry":{"type":"Point","coordinates":[13.3310064,52.4920843]}},{"type":"Feature","id":29046979,"properties":{"osmId":29046979,"osmType":"node","atm":"yes","atm:operator":"Sparkasse","line":"U7;U9","name":"Berliner Straße","operator":"Berliner Verkehrsbetriebe","public_transport":"station","railway":"station","station":"subway","subway":"yes","website":"https://www.bvg.de/de/verbindungen/stationsuebersicht/u-berliner-str","wheelchair":"yes","wikidata":"Q637739","wikipedia":"de:U-Bahnhof Berliner Straße"},"geometry":{"type":"Point","coordinates":[13.3310103,52.4873298]}},{"type":"Feature","id":29046999,"properties":{"osmId":29046999,"osmType":"node","level":"-1","line":"U9","name":"Friedrich-Wilhelm-Platz","operator":"Berliner Verkehrsbetriebe","public_transport":"station","railway":"station","station":"subway","subway":"yes","wheelchair":"no","wikidata":"Q559207","wikipedia":"de:U-Bahnhof Friedrich-Wilhelm-Platz"},"geometry":{"type":"Point","coordinates":[13.3287301,52.4721217]}},{"type":"Feature","id":29047043,"properties":{"osmId":29047043,"osmType":"node","line":"U9","name":"Walther-Schreiber-Platz","operator":"Berliner Verkehrsbetriebe","public_transport":"station","railway":"station","station":"subway","subway":"yes","wheelchair":"yes","wikidata":"Q638584","wikipedia":"de:U-Bahnhof Walther-Schreiber-Platz"},"geometry":{"type":"Point","coordinates":[13.3282601,52.4653254]}},{"type":"Feature","id":29047045,"properties":{"osmId":29047045,"osmType":"node","internet_access":"no","line":"U9","name":"Schloßstraße","operator":"Berliner Verkehrsbetriebe","operator:short":"BVG","public_transport":"station","railway":"station","station":"subway","subway":"yes","website":"https://www.bvg.de/de/verbindungen/stationsuebersicht/u-schlossstr","wheelchair":"no","wikidata":"Q554474","wikipedia":"de:U-Bahnhof Schloßstraße"},"geometry":{"type":"Point","coordinates":[13.3250946,52.461481]}},{"type":"Feature","id":29047047,"properties":{"osmId":29047047,"osmType":"node","line":"U9","name":"Rathaus Steglitz","operator":"Berliner Verkehrsbetriebe","public_transport":"station","railway":"station","station":"subway","subway":"yes","toilets:wheelchair":"no","wheelchair":"yes","wikidata":"Q555492","wikipedia":"de:Bahnhof Berlin Rathaus Steglitz"},"geometry":{"type":"Point","coordinates":[13.3209344,52.4567983]}},{"type":"Feature","id":29123754,"properties":{"osmId":29123754,"osmType":"node","atm":"yes","atm:operator":"August Lenz","check_date:wheelchair":"2022-11-06","name":"Theodor-Heuss-Platz","operator":"Berliner Verkehrsbetriebe","public_transport":"station","railway":"station","station":"subway","subway":"yes","website":"https://www.bvg.de/de/verbindungen/stationsuebersicht/u-theodor-heuss-platz","wheelchair":"yes","wikidata":"Q657857","wikipedia":"de:U-Bahnhof Theodor-Heuss-Platz"},"geometry":{"type":"Point","coordinates":[13.2722217,52.5099869]}},{"type":"Feature","id":29123761,"properties":{"osmId":29123761,"osmType":"node","check_date:wheelchair":"2022-11-06","name":"Neu-Westend","operator":"Berliner Verkehrsbetriebe","public_transport":"station","railway":"station","station":"subway","subway":"yes","wheelchair":"no","wikidata":"Q656431","wikipedia":"de:U-Bahnhof Neu-Westend"},"geometry":{"type":"Point","coordinates":[13.2592357,52.5162154]}},{"type":"Feature","id":29123763,"properties":{"osmId":29123763,"osmType":"node","name":"Deutsche Oper","operator":"Berliner Verkehrsbetriebe","public_transport":"station","railway":"station","station":"subway","subway":"yes","surveillance":"indoor","wheelchair":"no","wikidata":"Q869501","wikipedia":"de:U-Bahnhof Deutsche Oper"},"geometry":{"type":"Point","coordinates":[13.3105328,52.511837]}},{"type":"Feature","id":29123764,"properties":{"osmId":29123764,"osmType":"node","internet_access":"wlan","internet_access:fee":"no","name":"Ernst-Reuter-Platz","operator":"Berliner Verkehrsbetriebe","operator:short":"BVG","public_transport":"station","railway":"station","station":"subway","subway":"yes","wheelchair":"no","wikidata":"Q658361","wikipedia":"de:U-Bahnhof Ernst-Reuter-Platz"},"geometry":{"type":"Point","coordinates":[13.3221613,52.5118853]}},{"type":"Feature","id":29190897,"properties":{"osmId":29190897,"osmType":"node","name":"Lindauer Allee","operator":"Berliner Verkehrsbetriebe","public_transport":"station","railway":"station","station":"subway","subway":"yes","wheelchair":"yes","wikidata":"Q555939","wikipedia":"de:U-Bahnhof Lindauer Allee"},"geometry":{"type":"Point","coordinates":[13.3384251,52.5754161]}},{"type":"Feature","id":29494301,"properties":{"osmId":29494301,"osmType":"node","name":"Jannowitzbrücke","operator":"Berliner Verkehrsbetriebe","public_transport":"station","railway":"station","station":"subway","subway":"yes","wheelchair":"yes","wikidata":"Q1647893","wikipedia":"de:Bahnhof Berlin Jannowitzbrücke"},"geometry":{"type":"Point","coordinates":[13.4181732,52.5153554]}},{"type":"Feature","id":29497638,"properties":{"osmId":29497638,"osmType":"node","name":"Innsbrucker Platz","operator":"Berliner Verkehrsbetriebe","public_transport":"station","railway":"station","station":"subway","subway":"yes","wheelchair":"yes","wikidata":"Q3799011","wikipedia":"de:Bahnhof Berlin Innsbrucker Platz"},"geometry":{"type":"Point","coordinates":[13.3436736,52.478987]}},{"type":"Feature","id":29833469,"properties":{"osmId":29833469,"osmType":"node","name":"Bayerischer Platz","operator":"Berliner Verkehrsbetriebe","public_transport":"station","railway":"station","station":"subway","subway":"yes","wheelchair":"yes","wikidata":"Q668574","wikipedia":"de:U-Bahnhof Bayerischer Platz"},"geometry":{"type":"Point","coordinates":[13.3405436,52.4885755]}},{"type":"Feature","id":31048718,"properties":{"osmId":31048718,"osmType":"node","level":"-2","name":"Hermannstraße","operator":"Berliner Verkehrsbetriebe","public_transport":"station","railway":"station","station":"subway","subway":"yes","toilets:wheelchair":"no","wheelchair":"yes","wikidata":"Q21235258","wikipedia":"de:Bahnhof Berlin Hermannstraße"},"geometry":{"type":"Point","coordinates":[13.4314659,52.4672622]}},{"type":"Feature","id":31207787,"properties":{"osmId":31207787,"osmType":"node","atm":"yes","atm:operator":"Sparkasse","name":"Bismarckstraße","operator":"Berliner Verkehrsbetriebe","public_transport":"station","railway":"station","station":"subway","subway":"yes","surveillance":"indoor","wheelchair":"yes","wikidata":"Q686132","wikipedia":"de:U-Bahnhof Bismarckstraße"},"geometry":{"type":"Point","coordinates":[13.3052393,52.5115148]}},{"type":"Feature","id":31207789,"properties":{"osmId":31207789,"osmType":"node","atm":"yes","atm:operator":"Bankhaus Lenz","check_date:wheelchair":"2022-11-06","name":"Richard-Wagner-Platz","operator":"Berliner Verkehrsbetriebe","public_transport":"station","railway":"station","station":"subway","subway":"yes","surveillance":"indoor","website":"https://www.bvg.de/de/verbindungen/stationsuebersicht/u-richard-wagner-platz","wheelchair":"yes","wheelchair:description":"Seit 01.07.2014 hat der Bahnhof einen Fahrstuhl Mittelinsel R Wagner Straße","wikidata":"Q662201","wikipedia":"de:U-Bahnhof Richard-Wagner-Platz"},"geometry":{"type":"Point","coordinates":[13.306588,52.517387]}},{"type":"Feature","id":76474606,"properties":{"osmId":76474606,"osmType":"node","name":"Eisenacher Straße","operator":"Berliner Verkehrsbetriebe","public_transport":"station","railway":"station","station":"subway","subway":"yes","wheelchair":"yes","wikidata":"Q571170","wikipedia":"de:U-Bahnhof Eisenacher Straße"},"geometry":{"type":"Point","coordinates":[13.3501694,52.4895529]}},{"type":"Feature","id":107606908,"properties":{"osmId":107606908,"osmType":"node","name":"Rathaus Reinickendorf","operator":"Berliner Verkehrsbetriebe","public_transport":"station","railway":"station","station":"subway","subway":"yes","wheelchair":"yes","wikidata":"Q554477","wikipedia":"de:U-Bahnhof Rathaus Reinickendorf"},"geometry":{"type":"Point","coordinates":[13.3257334,52.5884057]}},{"type":"Feature","id":129730678,"properties":{"osmId":129730678,"osmType":"node","name":"Südstern","operator":"Berliner Verkehrsbetriebe","public_transport":"station","railway":"station","station":"subway","subway":"yes","wheelchair":"yes","wikidata":"Q656081","wikipedia":"de:U-Bahnhof Südstern"},"geometry":{"type":"Point","coordinates":[13.4076671,52.4892983]}},{"type":"Feature","id":174817813,"properties":{"osmId":174817813,"osmType":"node","name":"Yorckstraße","operator":"Berliner Verkehrsbetriebe","public_transport":"station","railway":"station","station":"subway","subway":"yes","wheelchair":"yes","wikidata":"Q543907","wikipedia":"de:Bahnhof Berlin Yorckstraße"},"geometry":{"type":"Point","coordinates":[13.3706891,52.4929715]}},{"type":"Feature","id":193661797,"properties":{"osmId":193661797,"osmType":"node","name":"Friedrichsfelde","operator":"Berliner Verkehrsbetriebe","operator:short":"BVG","public_transport":"station","railway":"station","station":"subway","subway":"yes","surveillance":"indoor","wheelchair":"yes","wikidata":"Q429781","wikipedia":"de:U-Bahnhof Friedrichsfelde"},"geometry":{"type":"Point","coordinates":[13.5128387,52.5061644]}},{"type":"Feature","id":259845849,"properties":{"osmId":259845849,"osmType":"node","name":"Gneisenaustraße","official_name":"U-Bahnhof Gneisenaustraße","operator":"Berliner Verkehrsbetriebe","public_transport":"station","railway":"station","station":"subway","subway":"yes","wheelchair":"no","wheelchair:source":"http://wheelmap.org","wikidata":"Q668618","wikipedia":"de:U-Bahnhof Gneisenaustraße"},"geometry":{"type":"Point","coordinates":[13.3958247,52.4912895]}},{"type":"Feature","id":316021790,"properties":{"osmId":316021790,"osmType":"node","name":"Kaiserdamm","operator":"Berliner Verkehrsbetriebe","public_transport":"station","railway":"station","station":"subway","subway":"yes","wheelchair":"yes","wikidata":"Q656409","wikipedia":"de:U-Bahnhof Kaiserdamm"},"geometry":{"type":"Point","coordinates":[13.2831263,52.5100921]}},{"type":"Feature","id":557830030,"properties":{"osmId":557830030,"osmType":"node","internet_access":"wlan","name":"Elsterwerdaer Platz","operator":"Berliner Verkehrsbetriebe","public_transport":"station","railway":"station","station":"subway","subway":"yes","surveillance":"indoor","surveillance:type":"camera","wheelchair":"yes","wikidata":"Q551802","wikipedia":"de:U-Bahnhof Elsterwerdaer Platz"},"geometry":{"type":"Point","coordinates":[13.560878,52.5052929]}},{"type":"Feature","id":557840857,"properties":{"osmId":557840857,"osmType":"node","name":"Biesdorf-Süd","operator":"Berliner Verkehrsbetriebe","public_transport":"station","railway":"station","station":"subway","subway":"yes","surveillance":"indoor","surveillance:type":"camera","wheelchair":"yes","wikidata":"Q551805","wikipedia":"de:U-Bahnhof Biesdorf-Süd"},"geometry":{"type":"Point","coordinates":[13.5465321,52.4996047]}},{"type":"Feature","id":1498939809,"properties":{"osmId":1498939809,"osmType":"node","alt_name":"U Rosenthaler Platz","atm":"yes","atm:operator":"Bankhaus Lenz","internet_access":"wlan","name":"Rosenthaler Platz","official_name":"U-Bahnhof Rosenthaler Platz","operator":"Berliner Verkehrsbetriebe","postal_code":"10119","public_transport":"station","railway":"station","station":"subway","subway":"yes","website":"https://www.bvg.de/de/verbindungen/stationsuebersicht/u-rosenthaler-platz","wheelchair":"yes","wikidata":"Q663231","wikipedia":"de:U-Bahnhof Rosenthaler Platz"},"geometry":{"type":"Point","coordinates":[13.4011206,52.5298999]}},{"type":"Feature","id":2102139395,"properties":{"osmId":2102139395,"osmType":"node","name":"Gleisdreieck","operator":"Berliner Verkehrsbetriebe","public_transport":"station","railway":"station","station":"subway","subway":"yes","toilets:wheelchair":"no","wheelchair":"yes","wikidata":"Q678372","wikipedia":"de:U-Bahnhof Gleisdreieck"},"geometry":{"type":"Point","coordinates":[13.3740318,52.4995261]}},{"type":"Feature","id":2461322542,"properties":{"osmId":2461322542,"osmType":"node","departures_board":"realtime","departures_board:speech_output":"no","name":"Gesundbrunnen","operator":"Berliner Verkehrsbetriebe","public_transport":"station","railway":"station","station":"subway","subway":"yes","website":"https://www.bvg.de/de/verbindungen/stationsuebersicht/s-u-gesundbrunnen","wheelchair":"yes"},"geometry":{"type":"Point","coordinates":[13.3883057,52.5488223]}},{"type":"Feature","id":2924245392,"properties":{"osmId":2924245392,"osmType":"node","departures_board":"realtime","departures_board:speech_output":"no","level":"-1","name":"Wedding","public_transport":"station","railway":"station","station":"subway","subway":"yes","wheelchair":"yes","wikidata":"Q638604","wikipedia":"de:Bahnhof Berlin-Wedding"},"geometry":{"type":"Point","coordinates":[13.3650375,52.5430625]}},{"type":"Feature","id":3352091173,"properties":{"osmId":3352091173,"osmType":"node","loc_name":"U Stadtmitte","name":"Stadtmitte","operator":"Berliner Verkehrsbetriebe","public_transport":"station","railway":"station","station":"subway","subway":"yes","wheelchair":"yes","wikidata":"Q660066","wikipedia":"de:U-Bahnhof Stadtmitte"},"geometry":{"type":"Point","coordinates":[13.3896554,52.5120808]}},{"type":"Feature","id":3772787174,"properties":{"osmId":3772787174,"osmType":"node","fixme":"Bahn setzt anderen Wert für Tag wheelchair als Mapper","name":"Seestraße","operator":"Berliner Verkehrsbetriebe","public_transport":"station","railway":"station","station":"subway","subway":"yes","surveillance":"indoor","website":"https://www.bvg.de/de/verbindungen/stationsuebersicht/u-seestr","wheelchair":"no","wikidata":"Q554391","wikipedia":"de:U-Bahnhof Seestraße"},"geometry":{"type":"Point","coordinates":[13.3531176,52.5498029]}},{"type":"Feature","id":3772836700,"properties":{"osmId":3772836700,"osmType":"node","atm":"yes","atm:operator":"Sparkasse","name":"Leopoldplatz","network":"Verkehrsverbund Berlin-Brandenburg","network:short":"VBB","network:wikidata":"Q315451","operator":"Berliner Verkehrsbetriebe","operator:short":"BVG","operator:wikidata":"Q99633","public_transport":"station","railway":"station","station":"subway","subway":"yes","surveillance":"indoor","toilets:wheelchair":"no","train":"yes","website":"https://www.bvg.de/de/verbindungen/stationsuebersicht/u-leopoldplatz","wheelchair":"yes","wikidata":"Q1960809","wikipedia":"de:U-Bahnhof Leopoldplatz"},"geometry":{"type":"Point","coordinates":[13.3591672,52.5463833]}},{"type":"Feature","id":3799307108,"properties":{"osmId":3799307108,"osmType":"node","atm":"yes","atm:operator":"Sparkasse","name":"Frankfurter Allee","operator":"Berliner Verkehrsbetriebe","public_transport":"station","railway":"station","station":"subway","subway":"yes","surveillance":"indoor","wheelchair":"yes","wikidata":"Q552872","wikipedia":"de:Bahnhof Berlin Frankfurter Allee"},"geometry":{"type":"Point","coordinates":[13.4754364,52.5136227]}},{"type":"Feature","id":3820796396,"properties":{"osmId":3820796396,"osmType":"node","description":"U Naturkundemuseum","level":"-1","name":"Naturkundemuseum","note":"name before 2009 December: U Zinnowitzer Straße","platforms":"2","public_transport":"station","railway":"station","station":"subway","subway":"yes","surveillance":"indoor","wheelchair":"yes","wikidata":"Q554399","wikipedia":"de:U-Bahnhof Naturkundemuseum"},"geometry":{"type":"Point","coordinates":[13.3821605,52.5312724]}},{"type":"Feature","id":3844356478,"properties":{"osmId":3844356478,"osmType":"node","departures_board":"realtime","departures_board:speech_output":"no","description":"U Voltastraße","name":"Voltastraße","name:ja":"フォルタ通り","operator":"Berliner Verkehrsbetriebe","public_transport":"station","railway":"station","station":"subway","subway":"yes","wheelchair":"yes","wikidata":"Q663308","wikipedia":"de:U-Bahnhof Voltastraße"},"geometry":{"type":"Point","coordinates":[13.392876,52.5422898]}},{"type":"Feature","id":3844467019,"properties":{"osmId":3844467019,"osmType":"node","check_date:wheelchair":"2022-07-22","name":"Moritzplatz","network":"Verkehrsverbund Berlin-Brandenburg","network:short":"VBB","network:wikidata":"Q315451","operator":"Berliner Verkehrsbetriebe","operator:short":"BVG","operator:wikidata":"Q99633","public_transport":"station","railway":"station","station":"subway","subway":"yes","toilets:wheelchair":"no","train":"yes","uic_name":"Moritzplatz (U), Berlin","uic_ref":"730889","wheelchair":"no","wikidata":"Q374225","wikipedia":"de:U-Bahnhof Moritzplatz"},"geometry":{"type":"Point","coordinates":[13.4107479,52.5036623]}},{"type":"Feature","id":3844501316,"properties":{"osmId":3844501316,"osmType":"node","atm":"yes","atm:operator":"Bankhaus Lenz","name":"Schönleinstraße","operator":"Berliner Verkehrsbetriebe","public_transport":"station","railway":"station","station":"subway","subway":"yes","wheelchair":"no","wikidata":"Q666868","wikipedia":"de:U-Bahnhof Schönleinstraße"},"geometry":{"type":"Point","coordinates":[13.4220572,52.4930552]}},{"type":"Feature","id":3846415853,"properties":{"osmId":3846415853,"osmType":"node","departures_board":"realtime","departures_board:speech_output":"no","name":"Boddinstraße","operator":"Berliner Verkehrsbetriebe","public_transport":"station","railway":"station","station":"subway","subway":"yes","wheelchair":"yes","wikidata":"Q819495","wikipedia":"de:U-Bahnhof Boddinstraße"},"geometry":{"type":"Point","coordinates":[13.425281,52.4801685]}},{"type":"Feature","id":3846471665,"properties":{"osmId":3846471665,"osmType":"node","name":"Leinestraße","operator":"Berliner Verkehrsbetriebe","public_transport":"station","railway":"station","station":"subway","subway":"yes","wheelchair":"yes","wikidata":"Q668563","wikipedia":"de:U-Bahnhof Leinestraße"},"geometry":{"type":"Point","coordinates":[13.4283545,52.4729787]}},{"type":"Feature","id":3846589198,"properties":{"osmId":3846589198,"osmType":"node","name":"Strausberger Platz","operator":"Berliner Verkehrsbetriebe","public_transport":"station","railway":"station","station":"subway","subway":"yes","surveillance":"indoor","wheelchair":"yes","wheelchair:description":"Fahrstuhl","wikidata":"Q570999","wikipedia":"de:U-Bahnhof Strausberger Platz"},"geometry":{"type":"Point","coordinates":[13.4315264,52.5180981]}},{"type":"Feature","id":3846748389,"properties":{"osmId":3846748389,"osmType":"node","name":"Dahlem-Dorf","operator":"Berliner Verkehrsbetriebe","public_transport":"station","railway":"station","station":"subway","subway":"yes","website":"https://www.bvg.de/de/verbindungen/stationsuebersicht/u-dahlem-dorf","wheelchair":"yes","wikidata":"Q668585","wikimedia_commons":"File:Berlin U-Bf Dahlem-Dorf asv2023-06 img1.jpg","wikipedia":"de:U-Bahnhof Dahlem-Dorf"},"geometry":{"type":"Point","coordinates":[13.2897049,52.4574096]}},{"type":"Feature","id":3846755695,"properties":{"osmId":3846755695,"osmType":"node","name":"Weberwiese","public_transport":"station","railway":"station","station":"subway","subway":"yes","surveillance":"indoor","wheelchair":"yes","wikidata":"Q551768","wikipedia":"de:U-Bahnhof Weberwiese"},"geometry":{"type":"Point","coordinates":[13.4447135,52.5167465]}},{"type":"Feature","id":3851450060,"properties":{"osmId":3851450060,"osmType":"node","name":"Grenzallee","operator":"Berliner Verkehrsbetriebe","public_transport":"station","railway":"station","station":"subway","subway":"yes","wheelchair":"yes","wikidata":"Q571836","wikipedia":"de:U-Bahnhof Grenzallee"},"geometry":{"type":"Point","coordinates":[13.4447716,52.4628825]}},{"type":"Feature","id":3854167532,"properties":{"osmId":3854167532,"osmType":"node","name":"Rehberge","operator":"Berliner Verkehrsbetriebe","public_transport":"station","railway":"station","station":"subway","subway":"yes","surveillance":"indoor","wheelchair":"yes","wikidata":"Q253850","wikipedia":"de:U-Bahnhof Rehberge"},"geometry":{"type":"Point","coordinates":[13.3409843,52.5566893]}},{"type":"Feature","id":3854590997,"properties":{"osmId":3854590997,"osmType":"node","alt_name":"U Hallesches Tor","name":"Hallesches Tor","operator":"Berliner Verkehrsbetriebe","public_transport":"station","railway":"station","station":"subway","subway":"yes","wheelchair":"yes","wikidata":"Q658302","wikipedia":"de:U-Bahnhof Hallesches Tor"},"geometry":{"type":"Point","coordinates":[13.3906496,52.4977596]}},{"type":"Feature","id":3854591000,"properties":{"osmId":3854591000,"osmType":"node","heritage":"4","heritage:operator":"lda","lda:criteria":"Baudenkmal","name":"U Potsdamer Platz","operator":"Berliner Verkehrsbetriebe","public_transport":"station","railway":"station","ref:lda":"09095936","station":"subway","subway":"yes","wheelchair":"yes","wikidata":"Q3909578","wikimedia_commons":"Category:U-Bahnhof Potsdamer Platz (Berlin)"},"geometry":{"type":"Point","coordinates":[13.3782147,52.5091586]}},{"type":"Feature","id":3856100108,"properties":{"osmId":3856100108,"osmType":"node","layer":"-3","name":"Hauptbahnhof","operator":"Berliner Verkehrsbetriebe","operator:short":"BVG","public_transport":"station","railway":"station","start_date":"2009-08-09","station":"subway","subway":"yes","surveillance":"public","tactile_paving":"yes","wheelchair":"yes"},"geometry":{"type":"Point","coordinates":[13.3701242,52.5252819]}},{"type":"Feature","id":3856551765,"properties":{"osmId":3856551765,"osmType":"node","name":"Britz-Süd","operator":"Berliner Verkehrsbetriebe","public_transport":"station","railway":"station","station":"subway","subway":"yes","wheelchair":"yes","wikidata":"Q571845","wikipedia":"de:U-Bahnhof Britz-Süd"},"geometry":{"type":"Point","coordinates":[13.4481868,52.4377918]}},{"type":"Feature","id":3856551767,"properties":{"osmId":3856551767,"osmType":"node","check_date:wheelchair":"2022-07-29","name":"Johannisthaler Chaussee","operator":"Berliner Verkehrsbetriebe","public_transport":"station","railway":"station","station":"subway","subway":"yes","wheelchair":"yes","wikidata":"Q638553","wikipedia":"de:U-Bahnhof Johannisthaler Chaussee"},"geometry":{"type":"Point","coordinates":[13.4533376,52.4293213]}},{"type":"Feature","id":3856551769,"properties":{"osmId":3856551769,"osmType":"node","name":"Lipschitzallee","operator":"Berliner Verkehrsbetriebe","public_transport":"station","railway":"station","station":"subway","subway":"yes","wheelchair":"yes","wikidata":"Q571467","wikipedia":"de:U-Bahnhof Lipschitzallee"},"geometry":{"type":"Point","coordinates":[13.4626984,52.4246425]}},{"type":"Feature","id":3856551771,"properties":{"osmId":3856551771,"osmType":"node","name":"Rudow","operator":"Berliner Verkehrsbetriebe","public_transport":"station","railway":"station","station":"subway","subway":"yes","wheelchair":"yes","wikidata":"Q660024","wikipedia":"de:U-Bahnhof Rudow"},"geometry":{"type":"Point","coordinates":[13.4953978,52.41617]}},{"type":"Feature","id":3856551777,"properties":{"osmId":3856551777,"osmType":"node","name":"Zwickauer Damm","operator":"Berliner Verkehrsbetriebe","public_transport":"station","railway":"station","station":"subway","subway":"yes","wheelchair":"yes","wikidata":"Q572096","wikipedia":"de:U-Bahnhof Zwickauer Damm"},"geometry":{"type":"Point","coordinates":[13.4839403,52.4233803]}},{"type":"Feature","id":3858579923,"properties":{"osmId":3858579923,"osmType":"node","name":"Afrikanische Straße","operator":"Berliner Verkehrsbetriebe","public_transport":"station","railway":"station","station":"subway","subway":"yes","surveillance":"indoor","wheelchair":"yes","wikidata":"Q559239","wikipedia":"de:U-Bahnhof Afrikanische Straße"},"geometry":{"type":"Point","coordinates":[13.3346178,52.5602382]}},{"type":"Feature","id":3858818979,"properties":{"osmId":3858818979,"osmType":"node","name":"Kurt-Schumacher-Platz","operator":"Berliner Verkehrsbetriebe","public_transport":"station","railway":"station","station":"subway","subway":"yes","surveillance":"indoor","website":"https://www.bvg.de/de/verbindungen/stationsuebersicht/u-kurt-schumacher-platz","wheelchair":"yes","wikidata":"Q555916","wikipedia":"de:U-Bahnhof Kurt-Schumacher-Platz"},"geometry":{"type":"Point","coordinates":[13.327129,52.5632274]}},{"type":"Feature","id":3858932763,"properties":{"osmId":3858932763,"osmType":"node","check_date:wheelchair":"2022-11-05","name":"Scharnweberstraße","operator":"Berliner Verkehrsbetriebe","public_transport":"station","railway":"station","station":"subway","subway":"yes","surveillance":"outdoor","wheelchair":"yes","wikidata":"Q557586","wikipedia":"de:U-Bahnhof Scharnweberstraße"},"geometry":{"type":"Point","coordinates":[13.3126219,52.5668172]}},{"type":"Feature","id":3859009452,"properties":{"osmId":3859009452,"osmType":"node","heritage":"4","heritage:operator":"lda","name":"Otisstraße","old_name:1958-05-31--1961":"Seidelstraße (Flugplatz Tegel)","old_name:1961--1974-11":"Seidelstraße (Flughafen Tegel)","old_name:1974-11--2003-01-06":"Seidelstraße","operator":"Berliner Verkehrsbetriebe","public_transport":"station","railway":"station","ref:lda":"09012223","start_date":"1958-05-31","station":"subway","subway":"yes","surveillance":"outdoor","wheelchair":"yes","wikidata":"Q557582"},"geometry":{"type":"Point","coordinates":[13.3029254,52.5710338]}},{"type":"Feature","id":3859032226,"properties":{"osmId":3859032226,"osmType":"node","check_date:wheelchair":"2022-05-09","name":"Holzhauser Straße","operator":"Berliner Verkehrsbetriebe","public_transport":"station","railway":"station","station":"subway","subway":"yes","wheelchair":"no","wikidata":"Q557566","wikipedia":"de:U-Bahnhof Holzhauser Straße"},"geometry":{"type":"Point","coordinates":[13.2961132,52.575692]}},{"type":"Feature","id":3862380796,"properties":{"osmId":3862380796,"osmType":"node","name":"Borsigwerke","operator":"Berliner Verkehrsbetriebe","public_transport":"station","railway":"station","station":"subway","subway":"yes","surveillance":"indoor","wheelchair":"no","wikidata":"Q525185","wikipedia":"de:U-Bahnhof Borsigwerke"},"geometry":{"type":"Point","coordinates":[13.2905918,52.5818407]}},{"type":"Feature","id":3862767512,"properties":{"osmId":3862767512,"osmType":"node","level":"-3","name":"Brandenburger Tor","operator":"Berliner Verkehrsbetriebe","public_transport":"station","railway":"station","start_date":"2009-08-09","station":"subway","subway":"yes","wheelchair":"yes","wikidata":"Q477185","wikipedia":"de:Bahnhof Berlin Brandenburger Tor"},"geometry":{"type":"Point","coordinates":[13.3809897,52.5166047]}},{"type":"Feature","id":3865616067,"properties":{"osmId":3865616067,"osmType":"node","atm":"yes","atm:operator":"Sparkasse","layer":"-2","level":"-2","location":"indoor","name":"Neukölln","operator":"Berliner Verkehrsbetriebe","public_transport":"station","railway":"station","station":"subway","subway":"yes","wheelchair":"yes","wikidata":"Q21272767","wikipedia":"de:Bahnhof Berlin-Neukölln"},"geometry":{"type":"Point","coordinates":[13.4418203,52.4685956]}},{"type":"Feature","id":3867910440,"properties":{"osmId":3867910440,"osmType":"node","name":"Weinmeisterstraße","operator":"Berliner Verkehrsbetriebe","postal_code":"10119","public_transport":"station","railway":"station","station":"subway","subway":"yes","wheelchair":"yes","wikidata":"Q661876","wikipedia":"de:U-Bahnhof Weinmeisterstraße"},"geometry":{"type":"Point","coordinates":[13.4050194,52.5254666]}},{"type":"Feature","id":3869306768,"properties":{"osmId":3869306768,"osmType":"node","internet_access":"wlan","layer":"-2","level":"-2","name":"U Friedrichstraße","public_transport":"station","railway":"station","station":"subway","subway":"yes","website":"https://www.bvg.de/de/verbindungen/stationsuebersicht/s-u-friedrichstr","wheelchair":"yes","wikidata":"Q3753274","wikipedia":"de:Bahnhof Berlin Friedrichstraße"},"geometry":{"type":"Point","coordinates":[13.3882862,52.5202635]}},{"type":"Feature","id":3870475231,"properties":{"osmId":3870475231,"osmType":"node","internet_access":"wlan","internet_access:fee":"no","name":"Anton-Wilhelm-Amo-Straße","old_name:1908-1950":"Kaiserhof","old_name:1950-1986":"Thälmannplatz","old_name:1986-1991":"Otto-Grotewohl-Straße","old_name:1991-2025":"Mohrenstraße","operator":"Berliner Verkehrsbetriebe","public_transport":"station","railway":"station","station":"subway","subway":"yes","wheelchair":"yes","wikidata":"Q658391","wikipedia":"de:U-Bahnhof Anton-Wilhelm-Amo-Straße"},"geometry":{"type":"Point","coordinates":[13.3850915,52.5117915]}},{"type":"Feature","id":3870914569,"properties":{"osmId":3870914569,"osmType":"node","internet_access":"wlan","internet_access:fee":"no","name":"Warschauer Straße","name:en":"Warschauer Straße Station","operator":"Berliner Verkehrsbetriebe","public_transport":"station","railway":"station","station":"subway","subway":"yes","wheelchair":"limited","wikidata":"Q664036","wikipedia":"de:Bahnhof Berlin Warschauer Straße"},"geometry":{"type":"Point","coordinates":[13.4490065,52.505014]}},{"type":"Feature","id":3872477458,"properties":{"osmId":3872477458,"osmType":"node","internet_access":"wlan","internet_access:fee":"no","name":"Krumme Lanke","operator":"Berliner Verkehrsbetriebe","operator:short":"BVG","public_transport":"station","railway":"station","start_date":"1929-12-22","station":"subway","subway":"yes","website":"https://fahrinfo.bvg.de/barrierefrei/bin/stboard.bin/dn?ld=0.1&L=vs_bf&seqnr=3&ident=kf.054771.1341593343&time=22:50&input=9715305&start=1&view=STATIONINFO&","wheelchair":"yes","wikidata":"Q663945","wikipedia":"de:U-Bahnhof Krumme Lanke"},"geometry":{"type":"Point","coordinates":[13.2413921,52.4434481]}},{"type":"Feature","id":3875882001,"properties":{"osmId":3875882001,"osmType":"node","name":"Görlitzer Bahnhof","name:ja":"ゲルリッツァー駅","network":"Verkehrsverbund Berlin-Brandenburg","network:short":"VBB","network:wikidata":"Q315451","operator":"Berliner Verkehrsbetriebe","operator:short":"BVG","operator:wikidata":"Q99633","phone":"+49 30 19 44 9","public_transport":"station","railway":"station","station":"subway","subway":"yes","surveillance":"indoor","train":"yes","website":"https://www.bvg.de/index.php/de/3729/name/U-Bahnlinie+U1/area/89395.html","wheelchair":"no","wikidata":"Q597759","wikipedia":"de:U-Bahnhof Görlitzer Bahnhof"},"geometry":{"type":"Point","coordinates":[13.4280355,52.4992628]}},{"type":"Feature","id":3876077784,"properties":{"osmId":3876077784,"osmType":"node","name":"Klosterstraße","public_transport":"station","railway":"station","station":"subway","subway":"yes","wheelchair":"yes","wikidata":"Q657893","wikipedia":"de:U-Bahnhof Klosterstraße"},"geometry":{"type":"Point","coordinates":[13.4124323,52.5172347]}},{"type":"Feature","id":3876218098,"properties":{"osmId":3876218098,"osmType":"node","name":"Schillingstraße","operator":"Berliner Verkehrsbetriebe","public_transport":"station","railway":"station","station":"subway","subway":"yes","surveillance":"indoor","wheelchair":"yes","wikidata":"Q552899","wikipedia":"de:U-Bahnhof Schillingstraße"},"geometry":{"type":"Point","coordinates":[13.4211125,52.52079]}},{"type":"Feature","id":3876349058,"properties":{"osmId":3876349058,"osmType":"node","name":"Frankfurter Tor","operator":"Berliner Verkehrsbetriebe","public_transport":"station","railway":"station","station":"subway","subway":"yes","surveillance":"indoor","wheelchair":"yes","wikidata":"Q568627","wikipedia":"de:U-Bahnhof Frankfurter Tor"},"geometry":{"type":"Point","coordinates":[13.4539745,52.515818]}},{"type":"Feature","id":3876481637,"properties":{"osmId":3876481637,"osmType":"node","internet_access":"wlan","name":"Schlesisches Tor","operator":"Berliner Verkehrsbetriebe","public_transport":"station","railway":"station","station":"subway","subway":"yes","wheelchair":"yes","wikidata":"Q602282","wikipedia":"de:U-Bahnhof Schlesisches Tor"},"geometry":{"type":"Point","coordinates":[13.4414625,52.5008341]}},{"type":"Feature","id":3876909306,"properties":{"osmId":3876909306,"osmType":"node","name":"Westhafen","operator":"Berliner Verkehrsbetriebe","public_transport":"station","railway":"station","station":"subway","subway":"yes","wheelchair":"yes","wikidata":"Q465972","wikipedia":"de:Bahnhof Berlin Westhafen"},"geometry":{"type":"Point","coordinates":[13.3425741,52.536735]}},{"type":"Feature","id":3881590700,"properties":{"osmId":3881590700,"osmType":"node","name":"Prinzenstraße","operator":"Berliner Verkehrsbetriebe","public_transport":"station","railway":"station","station":"subway","subway":"yes","wheelchair":"limited","wheelchair:description":"Aufzug nur in Richtung Warschauer Straße","wikidata":"Q689797","wikipedia":"de:U-Bahnhof Prinzenstraße"},"geometry":{"type":"Point","coordinates":[13.40591,52.4983972]}},{"type":"Feature","id":3884823930,"properties":{"osmId":3884823930,"osmType":"node","name":"Alt-Mariendorf","operator":"Berliner Verkehrsbetriebe","public_transport":"station","railway":"station","station":"subway","subway":"yes","wheelchair":"no","wikidata":"Q262168","wikipedia":"de:U-Bahnhof Alt-Mariendorf"},"geometry":{"type":"Point","coordinates":[13.3875138,52.4396754]}},{"type":"Feature","id":3887567777,"properties":{"osmId":3887567777,"osmType":"node","description:old_name":"Historischer Bahnhofsname 1926-1937","name":"Platz der Luftbrücke","old_name":"Kreuzberg","operator":"Berliner Verkehrsbetriebe","public_transport":"station","railway":"station","source:old_name":"Schriftzug innerhalb der Fliesen der Tunnelwand des Bahnhof;abgedeckt durch Plexiglass o.ä.;Abdeckung trägt die in description hinterlegten Angaben","station":"subway","subway":"yes","wheelchair":"no","wikidata":"Q553146","wikipedia":"de:U-Bahnhof Platz der Luftbrücke"},"geometry":{"type":"Point","coordinates":[13.3859508,52.4860843]}},{"type":"Feature","id":3894910680,"properties":{"osmId":3894910680,"osmType":"node","name":"Paracelsus-Bad","operator":"Berliner Verkehrsbetriebe","public_transport":"station","railway":"station","station":"subway","subway":"yes","wheelchair":"yes","wikidata":"Q557562","wikipedia":"de:U-Bahnhof Paracelsus-Bad"},"geometry":{"type":"Point","coordinates":[13.348511,52.5742433]}},{"type":"Feature","id":3895051317,"properties":{"osmId":3895051317,"osmType":"node","atm":"yes","atm:operator":"Bankhaus Lenz","name":"Residenzstraße","operator":"Berliner Verkehrsbetriebe","public_transport":"station","railway":"station","station":"subway","subway":"yes","wheelchair":"no","wikidata":"Q557513","wikipedia":"de:U-Bahnhof Residenzstraße"},"geometry":{"type":"Point","coordinates":[13.3604739,52.5711895]}},{"type":"Feature","id":3895235324,"properties":{"osmId":3895235324,"osmType":"node","name":"Franz-Neumann-Platz","operator":"Berliner Verkehrsbetriebe","public_transport":"station","railway":"station","station":"subway","subway":"yes","wheelchair":"no","wikidata":"Q555992","wikipedia":"de:U-Bahnhof Franz-Neumann-Platz"},"geometry":{"type":"Point","coordinates":[13.3639236,52.5645392]}},{"type":"Feature","id":3896661775,"properties":{"osmId":3896661775,"osmType":"node","name":"Vinetastraße","network":"Verkehrsverbund Berlin-Brandenburg","network:short":"VBB","network:wikidata":"Q315451","operator":"Berliner Verkehrsbetriebe","operator:short":"BVG","operator:wikidata":"Q99633","public_transport":"station","railway":"station","station":"subway","subway":"yes","train":"yes","wheelchair":"yes","wikidata":"Q570906","wikipedia":"de:U-Bahnhof Vinetastraße"},"geometry":{"type":"Point","coordinates":[13.413278,52.5593248]}},{"type":"Feature","id":3898068655,"properties":{"osmId":3898068655,"osmType":"node","name":"Kaiserin-Augusta-Straße","operator":"Berliner Verkehrsbetriebe","public_transport":"station","railway":"station","station":"subway","subway":"yes","website":"https://www.bvg.de/de/verbindungen/stationsuebersicht/u-kaiserin-augusta-str","wheelchair":"yes","wikidata":"Q559226","wikipedia":"de:U-Bahnhof Kaiserin-Augusta-Straße"},"geometry":{"type":"Point","coordinates":[13.3846346,52.4599764]}},{"type":"Feature","id":3898404805,"properties":{"osmId":3898404805,"osmType":"node","name":"Westphalweg","operator":"Berliner Verkehrsbetriebe","platforms":"2","public_transport":"station","railway":"station","station":"subway","subway":"yes","wheelchair":"no","wikidata":"Q554481","wikipedia":"de:U-Bahnhof Westphalweg"},"geometry":{"type":"Point","coordinates":[13.3856905,52.4462674]}},{"type":"Feature","id":3900136339,"properties":{"osmId":3900136339,"osmType":"node","layer":"-2","name":"Kottbusser Tor","name:ja":"コットブッサートーア","operator":"Berliner Verkehrsbetriebe","platforms":"2","public_transport":"station","railway":"station","station":"subway","subway":"yes","surveillance":"indoor","toilets:wheelchair":"no","wheelchair":"yes","wikidata":"Q819768","wikipedia":"de:U-Bahnhof Kottbusser Tor"},"geometry":{"type":"Point","coordinates":[13.4183107,52.4989853]}},{"type":"Feature","id":3900580952,"properties":{"osmId":3900580952,"osmType":"node","name":"Sophie-Charlotte-Platz","operator":"Berliner Verkehrsbetriebe","public_transport":"station","railway":"station","station":"subway","subway":"yes","toilets:wheelchair":"no","wheelchair":"yes","wikidata":"Q657879","wikipedia":"de:U-Bahnhof Sophie-Charlotte-Platz"},"geometry":{"type":"Point","coordinates":[13.2963306,52.5109137]}},{"type":"Feature","id":3901824902,"properties":{"osmId":3901824902,"osmType":"node","name":"Nollendorfplatz","operator":"Berliner Verkehrsbetriebe","public_transport":"station","railway":"station","station":"subway","subway":"yes","surveillance":"outdoor","toilets:wheelchair":"no","website":"https://www.bvg.de/de/verbindungen/stationsuebersicht/u-nollendorfplatz","wheelchair":"yes","wikidata":"Q571039","wikipedia":"de:U-Bahnhof Nollendorfplatz"},"geometry":{"type":"Point","coordinates":[13.3537297,52.4995972]}},{"type":"Feature","id":3904674211,"properties":{"osmId":3904674211,"osmType":"node","name":"Spittelmarkt","operator":"Berliner Verkehrsbetriebe","public_transport":"station","railway":"station","station":"subway","subway":"yes","wheelchair":"yes","wikidata":"Q569489","wikipedia":"de:U-Bahnhof Spittelmarkt"},"geometry":{"type":"Point","coordinates":[13.4041155,52.5112959]}},{"type":"Feature","id":3906622702,"properties":{"osmId":3906622702,"osmType":"node","name":"Kurfürstenstraße","operator":"Berliner Verkehrsbetriebe","public_transport":"station","railway":"station","station":"subway","subway":"yes","wheelchair":"no","wikidata":"Q690203","wikipedia":"de:U-Bahnhof Kurfürstenstraße"},"geometry":{"type":"Point","coordinates":[13.3619411,52.4999599]}},{"type":"Feature","id":3906729688,"properties":{"osmId":3906729688,"osmType":"node","departures_board":"realtime","departures_board:speech_output":"no","name":"Schwartzkopffstraße","public_transport":"station","railway":"station","station":"subway","subway":"yes","surveillance":"indoor","wheelchair":"yes","wheelchair:description":"Fahrstuhl","wikidata":"Q554360","wikipedia":"de:U-Bahnhof Schwartzkopffstraße"},"geometry":{"type":"Point","coordinates":[13.377318,52.5351574]}},{"type":"Feature","id":3916325095,"properties":{"osmId":3916325095,"osmType":"node","name":"Senefelderplatz","network":"Verkehrsverbund Berlin-Brandenburg","network:short":"VBB","network:wikidata":"Q315451","operator":"Berliner Verkehrsbetriebe","operator:short":"BVG","operator:wikidata":"Q99633","public_transport":"station","railway":"station","station":"subway","subway":"yes","train":"yes","wheelchair":"no","wikidata":"Q32661454","wikipedia":"de:U-Bahnhof Senefelderplatz"},"geometry":{"type":"Point","coordinates":[13.4126861,52.5323899]}},{"type":"Feature","id":3918542874,"properties":{"osmId":3918542874,"osmType":"node","name":"Konstanzer Straße","operator":"Berliner Verkehrsbetriebe","public_transport":"station","railway":"station","station":"subway","subway":"yes","surveillance":"indoor","wheelchair":"no","wikidata":"Q571019","wikipedia":"de:U-Bahnhof Konstanzer Straße"},"geometry":{"type":"Point","coordinates":[13.3090745,52.4945315]}},{"type":"Feature","id":3918711741,"properties":{"osmId":3918711741,"osmType":"node","name":"Karl-Marx-Straße","operator":"Berliner Verkehrsbetriebe","public_transport":"station","railway":"station","station":"subway","subway":"yes","wheelchair":"yes","wikidata":"Q519494","wikipedia":"de:U-Bahnhof Karl-Marx-Straße"},"geometry":{"type":"Point","coordinates":[13.4393375,52.4762696]}},{"type":"Feature","id":3928759793,"properties":{"osmId":3928759793,"osmType":"node","name":"Oranienburger Tor","operator":"Berliner Verkehrsbetriebe","public_transport":"station","railway":"station","station":"subway","subway":"yes","wheelchair":"yes","wikidata":"Q571485","wikipedia":"de:U-Bahnhof Oranienburger Tor"},"geometry":{"type":"Point","coordinates":[13.3873583,52.5255998]}},{"type":"Feature","id":3931919580,"properties":{"osmId":3931919580,"osmType":"node","name":"Adenauerplatz","operator":"Berliner Verkehrsbetriebe","public_transport":"station","railway":"station","station":"subway","subway":"yes","surveillance":"indoor","wheelchair":"yes","wikidata":"Q570939","wikipedia":"de:U-Bahnhof Adenauerplatz"},"geometry":{"type":"Point","coordinates":[13.3073226,52.5000028]}},{"type":"Feature","id":3933477396,"properties":{"osmId":3933477396,"osmType":"node","name":"Cottbusser Platz","operator":"Berliner Verkehrsbetriebe","public_transport":"station","railway":"station","station":"subway","subway":"yes","surveillance":"indoor","toilets:wheelchair":"no","wheelchair":"yes","wikidata":"Q557547","wikipedia":"de:U-Bahnhof Cottbusser Platz"},"geometry":{"type":"Point","coordinates":[13.5964015,52.5338331]}},{"type":"Feature","id":3933477399,"properties":{"osmId":3933477399,"osmType":"node","name":"Kaulsdorf-Nord","old_name":"Albert-Norden-Straße","operator":"Berliner Verkehrsbetriebe","public_transport":"station","railway":"station","station":"subway","subway":"yes","surveillance":"indoor","wheelchair":"yes","wikidata":"Q553140","wikipedia":"de:U-Bahnhof Kaulsdorf-Nord"},"geometry":{"type":"Point","coordinates":[13.5889176,52.5211535]}},{"type":"Feature","id":3933477401,"properties":{"osmId":3933477401,"osmType":"node","internet_access:ssid":"BVG Wi-Fi","name":"Magdalenenstraße (Campus für Demokratie)","operator":"Berliner Verkehrsbetriebe","public_transport":"station","railway":"station","station":"subway","subway":"yes","surveillance":"indoor","wheelchair":"yes","wikidata":"Q473901","wikipedia":"de:U-Bahnhof Magdalenenstraße"},"geometry":{"type":"Point","coordinates":[13.4870792,52.5124541]}},{"type":"Feature","id":3933477404,"properties":{"osmId":3933477404,"osmType":"node","name":"Kienberg (Gärten der Welt)","old_name":"U Neue Grottkauer Straße","operator":"Berliner Verkehrsbetriebe","public_transport":"station","railway":"station","station":"subway","subway":"yes","surveillance":"indoor","wheelchair":"yes","wikidata":"Q556003","wikipedia":"de:U-Bahnhof Neue Grottkauer Straße"},"geometry":{"type":"Point","coordinates":[13.5906369,52.5286152]}},{"type":"Feature","id":3933566460,"properties":{"osmId":3933566460,"osmType":"node","line":"U9","name":"Nauener Platz","operator":"Berliner Verkehrsbetriebe","public_transport":"station","railway":"station","station":"subway","subway":"yes","website":"https://www.bvg.de/de/verbindungen/stationsuebersicht/u-nauener-platz","wheelchair":"yes","wikidata":"Q555986","wikipedia":"de:U-Bahnhof Nauener Platz"},"geometry":{"type":"Point","coordinates":[13.3671696,52.5514056]}},{"type":"Feature","id":3933855820,"properties":{"osmId":3933855820,"osmType":"node","name":"Mendelssohn-Bartholdy-Park","operator":"Berliner Verkehrsbetriebe","public_transport":"station","railway":"station","station":"subway","subway":"yes","wheelchair":"yes","wikidata":"Q658405","wikipedia":"de:U-Bahnhof Mendelssohn-Bartholdy-Park"},"geometry":{"type":"Point","coordinates":[13.3748605,52.503724]}},{"type":"Feature","id":3933855823,"properties":{"osmId":3933855823,"osmType":"node","loc_name":"U Möckernbrücke","name":"Möckernbrücke","operator":"Berliner Verkehrsbetriebe","public_transport":"station","railway":"station","station":"subway","subway":"yes","wheelchair":"no","wikidata":"Q704716","wikipedia":"de:U-Bahnhof Möckernbrücke"},"geometry":{"type":"Point","coordinates":[13.383123,52.4986927]}},{"type":"Feature","id":3933855829,"properties":{"osmId":3933855829,"osmType":"node","internet_access":"yes","name":"Pankstraße","operator":"Berliner Verkehrsbetriebe","public_transport":"station","railway":"station","station":"subway","subway":"yes","website":"https://www.bvg.de/de/verbindungen/stationsuebersicht/u-pankstr","wheelchair":"no","wikidata":"Q571380","wikipedia":"de:U-Bahnhof Pankstraße"},"geometry":{"type":"Point","coordinates":[13.3814583,52.5522617]}},{"type":"Feature","id":3935369912,"properties":{"osmId":3935369912,"osmType":"node","internet_access":"wlan","name":"Samariterstraße","operator":"Berliner Verkehrsbetriebe","public_transport":"station","railway":"station","station":"subway","subway":"yes","surveillance":"indoor","toilets:wheelchair":"no","wheelchair":"yes","wikidata":"Q552891","wikipedia":"de:U-Bahnhof Samariterstraße"},"geometry":{"type":"Point","coordinates":[13.4644405,52.5147399]}},{"type":"Feature","id":3935470812,"properties":{"osmId":3935470812,"osmType":"node","name":"Hönow","operator":"Berliner Verkehrsbetriebe","public_transport":"station","railway":"station","station":"subway","subway":"yes","surveillance":"indoor","wheelchair":"yes","wikidata":"Q550317","wikipedia":"de:U-Bahnhof Hönow"},"geometry":{"type":"Point","coordinates":[13.633123,52.5384335]}},{"type":"Feature","id":3946122064,"properties":{"osmId":3946122064,"osmType":"node","name":"Bülowstraße","note":"http://www.bvg.de/de/Fahrinfo/Verkehrsmeldungen/Verkehrsmeldung-Detail?id=6898","operator":"Berliner Verkehrsbetriebe","public_transport":"station","railway":"station","station":"subway","subway":"yes","surveillance":"outdoor","wheelchair":"yes","wikidata":"Q374881","wikipedia":"de:U-Bahnhof Bülowstraße"},"geometry":{"type":"Point","coordinates":[13.3632209,52.4975858]}},{"type":"Feature","id":3947836158,"properties":{"osmId":3947836158,"osmType":"node","name":"Hausvogteiplatz","operator":"Berliner Verkehrsbetriebe","public_transport":"station","railway":"station","station":"subway","subway":"yes","wheelchair":"no","wikidata":"Q656523","wikipedia":"de:U-Bahnhof Hausvogteiplatz"},"geometry":{"type":"Point","coordinates":[13.395591,52.5133502]}},{"type":"Feature","id":3948690912,"properties":{"osmId":3948690912,"osmType":"node","name":"Alt-Tempelhof","operator":"Berliner Verkehrsbetriebe","public_transport":"station","railway":"station","station":"subway","subway":"yes","website":"https://www.bvg.de/de/verbindungen/stationsuebersicht/u-alt-tempelhof","wheelchair":"no","wikidata":"Q559212","wikipedia":"de:U-Bahnhof Alt-Tempelhof"},"geometry":{"type":"Point","coordinates":[13.3856299,52.4655217]}},{"type":"Feature","id":3948690916,"properties":{"osmId":3948690916,"osmType":"node","departures_board":"realtime","name":"Ullsteinstraße","operator":"Berliner Verkehrsbetriebe","platforms":"2","public_transport":"station","railway":"station","station":"subway","subway":"yes","wheelchair":"yes","wikidata":"Q637870","wikipedia":"de:U-Bahnhof Ullsteinstraße"},"geometry":{"type":"Point","coordinates":[13.3844659,52.4537449]}},{"type":"Feature","id":3949521962,"properties":{"osmId":3949521962,"osmType":"node","internet_access":"wlan","name":"Mehringdamm","platforms":"2","public_transport":"station","railway":"station","station":"subway","subway":"yes","website":"https://www.bvg.de/de/verbindungen/stationsuebersicht/u-mehringdamm","wheelchair":"yes","wikidata":"Q657905","wikipedia":"de:U-Bahnhof Mehringdamm"},"geometry":{"type":"Point","coordinates":[13.3886168,52.4941308]}},{"type":"Feature","id":3949521963,"properties":{"osmId":3949521963,"osmType":"node","name":"Paradestraße","operator":"Berliner Verkehrsbetriebe","public_transport":"station","railway":"station","station":"subway","subway":"yes","wheelchair":"yes","wikidata":"Q557543","wikipedia":"de:U-Bahnhof Paradestraße"},"geometry":{"type":"Point","coordinates":[13.3862561,52.4780189]}},{"type":"Feature","id":3950105985,"properties":{"osmId":3950105985,"osmType":"node","internet_access":"yes","internet_access:ssid":"BVG Wi-Fi","level":"-2","name":"Lichtenberg","operator":"Berliner Verkehrsbetriebe","public_transport":"station","railway":"station","station":"subway","subway":"yes","surveillance":"indoor","website":"https://sbahn.berlin/fahren/bahnhofsuebersicht/lichtenberg/","wheelchair":"yes"},"geometry":{"type":"Point","coordinates":[13.4986022,52.5111151]}},{"type":"Feature","id":3955368088,"properties":{"osmId":3955368088,"osmType":"node","departures_board":"realtime","departures_board:speech_output":"no","internet_access":"wlan","internet_access:fee":"no","name":"Onkel Toms Hütte","operator":"Berliner Verkehrsbetriebe","public_transport":"station","railway":"station","station":"subway","subway":"yes","wheelchair":"yes","wikidata":"Q389214","wikipedia":"de:U-Bahnhof Onkel Toms Hütte"},"geometry":{"type":"Point","coordinates":[13.2530752,52.4498912]}},{"type":"Feature","id":3955368093,"properties":{"osmId":3955368093,"osmType":"node","departures_board":"realtime","departures_board:speech_output":"no","name":"Oskar-Helene-Heim","operator":"Berliner Verkehrsbetriebe","public_transport":"station","railway":"station","station":"subway","subway":"yes","toilets:wheelchair":"no","wheelchair":"yes","wikidata":"Q681336","wikipedia":"de:U-Bahnhof Oskar-Helene-Heim"},"geometry":{"type":"Point","coordinates":[13.2690711,52.4503608]}},{"type":"Feature","id":3955368095,"properties":{"osmId":3955368095,"osmType":"node","check_date:wheelchair":"2022-11-06","name":"Freie Universität (Thielplatz)","old_name":"U Thielplatz","operator":"Berliner Verkehrsbetriebe","public_transport":"station","railway":"station","station":"subway","subway":"yes","wheelchair":"yes","wikidata":"Q571331","wikipedia":"de:U-Bahnhof Thielplatz"},"geometry":{"type":"Point","coordinates":[13.281744,52.4510388]}},{"type":"Feature","id":3957757603,"properties":{"osmId":3957757603,"osmType":"node","name":"Uhlandstraße","operator":"Berliner Verkehrsbetriebe","public_transport":"station","railway":"station","start_date":"1913-10-12","station":"subway","subway":"yes","wheelchair":"no","wikidata":"Q568224","wikipedia":"de:U-Bahnhof Uhlandstraße (Berlin)"},"geometry":{"type":"Point","coordinates":[13.3266968,52.5028118]}},{"type":"Feature","id":3957757604,"properties":{"osmId":3957757604,"osmType":"node","atm":"yes","name":"Wittenbergplatz","operator":"Berliner Verkehrsbetriebe","public_transport":"station","railway":"station","station":"subway","subway":"yes","wheelchair":"limited","wikidata":"Q692727","wikipedia":"de:U-Bahnhof Wittenbergplatz"},"geometry":{"type":"Point","coordinates":[13.3430005,52.5017976]}},{"type":"Feature","id":3957897529,"properties":{"osmId":3957897529,"osmType":"node","internet_access":"wlan","line":"U9","name":"Hansaplatz","public_transport":"station","railway":"station","station":"subway","subway":"yes","toilets:wheelchair":"no","website":"https://www.bvg.de/de/verbindungen/stationsuebersicht/u-hansaplatz","wheelchair":"yes","wikidata":"Q287552","wikipedia":"de:U-Bahnhof Hansaplatz"},"geometry":{"type":"Point","coordinates":[13.3420365,52.518008]}},{"type":"Feature","id":3959201657,"properties":{"osmId":3959201657,"osmType":"node","line":"U9","name":"Birkenstraße","operator":"Berliner Verkehrsbetriebe","public_transport":"station","railway":"station","station":"subway","subway":"yes","toilets:wheelchair":"no","website":"https://www.bvg.de/de/verbindungen/stationsuebersicht/u-birkenstr","wheelchair":"yes","wikidata":"Q555998","wikipedia":"de:U-Bahnhof Birkenstraße"},"geometry":{"type":"Point","coordinates":[13.3413533,52.5323818]}},{"type":"Feature","id":3959389239,"properties":{"osmId":3959389239,"osmType":"node","name":"Blaschkoallee","operator":"Berliner Verkehrsbetriebe","public_transport":"station","railway":"station","station":"subway","subway":"yes","wheelchair":"yes","wikidata":"Q666911","wikipedia":"de:U-Bahnhof Blaschkoallee"},"geometry":{"type":"Point","coordinates":[13.4492022,52.4520801]}},{"type":"Feature","id":3959653399,"properties":{"osmId":3959653399,"osmType":"node","name":"Blissestraße","operator":"Berliner Verkehrsbetriebe","public_transport":"station","railway":"station","station":"subway","subway":"yes","wheelchair":"no","wikidata":"Q571397","wikipedia":"de:U-Bahnhof Blissestraße"},"geometry":{"type":"Point","coordinates":[13.3205449,52.4864895]}},{"type":"Feature","id":3959895235,"properties":{"osmId":3959895235,"osmType":"node","name":"Breitenbachplatz","operator":"Berliner Verkehrsbetriebe","public_transport":"station","railway":"station","station":"subway","subway":"yes","wheelchair":"yes","wikidata":"Q571339","wikipedia":"de:U-Bahnhof Breitenbachplatz"},"geometry":{"type":"Point","coordinates":[13.3088711,52.4670266]}},{"type":"Feature","id":3983548303,"properties":{"osmId":3983548303,"osmType":"node","name":"Osloer Straße","operator":"Berliner Verkehrsbetriebe","public_transport":"station","railway":"station","station":"subway","subway":"yes","website":"https://www.bvg.de/de/verbindungen/stationsuebersicht/u-osloer-str","wheelchair":"yes","wikidata":"Q662217","wikipedia":"de:U-Bahnhof Osloer Straße"},"geometry":{"type":"Point","coordinates":[13.3732715,52.5571597]}},{"type":"Feature","id":4213705914,"properties":{"osmId":4213705914,"osmType":"node","layer":"-3","level":"-2","name":"Bundestag","operator":"Berliner Verkehrsbetriebe","operator:short":"BVG","public_transport":"station","railway":"station","start_date":"2009-08-09","station":"subway","subway":"yes","surveillance":"public","tactile_paving":"yes","toilets:wheelchair":"yes","train":"no","wheelchair":"yes","wikidata":"Q694848","wikipedia":"de:U-Bahnhof Bundestag"},"geometry":{"type":"Point","coordinates":[13.3729545,52.5201123]}},{"type":"Feature","id":4440948591,"properties":{"osmId":4440948591,"osmType":"node","check_date:wheelchair":"2022-08-15","line":"U9","name":"Turmstraße","operator":"Berliner Verkehrsbetriebe","public_transport":"station","railway":"station","station":"subway","subway":"yes","wheelchair":"yes","wikidata":"Q571400","wikipedia":"de:U-Bahnhof Turmstraße"},"geometry":{"type":"Point","coordinates":[13.3412971,52.5261489]}},{"type":"Feature","id":4512633105,"properties":{"osmId":4512633105,"osmType":"node","alt_name":"U-Bhf Siemensdamm","name":"Siemensdamm","operator":"Berliner Verkehrsbetriebe","public_transport":"station","railway":"station","station":"subway","subway":"yes","surveillance":"indoor","wheelchair":"yes","wikidata":"Q663264","wikipedia":"de:U-Bahnhof Siemensdamm"},"geometry":{"type":"Point","coordinates":[13.2727638,52.5367748]}},{"type":"Feature","id":4598319045,"properties":{"osmId":4598319045,"osmType":"node","internet_access":"wlan","name":"Tierpark","operator":"Berliner Verkehrsbetriebe","public_transport":"station","railway":"station","station":"subway","subway":"yes","surveillance":"indoor","surveillance:type":"camera","wheelchair":"yes","wikidata":"Q570954","wikipedia":"de:U-Bahnhof Tierpark"},"geometry":{"type":"Point","coordinates":[13.5229595,52.4977241]}},{"type":"Feature","id":4598414751,"properties":{"osmId":4598414751,"osmType":"node","check_date:wheelchair":"2022-09-26","layer":"-5","level":"-5","name":"Alexanderplatz","name:ja":"アレクサンダー広場","name:ko":"U 알렉산더광장(역)","network":"Verkehrsverbund Berlin-Brandenburg","network:short":"VBB","network:wikidata":"Q315451","operator":"Berliner Verkehrsbetriebe","operator:short":"BVG","operator:wikidata":"Q99633","public_transport":"station","railway":"station","station":"subway","subway":"yes","surveillance":"indoor","train":"yes","wheelchair":"yes"},"geometry":{"type":"Point","coordinates":[13.4139082,52.5215849]}},{"type":"Feature","id":4644994619,"properties":{"osmId":4644994619,"osmType":"node","name":"Jungfernheide","name:ja":"ユングフェルンハイデ","operator":"Berliner Verkehrsbetriebe","public_transport":"station","railway":"station","station":"subway","subway":"yes","surveillance":"indoor","wheelchair":"yes","wikidata":"Q19951075","wikipedia":"nl:Jungfernheide (metrostation)"},"geometry":{"type":"Point","coordinates":[13.3006301,52.5307879]}},{"type":"Feature","id":4788379933,"properties":{"osmId":4788379933,"osmType":"node","addr:city":"Berlin","addr:postcode":"12627","internet_access":"wlan","name":"Louis-Lewin-Straße","operator":"Berliner Verkehrsbetriebe","public_transport":"station","railway":"station","station":"subway","subway":"yes","surveillance":"indoor","wheelchair":"limited","wikidata":"Q557558","wikipedia":"de:U-Bahnhof Louis-Lewin-Straße"},"geometry":{"type":"Point","coordinates":[13.6183463,52.538977]}},{"type":"Feature","id":4788379937,"properties":{"osmId":4788379937,"osmType":"node","name":"Hellersdorf","operator":"Berliner Verkehrsbetriebe","public_transport":"station","railway":"station","station":"subway","subway":"yes","surveillance":"indoor","wheelchair":"no","wikidata":"Q571676","wikipedia":"de:U-Bahnhof Hellersdorf"},"geometry":{"type":"Point","coordinates":[13.606672,52.5366883]}},{"type":"Feature","id":4940731304,"properties":{"osmId":4940731304,"osmType":"node","check_date:wheelchair":"2022-07-26","name":"Märkisches Museum","operator":"Berliner Verkehrsbetriebe","public_transport":"station","railway":"station","station":"subway","subway":"yes","wheelchair":"yes","wikidata":"Q657871","wikipedia":"de:U-Bahnhof Märkisches Museum"},"geometry":{"type":"Point","coordinates":[13.4101754,52.5123348]}},{"type":"Feature","id":4989868817,"properties":{"osmId":4989868817,"osmType":"node","departures_board":"realtime","departures_board:speech_output":"no","name":"Rathaus Spandau","operator":"Berliner Verkehrsbetriebe","public_transport":"station","railway":"station","station":"subway","subway":"yes","wheelchair":"yes","wikidata":"Q650704","wikipedia":"en:Rathaus Spandau (Berlin U-Bahn)"},"geometry":{"type":"Point","coordinates":[13.1997742,52.5351709]}},{"type":"Feature","id":5099979652,"properties":{"osmId":5099979652,"osmType":"node","atm":"yes","atm:operator":"Sparkasse","name":"Kleistpark","operator":"Berliner Verkehrsbetriebe","public_transport":"station","railway":"station","station":"subway","subway":"yes","wheelchair":"yes","wikidata":"Q571161","wikipedia":"de:U-Bahnhof Kleistpark"},"geometry":{"type":"Point","coordinates":[13.3602198,52.4903665]}},{"type":"Feature","id":5116771809,"properties":{"osmId":5116771809,"osmType":"node","name":"Kochstraße/Checkpoint Charlie","name:ru":"Кохштрассе","operator":"Berliner Verkehrsbetriebe","platforms":"2","public_transport":"station","railway":"station","station":"subway","subway":"yes","wheelchair":"yes","wikidata":"Q201849","wikipedia":"de:U-Bahnhof Kochstraße"},"geometry":{"type":"Point","coordinates":[13.3906125,52.5060447]}},{"type":"Feature","id":5134482957,"properties":{"osmId":5134482957,"osmType":"node","name":"Rathaus Schöneberg","old_name":"Stadtpark","operator":"Berliner Verkehrsbetriebe","public_transport":"station","railway":"station","start_date":"1910-10-01","station":"subway","subway":"yes","wheelchair":"yes","wikidata":"Q570926","wikipedia":"de:U-Bahnhof Rathaus Schöneberg"},"geometry":{"type":"Point","coordinates":[13.341972,52.4831773]}},{"type":"Feature","id":5134716875,"properties":{"osmId":5134716875,"osmType":"node","level":"-1","name":"Viktoria-Luise-Platz","operator":"Berliner Verkehrsbetriebe","platforms":"1","public_transport":"station","railway":"station","station":"subway","subway":"yes","wheelchair":"yes","wikidata":"Q178685","wikipedia":"de:U-Bahnhof Viktoria-Luise-Platz"},"geometry":{"type":"Point","coordinates":[13.3431855,52.4961755]}},{"type":"Feature","id":5149137347,"properties":{"osmId":5149137347,"osmType":"node","name":"Rüdesheimer Platz","operator":"Berliner Verkehrsbetriebe","public_transport":"station","railway":"station","station":"subway","subway":"yes","wheelchair":"yes","wikidata":"Q167147","wikipedia":"de:U-Bahnhof Rüdesheimer Platz"},"geometry":{"type":"Point","coordinates":[13.314415,52.4732464]}},{"type":"Feature","id":5160531362,"properties":{"osmId":5160531362,"osmType":"node","name":"Podbielskiallee","operator":"Berliner Verkehrsbetriebe","public_transport":"station","railway":"station","station":"subway","subway":"yes","wheelchair":"yes","wikidata":"Q571324","wikipedia":"de:U-Bahnhof Podbielskiallee"},"geometry":{"type":"Point","coordinates":[13.2957519,52.4641033]}},{"type":"Feature","id":5162689183,"properties":{"osmId":5162689183,"osmType":"node","name":"Augsburger Straße","public_transport":"station","railway":"station","station":"subway","subway":"yes","wheelchair":"no","wikidata":"Q667035","wikipedia":"de:U-Bahnhof Augsburger Straße"},"geometry":{"type":"Point","coordinates":[13.3364644,52.5004423]}},{"type":"Feature","id":5162689184,"properties":{"osmId":5162689184,"osmType":"node","name":"Heidelberger Platz","operator":"Berliner Verkehrsbetriebe","public_transport":"station","railway":"station","station":"subway","subway":"yes","wheelchair":"yes","wikidata":"Q302810","wikipedia":"de:Bahnhof Berlin Heidelberger Platz"},"geometry":{"type":"Point","coordinates":[13.3128835,52.4797961]}},{"type":"Feature","id":5162689220,"properties":{"osmId":5162689220,"osmType":"node","name":"Hohenzollernplatz","operator":"Berliner Verkehrsbetriebe","public_transport":"station","railway":"station","station":"subway","subway":"yes","wheelchair":"yes","wikidata":"Q571570","wikipedia":"de:U-Bahnhof Hohenzollernplatz"},"geometry":{"type":"Point","coordinates":[13.3247547,52.4940847]}},{"type":"Feature","id":5162689571,"properties":{"osmId":5162689571,"osmType":"node","atm":"yes","atm:operator":"Sparkasse","internet_access":"wlan","name":"Spichernstraße","operator":"Berliner Verkehrsbetriebe","public_transport":"station","railway":"station","station":"subway","subway":"yes","website":"https://www.bvg.de/de/verbindungen/stationsuebersicht/u-spichernstr","wheelchair":"yes","wikidata":"Q667046","wikipedia":"de:U-Bahnhof Spichernstraße"},"geometry":{"type":"Point","coordinates":[13.3310091,52.4964453]}},{"type":"Feature","id":5162689572,"properties":{"osmId":5162689572,"osmType":"node","name":"Fehrbelliner Platz","operator":"Berliner Verkehrsbetriebe","public_transport":"station","railway":"station","station":"subway","subway":"yes","surveillance":"indoor","website":"https://www.bvg.de/de/verbindungen/stationsuebersicht/u-fehrbelliner-platz","wheelchair":"yes","wikidata":"Q663245","wikipedia":"de:U-Bahnhof Fehrbelliner Platz"},"geometry":{"type":"Point","coordinates":[13.3148438,52.4902993]}},{"type":"Feature","id":5171026793,"properties":{"osmId":5171026793,"osmType":"node","atm":"yes","atm:operator":"Sparkasse","check_date:wheelchair":"2022-07-28","name":"Hermannplatz","operator":"Berliner Verkehrsbetriebe","public_transport":"station","railway":"station","station":"subway","subway":"yes","wheelchair":"yes","wikidata":"Q658929","wikipedia":"de:U-Bahnhof Hermannplatz"},"geometry":{"type":"Point","coordinates":[13.4245531,52.4862857]}},{"type":"Feature","id":5171026794,"properties":{"osmId":5171026794,"osmType":"node","check_date:wheelchair":"2022-07-29","name":"Rathaus Neukölln","operator":"Berliner Verkehrsbetriebe","public_transport":"station","railway":"station","station":"subway","subway":"yes","wheelchair":"yes","wikidata":"Q628770","wikipedia":"de:U-Bahnhof Rathaus Neukölln"},"geometry":{"type":"Point","coordinates":[13.4341793,52.4816522]}},{"type":"Feature","id":5171026799,"properties":{"osmId":5171026799,"osmType":"node","internet_access":"yes","internet_access:fee":"no","internet_access:ssid":"BVG Wi-Fi","name":"Parchimer Allee","operator":"Berliner Verkehrsbetriebe","public_transport":"station","railway":"station","station":"subway","subway":"yes","wheelchair":"yes","wikidata":"Q571855","wikipedia":"de:U-Bahnhof Parchimer Allee"},"geometry":{"type":"Point","coordinates":[13.4495999,52.4447743]}},{"type":"Feature","id":5176114547,"properties":{"osmId":5176114547,"osmType":"node","name":"Jakob-Kaiser-Platz","operator":"Berliner Verkehrsbetriebe","public_transport":"station","railway":"station","station":"subway","subway":"yes","surveillance":"indoor","wheelchair":"no","wikidata":"Q638526","wikipedia":"de:U-Bahnhof Jakob-Kaiser-Platz"},"geometry":{"type":"Point","coordinates":[13.2933009,52.5362794]}},{"type":"Feature","id":5176114617,"properties":{"osmId":5176114617,"osmType":"node","atm":"yes","atm:operator":"Sparkasse","check_date:wheelchair":"2022-11-06","name":"Wilmersdorfer Straße","name:ja":"ヴィルマースドルファー通り","public_transport":"station","railway":"station","station":"subway","subway":"yes","surveillance":"indoor","website":"https://www.bvg.de/de/verbindungen/stationsuebersicht/u-wilmersdorfer-str","wheelchair":"yes","wikidata":"Q570961","wikipedia":"de:U-Bahnhof Wilmersdorfer Straße"},"geometry":{"type":"Point","coordinates":[13.3066372,52.5066749]}},{"type":"Feature","id":5183374155,"properties":{"osmId":5183374155,"osmType":"node","name":"Zitadelle","operator":"Berliner Verkehrsbetriebe","public_transport":"station","railway":"station","station":"subway","subway":"yes","surveillance":"indoor","wheelchair":"yes","wikidata":"Q663212","wikipedia":"de:U-Bahnhof Zitadelle"},"geometry":{"type":"Point","coordinates":[13.2175358,52.537652]}},{"type":"Feature","id":5183375788,"properties":{"osmId":5183375788,"osmType":"node","name":"Paulsternstraße","operator":"Berliner Verkehrsbetriebe","public_transport":"station","railway":"station","station":"subway","subway":"yes","surveillance":"indoor","wheelchair":"no","wikidata":"Q570943","wikipedia":"de:U-Bahnhof Paulsternstraße"},"geometry":{"type":"Point","coordinates":[13.2478176,52.5379819]}},{"type":"Feature","id":5183375797,"properties":{"osmId":5183375797,"osmType":"node","alt_name":"U-Bhf Halemweg","name":"Halemweg","operator":"Berliner Verkehrsbetriebe","public_transport":"station","railway":"station","station":"subway","subway":"yes","surveillance":"indoor","wheelchair":"no","wikidata":"Q571025","wikipedia":"de:U-Bahnhof Halemweg"},"geometry":{"type":"Point","coordinates":[13.2861036,52.5366262]}},{"type":"Feature","id":5198810677,"properties":{"osmId":5198810677,"osmType":"node","departures_board":"realtime","departures_board:speech_output":"no","internet_access":"wlan","internet_access:fee":"no","name":"Reinickendorfer Straße","public_transport":"station","railway":"station","station":"subway","subway":"yes","surveillance":"indoor","website":"https://www.bvg.de/de/verbindungen/stationsuebersicht/u-reinickendorfer-str","wheelchair":"yes","wikidata":"Q559249","wikipedia":"de:U-Bahnhof Reinickendorfer Straße"},"geometry":{"type":"Point","coordinates":[13.3702888,52.5400429]}},{"type":"Feature","id":5219721336,"properties":{"osmId":5219721336,"osmType":"node","internet_access":"wlan","name":"Schönhauser Allee","operator":"Berliner Verkehrsbetriebe","public_transport":"station","railway":"station","station":"subway","subway":"yes","train":"yes","wheelchair":"yes"},"geometry":{"type":"Point","coordinates":[13.4137114,52.5494885]}},{"type":"Feature","id":5219721338,"properties":{"osmId":5219721338,"osmType":"node","name":"Karl-Bonhoeffer-Nervenklinik","operator":"Berliner Verkehrsbetriebe","public_transport":"station","railway":"station","station":"subway","subway":"yes","wheelchair":"yes","wikidata":"Q475553","wikipedia":"de:Bahnhof Berlin Karl-Bonhoeffer-Nervenklinik"},"geometry":{"type":"Point","coordinates":[13.3335031,52.5786231]}},{"type":"Feature","id":5219721339,"properties":{"osmId":5219721339,"osmType":"node","name":"Wittenau","network":"Verkehrsverbund Berlin-Brandenburg","network:short":"VBB","network:wikidata":"Q315451","operator":"Berliner Verkehrsbetriebe","operator:short":"BVG","operator:wikidata":"Q99633","public_transport":"station","railway":"station","railway:ref:BVG":"WIU","station":"subway","subway":"yes","train":"yes","wheelchair":"yes","wikidata":"Q10276235","wikipedia":"de:Bahnhof Berlin-Wittenau (Wilhelmsruher Damm)#U-Bahnhof"},"geometry":{"type":"Point","coordinates":[13.3347115,52.5956412]}},{"type":"Feature","id":5219756617,"properties":{"osmId":5219756617,"osmType":"node","name":"Rosa-Luxemburg-Platz","operator":"Berliner Verkehrsbetriebe","public_transport":"station","railway":"station","station":"subway","subway":"yes","wheelchair":"yes","wikidata":"Q658790","wikipedia":"de:U-Bahnhof Rosa-Luxemburg-Platz"},"geometry":{"type":"Point","coordinates":[13.4104868,52.5276951]}},{"type":"Feature","id":5219756618,"properties":{"osmId":5219756618,"osmType":"node","check_date:wheelchair":"2022-11-06","name":"Mierendorffplatz","name:ja":"ミーレンドルフプラッツ","operator":"Berliner Verkehrsbetriebe","public_transport":"station","railway":"station","station":"subway","subway":"yes","surveillance":"indoor","toilets:wheelchair":"yes","wheelchair":"no","wikidata":"Q571393","wikipedia":"de:U-Bahnhof Mierendorffplatz"},"geometry":{"type":"Point","coordinates":[13.3047721,52.5263437]}},{"type":"Feature","id":5220107618,"properties":{"osmId":5220107618,"osmType":"node","check_date:wheelchair":"2022-11-10","internet_access":"wlan","name":"Pankow","operator":"Berliner Verkehrsbetriebe","public_transport":"station","railway":"station","station":"subway","subway":"yes","wheelchair":"yes"},"geometry":{"type":"Point","coordinates":[13.4117203,52.56678]}},{"type":"Feature","id":5220114129,"properties":{"osmId":5220114129,"osmType":"node","check_date:wheelchair":"2022-11-05","name":"Haselhorst","network":"Verkehrsverbund Berlin-Brandenburg","network:short":"VBB","network:wikidata":"Q315451","operator":"Berliner Verkehrsbetriebe","operator:short":"BVG","operator:wikidata":"Q99633","public_transport":"station","railway":"station","ref_name":"U Haselhorst (Berlin)","station":"subway","subway":"yes","surveillance":"indoor","wheelchair":"yes","wikidata":"Q570916","wikipedia":"de:U-Bahnhof Haselhorst"},"geometry":{"type":"Point","coordinates":[13.2330942,52.5387183]}},{"type":"Feature","id":5250030091,"properties":{"osmId":5250030091,"osmType":"node","loc_name":"U Stadtmitte","name":"Stadtmitte","operator":"Berliner Verkehrsbetriebe","public_transport":"station","railway":"station","station":"subway","subway":"yes","wheelchair":"yes"},"geometry":{"type":"Point","coordinates":[13.3898514,52.5106178]}},{"type":"Feature","id":5250030092,"properties":{"osmId":5250030092,"osmType":"node","alt_name":"U Hallesches Tor","name":"Hallesches Tor","public_transport":"station","railway":"station","station":"subway","subway":"yes","wheelchair":"yes","wikipedia":"de:U-Bahnhof Hallesches Tor"},"geometry":{"type":"Point","coordinates":[13.3917126,52.4990257]}},{"type":"Feature","id":5250030093,"properties":{"osmId":5250030093,"osmType":"node","loc_name":"U Möckernbrücke","name":"Möckernbrücke","operator":"Berliner Verkehrsbetriebe","public_transport":"station","railway":"station","station":"subway","subway":"yes","wheelchair":"no","wikidata":"Q704716"},"geometry":{"type":"Point","coordinates":[13.3828981,52.4991179]}},{"type":"Feature","id":5324318370,"properties":{"osmId":5324318370,"osmType":"node","line":"U9","name":"Bundesplatz","operator":"Berliner Verkehrsbetriebe","operator:short":"BVG","public_transport":"station","railway":"station","station":"subway","subway":"yes","wheelchair":"yes","wikidata":"Q464094","wikipedia":"de:Bahnhof Berlin Bundesplatz"},"geometry":{"type":"Point","coordinates":[13.3285001,52.4776476]}},{"type":"Feature","id":5330823481,"properties":{"osmId":5330823481,"osmType":"node","name":"Rohrdamm","operator":"Berliner Verkehrsbetriebe","public_transport":"station","railway":"station","station":"subway","subway":"yes","surveillance":"indoor","wheelchair":"no","wikidata":"Q570911","wikimedia_commons":"Category:U-Bahnhof Rohrdamm (Berlin)","wikipedia":"de:U-Bahnhof Rohrdamm"},"geometry":{"type":"Point","coordinates":[13.262306,52.5369951]}},{"type":"Feature","id":5679382211,"properties":{"osmId":5679382211,"osmType":"node","departures_board":"realtime","departures_board:speech_output":"no","name":"Tempelhof","operator":"Berliner Verkehrsbetriebe","public_transport":"station","railway":"station","station":"subway","subway":"yes","wheelchair":"yes","wikidata":"Q571405","wikipedia":"de:Bahnhof Berlin-Tempelhof"},"geometry":{"type":"Point","coordinates":[13.3856268,52.4695462]}},{"type":"Feature","id":5713678268,"properties":{"osmId":5713678268,"osmType":"node","check_date:wheelchair":"2022-11-06","name":"Olympia-Stadion","operator":"Berliner Verkehrsbetriebe","public_transport":"station","railway":"station","station":"subway","subway":"yes","wheelchair":"yes","wikidata":"Q656441","wikipedia":"de:U-Bahnhof Olympia-Stadion"},"geometry":{"type":"Point","coordinates":[13.2504479,52.5168643]}},{"type":"Feature","id":5713678269,"properties":{"osmId":5713678269,"osmType":"node","name":"Heinrich-Heine-Straße","operator":"Berliner Verkehrsbetriebe","public_transport":"station","railway":"station","station":"subway","subway":"yes","wheelchair":"no","wikidata":"Q663204","wikipedia":"de:U-Bahnhof Heinrich-Heine-Straße"},"geometry":{"type":"Point","coordinates":[13.4160272,52.5104484]}},{"type":"Feature","id":5713678270,"properties":{"osmId":5713678270,"osmType":"node","name":"Eberswalder Straße","name:ja":"エベルスヴァルダー通り","old_name":"U Dimitroffstraße","operator":"Berliner Verkehrsbetriebe","public_transport":"station","railway":"station","station":"subway","subway":"yes","wheelchair":"yes","wikidata":"Q571382","wikipedia":"de:U-Bahnhof Eberswalder Straße"},"geometry":{"type":"Point","coordinates":[13.4121769,52.5415154]}},{"type":"Feature","id":5713944071,"properties":{"osmId":5713944071,"osmType":"node","name":"Bernauer Straße","operator":"Berliner Verkehrsbetriebe","public_transport":"station","railway":"station","station":"subway","subway":"yes","wheelchair":"yes","wikidata":"Q689293","wikipedia":"de:U-Bahnhof Bernauer Straße"},"geometry":{"type":"Point","coordinates":[13.3966175,52.5374381]}},{"type":"Feature","id":5718454109,"properties":{"osmId":5718454109,"osmType":"node","name":"Alt-Tegel","network":"Verkehrsverbund Berlin-Brandenburg","network:short":"VBB","network:wikidata":"Q315451","operator":"Berliner Verkehrsbetriebe","operator:short":"BVG","operator:wikidata":"Q99633","public_transport":"station","railway":"station","station":"subway","subway":"yes","train":"yes","wheelchair":"yes","wikidata":"Q656090","wikipedia":"de:U-Bahnhof Alt-Tegel"},"geometry":{"type":"Point","coordinates":[13.2837514,52.5894565]}},{"type":"Feature","id":5726082246,"properties":{"osmId":5726082246,"osmType":"node","check_date:wheelchair":"2022-11-05","name":"Altstadt Spandau","operator":"Berliner Verkehrsbetriebe","public_transport":"station","railway":"station","station":"subway","subway":"yes","surveillance":"indoor","wheelchair":"yes","wikidata":"Q571402","wikipedia":"de:U-Bahnhof Altstadt Spandau"},"geometry":{"type":"Point","coordinates":[13.2062573,52.5388381]}},{"type":"Feature","id":6555763842,"properties":{"osmId":6555763842,"osmType":"node","name":"Wutzkyallee","operator":"Berliner Verkehrsbetriebe","public_transport":"station","railway":"station","station":"subway","subway":"yes","wheelchair":"yes","wikidata":"Q571841","wikipedia":"de:U-Bahnhof Wutzkyallee"},"geometry":{"type":"Point","coordinates":[13.4745668,52.4233264]}},{"type":"Feature","id":8170768521,"properties":{"osmId":8170768521,"osmType":"node","line":"U5;U6","name":"Unter den Linden","operator":"Berliner Verkehrsbetriebe","public_transport":"station","railway":"station","station":"subway","subway":"yes","surveillance":"indoor","wheelchair":"yes"},"geometry":{"type":"Point","coordinates":[13.38882,52.5169884]}},{"type":"Feature","id":8170768522,"properties":{"osmId":8170768522,"osmType":"node","name":"Rotes Rathaus","public_transport":"station","railway":"station","station":"subway","subway":"yes","surveillance":"indoor","wheelchair":"yes"},"geometry":{"type":"Point","coordinates":[13.4080828,52.5188425]}},{"type":"Feature","id":9082329700,"properties":{"osmId":9082329700,"osmType":"node","name":"Museumsinsel","public_transport":"station","railway":"station","station":"subway","subway":"yes","surveillance":"indoor","wheelchair":"yes","wikidata":"Q1459924","wikimedia_commons":"Category:U-Bahnhof Museumsinsel","wikipedia":"en:Museumsinsel (Berlin U-Bahn)"},"geometry":{"type":"Point","coordinates":[13.3988844,52.5172626]}}]}